TAWSuffix,City,State,StreetAddress,Zip,AUTO_UNIQUE_ID_2019-03-19_njbell89_field_site_unm,Source,TimeTaken,UpdatedGeocoding,Version,ErrorMessage,TransactionId,naaccrQualCode,naaccrQualType,FeatureMatchingResultType,MatchedLocationType,RegionSizeUnits,InterpolationType,RegionSize,InterpolationSubType,FeatureMatchingGeographyType,MatchScore,FeatureMatchingHierarchy,TieHandlingStrategyType,FeatureMatchingResultTypeTieBreakingNotes,GeocodeQualityType,FeatureMatchingHierarchyNotes,FeatureMatchingResultTypeNotes,FeatureMatchingResultCount,Latitude,Longitude,MatchType,CensusYear,CensusPlaceFips,CensusMsaFips,CensusMetDivFips,CensusMcdFips,CensusCbsaMicro,CensusCbsaFips,CensusBlock,CensusBlockGroup,CensusTract,CensusCountyFips,CensusStateFips,naaccrCertCode,naaccrCertType
62075D,Premont,CA,,,1,USCGeocoder,202.981,1,4.1,,,11,CityCentroid,Success,LOCATION_TYPE_CITY,Meters,ArealInterpolation,12535707,ArealInterpolationGeometricCentroid,City,32.85714286,FeatureClassBased,FlipACoin,,CityCentroid,,,1,33.89761724,-118.1651252,Relaxed;Soundex,TwoThousandTen,55618,4472,31084,90730,0,31100,2030,2,5536.01,37,6,9,Missing
62084,OskKosh,WI,,,2,USCGeocoder,187.5173,1,4.1,,,12,CountyCentroid,Success,LOCATION_TYPE_CITY,Meters,ArealInterpolation,5409633.959,ArealInterpolationGeometricCentroid,CountySubRegion,40,FeatureClassBased,FlipACoin,,CountySubdivisionCentroid,,,1,44.57922583,-91.21192396,Relaxed;Soundex,TwoThousandTen,60575,,,60575,,,2094,2,1001,121,55,9,Missing
62171,Clifton Park,NY,,,3,USCGeocoder,62.5097,1,4.1,,,11,CityCentroid,Success,LOCATION_TYPE_CITY,Meters,ArealInterpolation,3934373.34,ArealInterpolationGeometricCentroid,City,35.45454545,FeatureClassBased,FlipACoin,,CityCentroid,,,1,42.96075185,-77.13545694,Relaxed;Soundex,TwoThousandTen,16375,6840,,44864,0,40380,3005,3,503.01,69,36,9,Missing
62188,Research Triangle Park,NC,,,4,USCGeocoder,281.2662,1,4.1,,,12,CountyCentroid,Success,LOCATION_TYPE_CITY,Meters,ArealInterpolation,94222352.49,ArealInterpolationGeometricCentroid,CountySubRegion,40,FeatureClassBased,FlipACoin,,CountySubdivisionCentroid,,,1,36.07153823,-79.58023557,Relaxed;Soundex,TwoThousandTen,73760,3120,,92716,0,24660,3047,3,152,81,37,9,Missing
62246,Neville Island,PA,,,6,USCGeocoder,78.1408,1,4.1,,,11,CityCentroid,Success,LOCATION_TYPE_CITY,Meters,ArealInterpolation,3128435.1,ArealInterpolationGeometricCentroid,City,22.30769231,FeatureClassBased,FlipACoin,,CityCentroid,,,1,40.39546145,-80.20186877,Relaxed;Soundex,TwoThousandTen,54568,6280,,55016,0,38300,2012,2,5640,3,42,9,Missing
62282,Island Falls,ME,,,8,USCGeocoder,234.4372,1,4.1,,,12,CountyCentroid,Success,LOCATION_TYPE_CITY,Meters,ArealInterpolation,105575635.7,ArealInterpolationGeometricCentroid,CountySubRegion,40,FeatureClassBased,FlipACoin,,CountySubdivisionCentroid,,,1,45.9905703,-68.23301503,Relaxed;Soundex,TwoThousandTen,,730,,35065,,,2153,2,9527,3,23,9,Missing
62289,St. Marys,PA,,,9,USCGeocoder,62.6381,1,4.1,,,11,CityCentroid,Success,LOCATION_TYPE_CITY,Meters,ArealInterpolation,257763013,ArealInterpolationGeometricCentroid,City,50,FeatureClassBased,FlipACoin,,CityCentroid,,,1,41.45746601,-78.53417748,Relaxed;Soundex,TwoThousandTen,67344,,,67344,1,41260,1054,1,9512,47,42,9,Missing
62321,Manchester,IN,,,10,USCGeocoder,140.7045,1,4.1,,,11,CityCentroid,Success,LOCATION_TYPE_CITY,Meters,ArealInterpolation,9358196.242,ArealInterpolationGeometricCentroid,City,46,FeatureClassBased,FlipACoin,,CityCentroid,,,1,41.00440721,-85.77504868,Relaxed;Soundex,TwoThousandTen,54954,,,12322,1,47340,5002,5,1022,169,18,9,Missing
62341,Research Triangle Park,NC,,,12,USCGeocoder,15.5894,1,4.1,,,12,CountyCentroid,Success,LOCATION_TYPE_CITY,Meters,ArealInterpolation,94222352.49,ArealInterpolationGeometricCentroid,CountySubRegion,40,FeatureClassBased,FlipACoin,,CountySubdivisionCentroid,,,1,36.07153823,-79.58023557,Relaxed;Soundex,TwoThousandTen,73760,3120,,92716,0,24660,3047,3,152,81,37,9,Missing
62357CC,Wrentham,MA,,,13,USCGeocoder,296.8853,1,4.1,,,12,CountyCentroid,Success,LOCATION_TYPE_CITY,Meters,ArealInterpolation,58563294.99,ArealInterpolationGeometricCentroid,CountySubRegion,40,FeatureClassBased,FlipACoin,,CountySubdivisionCentroid,,,1,42.05133466,-71.35517669,Relaxed;Soundex,TwoThousandTen,,740,14484,82315,0,14460,2017,2,4412.04,21,25,9,Missing
62357S,Lamarque,TX,,,14,USCGeocoder,78.1021,1,4.1,,,11,CityCentroid,Success,LOCATION_TYPE_CITY,Meters,ArealInterpolation,36932703.57,ArealInterpolationGeometricCentroid,City,10,FeatureClassBased,FlipACoin,,CityCentroid,,,1,29.36895467,-94.9956403,Relaxed;Soundex,TwoThousandTen,41116,3362,,92100,0,26420,3022,3,7230,167,48,9,Missing
62357Z,St. Augustine,FL,,,15,USCGeocoder,171.8827,1,4.1,,,11,CityCentroid,Success,LOCATION_TYPE_CITY,Meters,ArealInterpolation,33092283.81,ArealInterpolationGeometricCentroid,City,50,FeatureClassBased,FlipACoin,,CityCentroid,,,1,29.89793883,-81.31000464,Relaxed;Soundex,TwoThousandTen,62500,3600,,93016,0,27260,2043,2,205,109,12,9,Missing
62364,Bedford,MA,,,17,USCGeocoder,109.4356,1,4.1,,,11,CityCentroid,Success,LOCATION_TYPE_CITY,Meters,ArealInterpolation,62500245.68,ArealInterpolationGeometricCentroid,City,46,FeatureClassBased,FlipACoin,,CityCentroid,,,1,41.66149045,-70.93819641,Relaxed;Soundex,TwoThousandTen,45000,1122,,45000,0,39300,1003,1,6509,5,25,9,Missing
62395,Depere,WI,,,18,USCGeocoder,78.1428,1,4.1,,,11,CityCentroid,Success,LOCATION_TYPE_CITY,Meters,ArealInterpolation,31846117.14,ArealInterpolationGeometricCentroid,City,10,FeatureClassBased,FlipACoin,,CityCentroid,,,1,44.43114247,-88.07926407,Relaxed;Soundex,TwoThousandTen,19775,3080,,19775,0,24580,3002,3,102.01,9,55,9,Missing
62469II,Rehobeth Beach,DE,,,20,USCGeocoder,124.9922,1,4.1,,,11,CityCentroid,Success,LOCATION_TYPE_CITY,Meters,ArealInterpolation,4260048.29,ArealInterpolationGeometricCentroid,City,10,FeatureClassBased,FlipACoin,,CityCentroid,,,1,38.7174898,-75.08140075,Relaxed;Soundex,TwoThousandTen,60290,,,91776,1,42580,3033,3,511.01,5,10,9,Missing
62469OO,Tilton,NH,,,23,USCGeocoder,109.3398,1,4.1,,,11,CityCentroid,Success,LOCATION_TYPE_CITY,Meters,ArealInterpolation,7583003.951,ArealInterpolationGeometricCentroid,City,50,FeatureClassBased,FlipACoin,,CityCentroid,,,1,43.44299818,-71.59364079,Relaxed;Soundex,TwoThousandTen,77100,,,77060,1,29060,1011,1,9655.98,1,33,9,Missing
62469P,Gainsville,TX,,,24,USCGeocoder,78.1149,1,4.1,,,11,CityCentroid,Success,LOCATION_TYPE_CITY,Meters,ArealInterpolation,49318292.56,ArealInterpolationGeometricCentroid,City,46,FeatureClassBased,FlipACoin,,CityCentroid,,,1,33.63847461,-97.14843842,Relaxed;Soundex,TwoThousandTen,27984,,,91435,1,23620,1092,1,4,97,48,9,Missing
62469RR,Westbrook,CT,,,25,USCGeocoder,62.5094,1,4.1,,,11,CityCentroid,Success,LOCATION_TYPE_CITY,Meters,ArealInterpolation,5432858.664,ArealInterpolationGeometricCentroid,City,50,FeatureClassBased,FlipACoin,,CityCentroid,,,1,41.28016434,-72.44206916,Relaxed;Soundex,TwoThousandTen,81750,3280,,81680,0,25540,4007,4,6801,7,9,9,Missing
62469U,Hersey,PA,,,26,USCGeocoder,78.1186,1,4.1,,,11,CityCentroid,Success,LOCATION_TYPE_CITY,Meters,ArealInterpolation,37343266.99,ArealInterpolationGeometricCentroid,City,43.33333333,FeatureClassBased,FlipACoin,,CityCentroid,,,1,40.28057553,-76.64584062,Relaxed;Soundex,TwoThousandTen,34144,3240,,18936,0,25420,1005,1,243,43,42,9,Missing
62538,Mt. Pleasant,MI,,,27,USCGeocoder,62.4901,1,4.1,,,12,CountyCentroid,Success,LOCATION_TYPE_CITY,Meters,ArealInterpolation,51604595.26,ArealInterpolationGeometricCentroid,CountySubRegion,40,FeatureClassBased,FlipACoin,,CountySubdivisionCentroid,,,1,41.78270921,-85.71882889,Relaxed;Soundex,TwoThousandTen,,870,,55780,1,44780,2050,2,414,149,26,9,Missing
62550,Redwood Shore,CA,,,29,USCGeocoder,78.1362,1,4.1,,,11,CityCentroid,Success,LOCATION_TYPE_CITY,Meters,ArealInterpolation,90000471.17,ArealInterpolationGeometricCentroid,City,50,FeatureClassBased,FlipACoin,,CityCentroid,,,1,37.51732201,-122.2113139,Relaxed;Soundex,TwoThousandTen,60102,7362,41884,92870,0,41860,1027,1,6103.02,81,6,9,Missing
62553,Long Island City,NY,,,30,USCGeocoder,62.5304,1,4.1,,,11,CityCentroid,Success,LOCATION_TYPE_CITY,Meters,ArealInterpolation,7073998.126,ArealInterpolationGeometricCentroid,City,10,FeatureClassBased,FlipACoin,,CityCentroid,,,1,42.9006951,-78.67011046,Relaxed;Soundex,TwoThousandTen,41135,1280,,41146,0,15380,3010,3,144,29,36,9,Missing
62559,Southbridge,MA,,,31,USCGeocoder,62.5278,1,4.1,,,11,CityCentroid,Success,LOCATION_TYPE_CITY,Meters,ArealInterpolation,54140159,ArealInterpolationGeometricCentroid,City,50,FeatureClassBased,FlipACoin,,CityCentroid,,,1,42.06038214,-72.03378847,Relaxed;Soundex,TwoThousandTen,63345,1122,,63345,0,49340,2010,2,7575,27,25,9,Missing
62567,North Andover,MA,,,32,USCGeocoder,78.1236,1,4.1,,,11,CityCentroid,Success,LOCATION_TYPE_CITY,Meters,ArealInterpolation,92596799.02,ArealInterpolationGeometricCentroid,City,30,FeatureClassBased,FlipACoin,,CityCentroid,,,1,42.32663214,-72.67454127,Relaxed;Soundex,TwoThousandTen,46330,8000,,46330,0,44140,2011,2,8222,15,25,9,Missing
62588,North Reading,MA,,,33,USCGeocoder,78.1167,1,4.1,,,12,CountyCentroid,Success,LOCATION_TYPE_CITY,Meters,ArealInterpolation,34956125.11,ArealInterpolationGeometricCentroid,CountySubRegion,40,FeatureClassBased,FlipACoin,,CountySubdivisionCentroid,,,1,42.58150308,-71.08753287,Relaxed;Soundex,TwoThousandTen,,740,15764,48955,0,14460,3011,3,3301,17,25,9,Missing
62591,Ste. Genevieve,MO,,,34,USCGeocoder,124.9053,1,4.1,,,11,CityCentroid,Success,LOCATION_TYPE_CITY,Meters,ArealInterpolation,10623053.79,ArealInterpolationGeometricCentroid,City,50,FeatureClassBased,FlipACoin,,CityCentroid,,,1,37.97469153,-90.04817061,Relaxed;Soundex,TwoThousandTen,64180,,,64185,,,3001,3,9602,186,29,6,ResidenceCityOrZIPWithOneCensusTract
62601,Cheybogan,MI,,,35,USCGeocoder,62.4916,1,4.1,,,11,CityCentroid,Success,LOCATION_TYPE_CITY,Meters,ArealInterpolation,18109355.93,ArealInterpolationGeometricCentroid,City,41.11111111,FeatureClassBased,FlipACoin,,CityCentroid,,,1,45.64162965,-84.46857944,Relaxed;Soundex,TwoThousandTen,15000,,,15000,,,2063,2,9603,31,26,9,Missing
62609,Long Island City,NY,,,36,USCGeocoder,15.5999,1,4.1,,,11,CityCentroid,Success,LOCATION_TYPE_CITY,Meters,ArealInterpolation,7073998.126,ArealInterpolationGeometricCentroid,City,10,FeatureClassBased,FlipACoin,,CityCentroid,,,1,42.9006951,-78.67011046,Relaxed;Soundex,TwoThousandTen,41135,1280,,41146,0,15380,3010,3,144,29,36,9,Missing
62621,Wallingford,CT,,,38,USCGeocoder,78.1388,1,4.1,,,11,CityCentroid,Success,LOCATION_TYPE_CITY,Meters,ArealInterpolation,19118676.86,ArealInterpolationGeometricCentroid,City,50,FeatureClassBased,FlipACoin,,CityCentroid,,,1,41.44993274,-72.8188551,Relaxed;Soundex,TwoThousandTen,78880,5602,,78740,0,35300,1008,1,1752,9,9,9,Missing
62691,St. Clair,MO,,,39,USCGeocoder,62.4924,1,4.1,,,11,CityCentroid,Success,LOCATION_TYPE_CITY,Meters,ArealInterpolation,9715984.668,ArealInterpolationGeometricCentroid,City,50,FeatureClassBased,FlipACoin,,CityCentroid,,,1,38.34942008,-90.98714897,Relaxed;Soundex,TwoThousandTen,64136,7040,,12754,0,41180,3012,3,8009.02,71,29,9,Missing
62739,Canton,MA,,,42,USCGeocoder,156.21,1,4.1,,,12,CountyCentroid,Success,LOCATION_TYPE_CITY,Meters,ArealInterpolation,50797131.02,ArealInterpolationGeometricCentroid,CountySubRegion,40,FeatureClassBased,FlipACoin,,CountySubdivisionCentroid,,,1,42.17519337,-71.12650777,Relaxed;Soundex,TwoThousandTen,,740,14484,11315,0,14460,1011,1,4152,21,25,9,Missing
62787,East Longmeadow,MA,,,43,USCGeocoder,93.7533,1,4.1,,,12,CountyCentroid,Success,LOCATION_TYPE_CITY,Meters,ArealInterpolation,33867983.46,ArealInterpolationGeometricCentroid,CountySubRegion,40,FeatureClassBased,FlipACoin,,CountySubdivisionCentroid,,,1,42.05963362,-72.499013,Relaxed;Soundex,TwoThousandTen,,740,,19645,0,44140,2005,2,8134.04,13,25,9,Missing
62801,Westminister,SC,,,44,USCGeocoder,93.7517,1,4.1,,,11,CityCentroid,Success,LOCATION_TYPE_CITY,Meters,ArealInterpolation,8834462.93,ArealInterpolationGeometricCentroid,City,46.66666667,FeatureClassBased,FlipACoin,,CityCentroid,,,1,34.66609588,-83.09056002,Relaxed;Soundex,TwoThousandTen,76165,,,93666,1,42860,5046,5,310,73,45,9,Missing
62802,Edison,NJ,,,45,USCGeocoder,171.9698,1,4.1,,,12,CountyCentroid,Success,LOCATION_TYPE_CITY,Meters,ArealInterpolation,86517048.05,ArealInterpolationGeometricCentroid,CountySubRegion,40,FeatureClassBased,FlipACoin,,CountySubdivisionCentroid,,,1,40.53630628,-74.36891398,Relaxed;Soundex,TwoThousandTen,45690,5602,20764,20230,0,35620,2006,2,22,23,34,9,Missing
62833,DePere,WI,,,46,USCGeocoder,31.2712,1,4.1,,,11,CityCentroid,Success,LOCATION_TYPE_CITY,Meters,ArealInterpolation,31846117.14,ArealInterpolationGeometricCentroid,City,10,FeatureClassBased,FlipACoin,,CityCentroid,,,1,44.43114247,-88.07926407,Relaxed;Soundex,TwoThousandTen,19775,3080,,19775,0,24580,3002,3,102.01,9,55,9,Missing
62836,Lincoln,RI,,,47,USCGeocoder,218.8808,1,4.1,,,12,CountyCentroid,Success,LOCATION_TYPE_CITY,Meters,ArealInterpolation,49082394.88,ArealInterpolationGeometricCentroid,CountySubRegion,40,FeatureClassBased,FlipACoin,,CountySubdivisionCentroid,,,1,41.91694217,-71.45048232,Relaxed;Soundex,TwoThousandTen,,5520,,41500,0,39300,3005,3,116,7,44,9,Missing
62839,Fairlawn,NJ,,,48,USCGeocoder,78.1231,1,4.1,,,11,CityCentroid,Success,LOCATION_TYPE_CITY,Meters,ArealInterpolation,13472032.12,ArealInterpolationGeometricCentroid,City,10,FeatureClassBased,FlipACoin,,CityCentroid,,,1,40.93575882,-74.11771362,Relaxed;Soundex,TwoThousandTen,22470,5602,35644,22470,0,35620,5010,5,174,3,34,9,Missing
62849G,Various Location,NY,,,55,USCGeocoder,93.7273,1,4.1,,,12,CountyCentroid,Success,LOCATION_TYPE_CITY,Meters,ArealInterpolation,122762259.6,ArealInterpolationGeometricCentroid,CountySubRegion,40,FeatureClassBased,FlipACoin,,CountySubdivisionCentroid,,,1,42.51581876,-76.16636398,Relaxed;Soundex,TwoThousandTen,,160,,77596,1,18660,2009,2,9712,23,36,9,Missing
62849H,Various Location,OH,,,56,USCGeocoder,140.631,1,4.1,,,11,CityCentroid,Success,LOCATION_TYPE_CITY,Meters,ArealInterpolation,4850967.852,ArealInterpolationGeometricCentroid,City,18,FeatureClassBased,FlipACoin,,CityCentroid,,,1,40.22227534,-84.48309338,Relaxed;Soundex,TwoThousandTen,79912,,,82152,1,24820,4042,4,5301,37,39,6,ResidenceCityOrZIPWithOneCensusTract
62849I,Various Location,PA,,,57,USCGeocoder,94.0117,1,4.1,,,11,CityCentroid,Success,LOCATION_TYPE_CITY,Meters,ArealInterpolation,1390268.9,ArealInterpolationGeometricCentroid,City,18,FeatureClassBased,FlipACoin,,CityCentroid,,,1,40.31772846,-79.83084935,Relaxed;Soundex,TwoThousandTen,80040,6280,,80040,0,38300,1014,1,5010,3,42,9,Missing
62852,Mt. Union,PA,,,60,USCGeocoder,156.2722,1,4.1,,,12,CountyCentroid,Success,LOCATION_TYPE_CITY,Meters,ArealInterpolation,914214.7519,ArealInterpolationGeometricCentroid,CountySubRegion,40,FeatureClassBased,FlipACoin,,CountySubdivisionCentroid,,,1,39.96181223,-75.80240233,Relaxed;Soundex,TwoThousandTen,50232,6162,37964,50232,0,37980,1036,1,3116,29,42,9,Missing
62853,Nashville Plantation,ME,,,61,USCGeocoder,62.6395,1,4.1,,,12,CountyCentroid,Success,LOCATION_TYPE_CITY,Meters,ArealInterpolation,92195558.33,ArealInterpolationGeometricCentroid,CountySubRegion,40,FeatureClassBased,FlipACoin,,CountySubdivisionCentroid,,,1,46.69995428,-68.50025599,Relaxed;Soundex,TwoThousandTen,,730,,48120,,,1104,1,9509,3,23,9,Missing
62892,Windsor,CT,,,63,USCGeocoder,62.5139,1,4.1,,,11,CityCentroid,Success,LOCATION_TYPE_CITY,Meters,ArealInterpolation,24256148.97,ArealInterpolationGeometricCentroid,City,50,FeatureClassBased,FlipACoin,,CityCentroid,,,1,41.92671117,-72.65439456,Relaxed;Soundex,TwoThousandTen,87140,3280,,87070,0,25540,1024,1,4762,3,9,9,Missing
62892A,Windsor,CT,,,64,USCGeocoder,0,1,4.1,,,11,CityCentroid,Success,LOCATION_TYPE_CITY,Meters,ArealInterpolation,24256148.97,ArealInterpolationGeometricCentroid,City,50,FeatureClassBased,FlipACoin,,CityCentroid,,,1,41.92671117,-72.65439456,Relaxed;Soundex,TwoThousandTen,87140,3280,,87070,0,25540,1024,1,4762,3,9,9,Missing
62904,St. Joseph,MO,,,66,USCGeocoder,78.1129,1,4.1,,,11,CityCentroid,Success,LOCATION_TYPE_CITY,Meters,ArealInterpolation,115963206.9,ArealInterpolationGeometricCentroid,City,50,FeatureClassBased,FlipACoin,,CityCentroid,,,1,39.75983122,-94.82092468,Relaxed;Soundex,TwoThousandTen,64550,7000,,77236,0,41140,1005,1,15,21,29,9,Missing
62938,St. Louis,MO,,,69,USCGeocoder,109.3773,1,4.1,,,11,CityCentroid,Success,LOCATION_TYPE_CITY,Meters,ArealInterpolation,171026232.2,ArealInterpolationGeometricCentroid,City,50,FeatureClassBased,FlipACoin,,CityCentroid,,,1,38.63581226,-90.24511868,Relaxed;Soundex,TwoThousandTen,65000,7040,,65000,0,41180,1008,1,1186,510,29,9,Missing
62938A,Westford,MA,,,70,USCGeocoder,78.0305,1,4.1,,,11,CityCentroid,Success,LOCATION_TYPE_CITY,Meters,ArealInterpolation,122725578.1,ArealInterpolationGeometricCentroid,City,35,FeatureClassBased,FlipACoin,,CityCentroid,,,1,42.13814949,-72.7562089,Relaxed;Soundex,TwoThousandTen,76030,8000,,76030,0,44140,2030,2,8128,13,25,9,Missing
62963,Vienna,OH,,,72,USCGeocoder,78.2667,1,4.1,,,11,CityCentroid,Success,LOCATION_TYPE_CITY,Meters,ArealInterpolation,2477934.675,ArealInterpolationGeometricCentroid,City,50,FeatureClassBased,FlipACoin,,CityCentroid,,,1,41.23445706,-80.65407152,Relaxed;Soundex,TwoThousandTen,80066,9320,,80052,0,49660,2004,2,9312,155,39,6,ResidenceCityOrZIPWithOneCensusTract
63001,Seabrook,SC,,,74,USCGeocoder,62.869,1,4.1,,,11,CityCentroid,Success,LOCATION_TYPE_CITY,Meters,ArealInterpolation,18138191.49,ArealInterpolationGeometricCentroid,City,50,FeatureClassBased,FlipACoin,,CityCentroid,,,1,32.58229854,-80.17353906,Relaxed;Soundex,TwoThousandTen,64712,1440,,91761,0,16700,2003,2,21.05,19,45,9,Missing
63009,Bedford,MA,,,76,USCGeocoder,0,1,4.1,,,11,CityCentroid,Success,LOCATION_TYPE_CITY,Meters,ArealInterpolation,62500245.68,ArealInterpolationGeometricCentroid,City,46,FeatureClassBased,FlipACoin,,CityCentroid,,,1,41.66149045,-70.93819641,Relaxed;Soundex,TwoThousandTen,45000,1122,,45000,0,39300,1003,1,6509,5,25,9,Missing
63012,Millis,MA,,,77,USCGeocoder,78.0487,1,4.1,,,11,CityCentroid,Success,LOCATION_TYPE_CITY,Meters,ArealInterpolation,8207862.507,ArealInterpolationGeometricCentroid,City,50,FeatureClassBased,FlipACoin,,CityCentroid,,,1,42.16480504,-71.35442178,Relaxed;Soundex,TwoThousandTen,41532,1122,14484,41515,0,14460,3018,3,4071,21,25,9,Missing
63023,South Wallace,NC,,,78,USCGeocoder,156.2749,1,4.1,,,12,CountyCentroid,Success,LOCATION_TYPE_CITY,Meters,ArealInterpolation,183043225.2,ArealInterpolationGeometricCentroid,CountySubRegion,40,FeatureClassBased,FlipACoin,,CountySubdivisionCentroid,,,1,35.1262845,-79.9150632,Relaxed;Soundex,TwoThousandTen,,480,,93116,1,40460,2087,2,9702,153,37,9,Missing
63082,Research Triangle Park,NC,,,80,USCGeocoder,15.6483,1,4.1,,,12,CountyCentroid,Success,LOCATION_TYPE_CITY,Meters,ArealInterpolation,94222352.49,ArealInterpolationGeometricCentroid,CountySubRegion,40,FeatureClassBased,FlipACoin,,CountySubdivisionCentroid,,,1,36.07153823,-79.58023557,Relaxed;Soundex,TwoThousandTen,73760,3120,,92716,0,24660,3047,3,152,81,37,9,Missing
63084,West Anaheim,CA,,,81,USCGeocoder,109.435,1,4.1,,,11,CityCentroid,Success,LOCATION_TYPE_CITY,Meters,ArealInterpolation,27488860.53,ArealInterpolationGeometricCentroid,City,28.18181818,FeatureClassBased,FlipACoin,,CityCentroid,,,1,33.75180868,-117.993251,Relaxed;Soundex,TwoThousandTen,84550,4472,42044,92150,0,31100,3007,3,997.01,59,6,9,Missing
63084B,LaPalma,CA,,,82,USCGeocoder,93.7797,1,4.1,,,11,CityCentroid,Success,LOCATION_TYPE_CITY,Meters,ArealInterpolation,4744136.02,ArealInterpolationGeometricCentroid,City,10,FeatureClassBased,FlipACoin,,CityCentroid,,,1,33.85035884,-118.0406667,Relaxed;Soundex,TwoThousandTen,40256,4472,42044,90050,0,31100,2000,2,1101.16,59,6,9,Missing
63104A,New Smithville,PA,,,83,USCGeocoder,78.2916,1,4.1,,,11,CityCentroid,Success,LOCATION_TYPE_CITY,Meters,ArealInterpolation,368264.6995,ArealInterpolationGeometricCentroid,City,10,FeatureClassBased,FlipACoin,,CityCentroid,,,1,39.9422585,-79.19174643,Relaxed;Soundex,TwoThousandTen,53416,3680,,53416,1,43740,3019,3,218,111,42,6,ResidenceCityOrZIPWithOneCensusTract
63119,St. Louis,MO,,,84,USCGeocoder,0,1,4.1,,,11,CityCentroid,Success,LOCATION_TYPE_CITY,Meters,ArealInterpolation,171026232.2,ArealInterpolationGeometricCentroid,City,50,FeatureClassBased,FlipACoin,,CityCentroid,,,1,38.63581226,-90.24511868,Relaxed;Soundex,TwoThousandTen,65000,7040,,65000,0,41180,1008,1,1186,510,29,9,Missing
63156,Elma,NY,,,86,USCGeocoder,62.467,1,4.1,,,11,CityCentroid,Success,LOCATION_TYPE_CITY,Meters,ArealInterpolation,16196464.64,ArealInterpolationGeometricCentroid,City,50,FeatureClassBased,FlipACoin,,CityCentroid,,,1,42.82830837,-78.63428541,Relaxed;Soundex,TwoThousandTen,24141,1280,,24130,0,15380,1019,1,141.01,29,36,9,Missing
63157,St. Peters,MO,,,87,USCGeocoder,218.8165,1,4.1,,,11,CityCentroid,Success,LOCATION_TYPE_CITY,Meters,ArealInterpolation,57930068,ArealInterpolationGeometricCentroid,City,50,FeatureClassBased,FlipACoin,,CityCentroid,,,1,38.7835202,-90.6050746,Relaxed;Soundex,TwoThousandTen,,1740,,65130,0,41180,3016,3,3113.11,183,29,9,Missing
63163,Bristol,RI,,,88,USCGeocoder,62.4704,1,4.1,,,12,CountyCentroid,Success,LOCATION_TYPE_CITY,Meters,ArealInterpolation,53367227.99,ArealInterpolationGeometricCentroid,CountySubRegion,40,FeatureClassBased,FlipACoin,,CountySubdivisionCentroid,,,1,41.67612732,-71.27328702,Relaxed;Soundex,TwoThousandTen,,5520,,9280,0,39300,1004,1,307,1,44,9,Missing
63170,Plainville,CT,,,89,USCGeocoder,62.4295,1,4.1,,,11,CityCentroid,Success,LOCATION_TYPE_CITY,Meters,ArealInterpolation,4454605.376,ArealInterpolationGeometricCentroid,City,38,FeatureClassBased,FlipACoin,,CityCentroid,,,1,41.67662897,-71.92491693,Relaxed;Soundex,TwoThousandTen,60090,1122,,59980,1,48740,3009,3,9073,15,9,9,Missing
63179,North Stonington,CT,,,90,USCGeocoder,78.0798,1,4.1,,,11,CityCentroid,Success,LOCATION_TYPE_CITY,Meters,ArealInterpolation,22813992.74,ArealInterpolationGeometricCentroid,City,26,FeatureClassBased,FlipACoin,,CityCentroid,,,1,41.77689503,-73.07939301,Relaxed;Soundex,TwoThousandTen,55725,3280,,37280,1,45860,2014,2,2983,5,9,9,Missing
63200,Brownville,TX,,,91,USCGeocoder,124.9742,1,4.1,,,11,CityCentroid,Success,LOCATION_TYPE_CITY,Meters,ArealInterpolation,16966975.48,ArealInterpolationGeometricCentroid,City,38,FeatureClassBased,FlipACoin,,CityCentroid,,,1,33.17566367,-102.2730227,Relaxed;Soundex,TwoThousandTen,10720,,,90470,,,4029,4,9504,445,48,9,Missing
63212,Clinton Township,MI,,,92,USCGeocoder,109.3681,1,4.1,,,11,CityCentroid,Success,LOCATION_TYPE_CITY,Meters,ArealInterpolation,4903707.854,ArealInterpolationGeometricCentroid,City,28.66666667,FeatureClassBased,FlipACoin,,CityCentroid,,,1,42.06993607,-83.96860332,Relaxed;Soundex,TwoThousandTen,16480,2162,,16500,1,10300,1019,1,624,91,26,9,Missing
63216,Bethehem,PA,,,93,USCGeocoder,78.0783,1,4.1,,,11,CityCentroid,Success,LOCATION_TYPE_CITY,Meters,ArealInterpolation,1295965.198,ArealInterpolationGeometricCentroid,City,30,FeatureClassBased,FlipACoin,,CityCentroid,,,1,41.61432299,-75.28723909,Relaxed;Soundex,TwoThousandTen,5976,,,20576,,,3030,3,9604,127,42,6,ResidenceCityOrZIPWithOneCensusTract
63228D,Yeardley,PA,,,94,USCGeocoder,109.337,1,4.1,,,11,CityCentroid,Success,LOCATION_TYPE_CITY,Meters,ArealInterpolation,2643081.316,ArealInterpolationGeometricCentroid,City,45,FeatureClassBased,FlipACoin,,CityCentroid,,,1,40.24081207,-74.83851916,Relaxed;Soundex,TwoThousandTen,86920,6162,37964,86920,0,37980,1020,1,1056,17,42,9,Missing
63231L,East Windsor,CT,,,95,USCGeocoder,62.5144,1,4.1,,,11,CityCentroid,Success,LOCATION_TYPE_CITY,Meters,ArealInterpolation,6650338.104,ArealInterpolationGeometricCentroid,City,10,FeatureClassBased,FlipACoin,,CityCentroid,,,1,41.57351405,-72.49182984,Relaxed;Soundex,TwoThousandTen,22420,3280,,22490,0,25540,1016,1,5502.01,7,9,9,Missing
63281,Salina,CA,,,96,USCGeocoder,156.27,1,4.1,,,11,CityCentroid,Success,LOCATION_TYPE_CITY,Meters,ArealInterpolation,13302862.3,ArealInterpolationGeometricCentroid,City,30,FeatureClassBased,FlipACoin,,CityCentroid,,,1,36.57431468,-119.6155843,Relaxed;Soundex,TwoThousandTen,70882,2840,,92990,0,23420,3003,3,70.02,19,6,9,Missing
63309,Long Island City,NY,,,97,USCGeocoder,0,1,4.1,,,11,CityCentroid,Success,LOCATION_TYPE_CITY,Meters,ArealInterpolation,7073998.126,ArealInterpolationGeometricCentroid,City,10,FeatureClassBased,FlipACoin,,CityCentroid,,,1,42.9006951,-78.67011046,Relaxed;Soundex,TwoThousandTen,41135,1280,,41146,0,15380,3010,3,144,29,36,9,Missing
63323,Millersberg,OH,,,100,USCGeocoder,140.6339,1,4.1,,,11,CityCentroid,Success,LOCATION_TYPE_CITY,Meters,ArealInterpolation,780260.965,ArealInterpolationGeometricCentroid,City,50,FeatureClassBased,FlipACoin,,CityCentroid,,,1,41.1034754,-84.13090203,Relaxed;Soundex,TwoThousandTen,50358,,,59612,,,4031,4,302,137,39,6,ResidenceCityOrZIPWithOneCensusTract
63354,Northridge,CA,,,101,USCGeocoder,46.8943,1,4.1,,,11,CityCentroid,Success,LOCATION_TYPE_CITY,Meters,ArealInterpolation,4045664.941,ArealInterpolationGeometricCentroid,City,10,FeatureClassBased,FlipACoin,,CityCentroid,,,1,37.96455609,-122.3727498,Relaxed;Soundex,TwoThousandTen,52162,7362,36084,93620,0,41860,3019,3,3650.02,13,6,9,Missing
63359,South Windsor,CT,,,102,USCGeocoder,62.5364,1,4.1,,,11,CityCentroid,Success,LOCATION_TYPE_CITY,Meters,ArealInterpolation,8123356.633,ArealInterpolationGeometricCentroid,City,10,FeatureClassBased,FlipACoin,,CityCentroid,,,1,41.68494319,-72.18452284,Relaxed;Soundex,TwoThousandTen,71250,1122,,86790,1,48740,4015,4,8005,15,9,9,Missing
63359A,South Windsor,CT,,,103,USCGeocoder,0,1,4.1,,,11,CityCentroid,Success,LOCATION_TYPE_CITY,Meters,ArealInterpolation,8123356.633,ArealInterpolationGeometricCentroid,City,10,FeatureClassBased,FlipACoin,,CityCentroid,,,1,41.68494319,-72.18452284,Relaxed;Soundex,TwoThousandTen,71250,1122,,86790,1,48740,4015,4,8005,15,9,9,Missing
63383,St. Johnsbury,VT,,,105,USCGeocoder,109.3964,1,4.1,,,11,CityCentroid,Success,LOCATION_TYPE_CITY,Meters,ArealInterpolation,33868866.93,ArealInterpolationGeometricCentroid,City,50,FeatureClassBased,FlipACoin,,CityCentroid,,,1,44.42872262,-72.01153735,Relaxed;Soundex,TwoThousandTen,62125,,,62200,,,1055,1,9575,5,50,9,Missing
63439,Carmel,NY,,,108,USCGeocoder,78.098,1,4.1,,,11,CityCentroid,Success,LOCATION_TYPE_CITY,Meters,ArealInterpolation,26911482.06,ArealInterpolationGeometricCentroid,City,50,FeatureClassBased,FlipACoin,,CityCentroid,,,1,41.4149412,-73.6854956,Relaxed;Soundex,TwoThousandTen,12532,5602,35644,12529,0,35620,2027,2,115,79,36,9,Missing
63441,Hamburg,MI,,,109,USCGeocoder,62.4979,1,4.1,,,11,CityCentroid,Success,LOCATION_TYPE_CITY,Meters,ArealInterpolation,1130131.473,ArealInterpolationGeometricCentroid,City,21.42857143,FeatureClassBased,FlipACoin,,CityCentroid,,,1,42.10012474,-84.55416355,Relaxed;Soundex,TwoThousandTen,36380,3520,,36400,0,27100,5030,5,64.02,75,26,6,ResidenceCityOrZIPWithOneCensusTract
63443,Lewiston,PA,,,110,USCGeocoder,78.1515,1,4.1,,,11,CityCentroid,Success,LOCATION_TYPE_CITY,Meters,ArealInterpolation,5310315.863,ArealInterpolationGeometricCentroid,City,45,FeatureClassBased,FlipACoin,,CityCentroid,,,1,40.59631557,-77.57300182,Relaxed;Soundex,TwoThousandTen,43000,,,43000,1,30380,1019,1,9609,87,42,9,Missing
63464,Galdwin,MI,,,111,USCGeocoder,62.561,1,4.1,,,11,CityCentroid,Success,LOCATION_TYPE_CITY,Meters,ArealInterpolation,7563150.727,ArealInterpolationGeometricCentroid,City,38.57142857,FeatureClassBased,FlipACoin,,CityCentroid,,,1,43.9836352,-84.48771318,Relaxed;Soundex,TwoThousandTen,32320,,,32320,,,2032,2,7,51,26,6,ResidenceCityOrZIPWithOneCensusTract
63529,St. Clair Shores,MI,,,113,USCGeocoder,78.1006,1,4.1,,,11,CityCentroid,Success,LOCATION_TYPE_CITY,Meters,ArealInterpolation,36979195.98,ArealInterpolationGeometricCentroid,City,50,FeatureClassBased,FlipACoin,,CityCentroid,,,1,42.49328203,-82.89219704,Relaxed;Soundex,TwoThousandTen,70760,2162,47644,70760,0,19820,2014,2,2511,99,26,9,Missing
63531,Guilford,CT,,,114,USCGeocoder,62.5089,1,4.1,,,11,CityCentroid,Success,LOCATION_TYPE_CITY,Meters,ArealInterpolation,5735824.632,ArealInterpolationGeometricCentroid,City,50,FeatureClassBased,FlipACoin,,CityCentroid,,,1,41.28168169,-72.67616961,Relaxed;Soundex,TwoThousandTen,35020,5602,,34950,0,35300,2010,2,1901,9,9,9,Missing
63574,Mansfield,MA,,,115,USCGeocoder,62.4783,1,4.1,,,11,CityCentroid,Success,LOCATION_TYPE_CITY,Meters,ArealInterpolation,7298430.034,ArealInterpolationGeometricCentroid,City,50,FeatureClassBased,FlipACoin,,CityCentroid,,,1,42.02249279,-71.21805564,Relaxed;Soundex,TwoThousandTen,38230,1122,,38225,0,39300,3058,3,6101,5,25,9,Missing
63599,Lee's Summit,MO,,,116,USCGeocoder,109.3152,1,4.1,,,12,CountyCentroid,Success,LOCATION_TYPE_CITY,Meters,ArealInterpolation,48423979.63,ArealInterpolationGeometricCentroid,CountySubRegion,40,FeatureClassBased,FlipACoin,,CountySubdivisionCentroid,,,1,38.84429994,-90.32122852,Relaxed;Soundex,TwoThousandTen,54352,7040,,41825,0,41180,2024,2,2109.27,189,29,9,Missing
63604,South St. Paul,MN,,,117,USCGeocoder,93.7676,1,4.1,,,11,CityCentroid,Success,LOCATION_TYPE_CITY,Meters,ArealInterpolation,15888026.55,ArealInterpolationGeometricCentroid,City,50,FeatureClassBased,FlipACoin,,CityCentroid,,,1,44.88741443,-93.04079234,Relaxed;Soundex,TwoThousandTen,61492,5120,,61492,0,33460,2008,2,603.01,37,27,9,Missing
63630,St. Louis,MO,,,118,USCGeocoder,15.6443,1,4.1,,,11,CityCentroid,Success,LOCATION_TYPE_CITY,Meters,ArealInterpolation,171026232.2,ArealInterpolationGeometricCentroid,City,50,FeatureClassBased,FlipACoin,,CityCentroid,,,1,38.63581226,-90.24511868,Relaxed;Soundex,TwoThousandTen,65000,7040,,65000,0,41180,1008,1,1186,510,29,9,Missing
63642A,auburn,ME,,,120,USCGeocoder,62.5311,1,4.1,,,11,CityCentroid,Success,LOCATION_TYPE_CITY,Meters,ArealInterpolation,170265387,ArealInterpolationGeometricCentroid,City,50,FeatureClassBased,FlipACoin,,CityCentroid,,,1,44.08514287,-70.24928675,Relaxed;Soundex,TwoThousandTen,2060,4240,,2060,0,30340,1014,1,104,1,23,9,Missing
63656,Irvington,NJ,,,121,USCGeocoder,93.7784,1,4.1,,,12,CountyCentroid,Success,LOCATION_TYPE_CITY,Meters,ArealInterpolation,7589026.799,ArealInterpolationGeometricCentroid,CountySubRegion,40,FeatureClassBased,FlipACoin,,CountySubdivisionCentroid,,,1,40.72418535,-74.23178999,Relaxed;Soundex,TwoThousandTen,,5602,35084,34450,0,35620,1000,1,124,13,34,9,Missing
63661,Long Island City,NY,,,122,USCGeocoder,15.6033,1,4.1,,,11,CityCentroid,Success,LOCATION_TYPE_CITY,Meters,ArealInterpolation,7073998.126,ArealInterpolationGeometricCentroid,City,10,FeatureClassBased,FlipACoin,,CityCentroid,,,1,42.9006951,-78.67011046,Relaxed;Soundex,TwoThousandTen,41135,1280,,41146,0,15380,3010,3,144,29,36,9,Missing
63672,Hillside,NJ,,,125,USCGeocoder,78.1918,1,4.1,,,11,CityCentroid,Success,LOCATION_TYPE_CITY,Meters,ArealInterpolation,7658828.827,ArealInterpolationGeometricCentroid,City,35,FeatureClassBased,FlipACoin,,CityCentroid,,,1,41.00729577,-74.04405402,Relaxed;Soundex,TwoThousandTen,31920,5602,35644,31920,0,35620,4016,4,262,3,34,9,Missing
63676,Pawaukee,WI,,,126,USCGeocoder,78.0946,1,4.1,,,11,CityCentroid,Success,LOCATION_TYPE_CITY,Meters,ArealInterpolation,54794437.86,ArealInterpolationGeometricCentroid,City,45,FeatureClassBased,FlipACoin,,CityCentroid,,,1,43.0700229,-88.24073313,Relaxed;Soundex,TwoThousandTen,62250,5082,,62250,0,33340,4001,4,2033.06,133,55,9,Missing
63680,Clinton Township,MI,,,127,USCGeocoder,15.6307,1,4.1,,,11,CityCentroid,Success,LOCATION_TYPE_CITY,Meters,ArealInterpolation,4903707.854,ArealInterpolationGeometricCentroid,City,28.66666667,FeatureClassBased,FlipACoin,,CityCentroid,,,1,42.06993607,-83.96860332,Relaxed;Soundex,TwoThousandTen,16480,2162,,16500,1,10300,1019,1,624,91,26,9,Missing
63701,Rocky Mountain,VA,,,128,USCGeocoder,187.4786,1,4.1,,,11,CityCentroid,Success,LOCATION_TYPE_CITY,Meters,ArealInterpolation,161774979.1,ArealInterpolationGeometricCentroid,City,25.38461538,FeatureClassBased,FlipACoin,,CityCentroid,,,1,37.52939331,-77.47556818,Relaxed;Soundex,TwoThousandTen,67000,6760,,95291,0,40060,2014,2,413,760,51,9,Missing
63715,DePere,WI,,,130,USCGeocoder,0,1,4.1,,,11,CityCentroid,Success,LOCATION_TYPE_CITY,Meters,ArealInterpolation,31846117.14,ArealInterpolationGeometricCentroid,City,10,FeatureClassBased,FlipACoin,,CityCentroid,,,1,44.43114247,-88.07926407,Relaxed;Soundex,TwoThousandTen,19775,3080,,19775,0,24580,3002,3,102.01,9,55,9,Missing
63734,Morris Plaines,NJ,,,132,USCGeocoder,93.5835,1,4.1,,,11,CityCentroid,Success,LOCATION_TYPE_CITY,Meters,ArealInterpolation,836697.3924,ArealInterpolationGeometricCentroid,City,19.23076923,FeatureClassBased,FlipACoin,,CityCentroid,,,1,40.98813847,-74.9061445,Relaxed;Soundex,TwoThousandTen,43980,5602,,25320,0,10900,2018,2,311.02,41,34,6,ResidenceCityOrZIPWithOneCensusTract
63762,St. James,MN,,,135,USCGeocoder,140.6308,1,4.1,,,11,CityCentroid,Success,LOCATION_TYPE_CITY,Meters,ArealInterpolation,6281413.68,ArealInterpolationGeometricCentroid,City,50,FeatureClassBased,FlipACoin,,CityCentroid,,,1,43.98343844,-94.62512725,Relaxed;Soundex,TwoThousandTen,57040,,,57040,,,3004,3,9502,165,27,9,Missing
63782,LaVergne,TN,,,138,USCGeocoder,78.1257,1,4.1,,,11,CityCentroid,Success,LOCATION_TYPE_CITY,Meters,ArealInterpolation,65310394.63,ArealInterpolationGeometricCentroid,City,10,FeatureClassBased,FlipACoin,,CityCentroid,,,1,36.02101196,-86.55734106,Relaxed;Soundex,TwoThousandTen,41200,5360,,90150,0,34980,2020,2,401.04,149,47,9,Missing
63795,Arden,NC,,,139,USCGeocoder,62.4603,1,4.1,,,11,CityCentroid,Success,LOCATION_TYPE_CITY,Meters,ArealInterpolation,39873633.3,ArealInterpolationGeometricCentroid,City,10,FeatureClassBased,FlipACoin,,CityCentroid,,,1,35.95914071,-79.75979485,Relaxed;Soundex,TwoThousandTen,52760,3120,,91096,0,24660,1007,1,169,81,37,9,Missing
63812,St. Joseph,MO,,,141,USCGeocoder,15.6128,1,4.1,,,11,CityCentroid,Success,LOCATION_TYPE_CITY,Meters,ArealInterpolation,115963206.9,ArealInterpolationGeometricCentroid,City,50,FeatureClassBased,FlipACoin,,CityCentroid,,,1,39.75983122,-94.82092468,Relaxed;Soundex,TwoThousandTen,64550,7000,,77236,0,41140,1005,1,15,21,29,9,Missing
63831,Long Island City,NY,,,142,USCGeocoder,0,1,4.1,,,11,CityCentroid,Success,LOCATION_TYPE_CITY,Meters,ArealInterpolation,7073998.126,ArealInterpolationGeometricCentroid,City,10,FeatureClassBased,FlipACoin,,CityCentroid,,,1,42.9006951,-78.67011046,Relaxed;Soundex,TwoThousandTen,41135,1280,,41146,0,15380,3010,3,144,29,36,9,Missing
63848,Lee's Summit,MO,,,143,USCGeocoder,15.6301,1,4.1,,,12,CountyCentroid,Success,LOCATION_TYPE_CITY,Meters,ArealInterpolation,48423979.63,ArealInterpolationGeometricCentroid,CountySubRegion,40,FeatureClassBased,FlipACoin,,CountySubdivisionCentroid,,,1,38.84429994,-90.32122852,Relaxed;Soundex,TwoThousandTen,54352,7040,,41825,0,41180,2024,2,2109.27,189,29,9,Missing
63866,Plainville,CT,,,145,USCGeocoder,0,1,4.1,,,11,CityCentroid,Success,LOCATION_TYPE_CITY,Meters,ArealInterpolation,4454605.376,ArealInterpolationGeometricCentroid,City,38,FeatureClassBased,FlipACoin,,CityCentroid,,,1,41.67662897,-71.92491693,Relaxed;Soundex,TwoThousandTen,60090,1122,,59980,1,48740,3009,3,9073,15,9,9,Missing
63868,St. Louis,MO,,,146,USCGeocoder,0,1,4.1,,,11,CityCentroid,Success,LOCATION_TYPE_CITY,Meters,ArealInterpolation,171026232.2,ArealInterpolationGeometricCentroid,City,50,FeatureClassBased,FlipACoin,,CityCentroid,,,1,38.63581226,-90.24511868,Relaxed;Soundex,TwoThousandTen,65000,7040,,65000,0,41180,1008,1,1186,510,29,9,Missing
63878,South Windsor,CT,,,147,USCGeocoder,0,1,4.1,,,11,CityCentroid,Success,LOCATION_TYPE_CITY,Meters,ArealInterpolation,8123356.633,ArealInterpolationGeometricCentroid,City,10,FeatureClassBased,FlipACoin,,CityCentroid,,,1,41.68494319,-72.18452284,Relaxed;Soundex,TwoThousandTen,71250,1122,,86790,1,48740,4015,4,8005,15,9,9,Missing
63895,St. Paul,MN,,,148,USCGeocoder,93.7539,1,4.1,,,11,CityCentroid,Success,LOCATION_TYPE_CITY,Meters,ArealInterpolation,145498914.5,ArealInterpolationGeometricCentroid,City,50,FeatureClassBased,FlipACoin,,CityCentroid,,,1,44.94774025,-93.10399583,Relaxed;Soundex,TwoThousandTen,58000,5120,,58000,0,33460,1045,1,428,123,27,9,Missing
63906,Westboro,MA,,,149,USCGeocoder,78.1634,1,4.1,,,11,CityCentroid,Success,LOCATION_TYPE_CITY,Meters,ArealInterpolation,4933265.336,ArealInterpolationGeometricCentroid,City,35,FeatureClassBased,FlipACoin,,CityCentroid,,,1,42.26717597,-71.6168463,Relaxed;Soundex,TwoThousandTen,75050,1122,,75015,0,49340,4010,4,7423,27,25,9,Missing
63918,Branford,CT,,,150,USCGeocoder,62.4874,1,4.1,,,11,CityCentroid,Success,LOCATION_TYPE_CITY,Meters,ArealInterpolation,5403226.521,ArealInterpolationGeometricCentroid,City,50,FeatureClassBased,FlipACoin,,CityCentroid,,,1,41.27740865,-72.81509087,Relaxed;Soundex,TwoThousandTen,7345,5602,,7310,0,35300,2009,2,1841,9,9,9,Missing
63963B,St. Clair Shores,MI,,,151,USCGeocoder,0,1,4.1,,,11,CityCentroid,Success,LOCATION_TYPE_CITY,Meters,ArealInterpolation,36979195.98,ArealInterpolationGeometricCentroid,City,50,FeatureClassBased,FlipACoin,,CityCentroid,,,1,42.49328203,-82.89219704,Relaxed;Soundex,TwoThousandTen,70760,2162,47644,70760,0,19820,2014,2,2511,99,26,9,Missing
63980,Canton,MA,,,152,USCGeocoder,0,1,4.1,,,12,CountyCentroid,Success,LOCATION_TYPE_CITY,Meters,ArealInterpolation,50797131.02,ArealInterpolationGeometricCentroid,CountySubRegion,40,FeatureClassBased,FlipACoin,,CountySubdivisionCentroid,,,1,42.17519337,-71.12650777,Relaxed;Soundex,TwoThousandTen,,740,14484,11315,0,14460,1011,1,4152,21,25,9,Missing
63987,St Marys,PA,,,153,USCGeocoder,31.3517,1,4.1,,,11,CityCentroid,Success,LOCATION_TYPE_CITY,Meters,ArealInterpolation,257763013,ArealInterpolationGeometricCentroid,City,50,FeatureClassBased,FlipACoin,,CityCentroid,,,1,41.45746601,-78.53417748,Relaxed;Soundex,TwoThousandTen,67344,,,67344,1,41260,1054,1,9512,47,42,9,Missing
63994,Hartland,MI,,,154,USCGeocoder,62.4948,1,4.1,,,12,CountyCentroid,Success,LOCATION_TYPE_CITY,Meters,ArealInterpolation,96594842.43,ArealInterpolationGeometricCentroid,CountySubRegion,40,FeatureClassBased,FlipACoin,,CountySubdivisionCentroid,,,1,42.64878734,-83.73911925,Relaxed;Soundex,TwoThousandTen,,870,47644,37040,0,19820,1032,1,7131,93,26,9,Missing
63998,St. Petersburg,FL,,,155,USCGeocoder,93.5903,1,4.1,,,11,CityCentroid,Success,LOCATION_TYPE_CITY,Meters,ArealInterpolation,357500421.3,ArealInterpolationGeometricCentroid,City,50,FeatureClassBased,FlipACoin,,CityCentroid,,,1,27.76172935,-82.64293485,Relaxed;Soundex,TwoThousandTen,63000,8280,,93042,0,45300,1029,1,286,103,12,9,Missing
64003,Mt. Clemens,MI,,,156,USCGeocoder,62.4943,1,4.1,,,12,CountyCentroid,Success,LOCATION_TYPE_CITY,Meters,ArealInterpolation,371350796.1,ArealInterpolationGeometricCentroid,CountySubRegion,40,FeatureClassBased,FlipACoin,,CountySubdivisionCentroid,,,1,44.72617056,-83.79730483,Relaxed;Soundex,TwoThousandTen,,870,,54740,,,1051,1,9705,1,26,9,Missing
64022,Skaneateles Falls,NY,,,157,USCGeocoder,62.353,1,4.1,,,11,CityCentroid,Success,LOCATION_TYPE_CITY,Meters,ArealInterpolation,4456197.814,ArealInterpolationGeometricCentroid,City,37.5,FeatureClassBased,FlipACoin,,CityCentroid,,,1,42.94578955,-76.42818715,Relaxed;Soundex,TwoThousandTen,67510,8160,,67521,0,45060,3047,3,166,67,36,9,Missing
64095,Randolph,NJ,,,158,USCGeocoder,93.7441,1,4.1,,,12,CountyCentroid,Success,LOCATION_TYPE_CITY,Meters,ArealInterpolation,54574463.6,ArealInterpolationGeometricCentroid,CountySubRegion,40,FeatureClassBased,FlipACoin,,CountySubdivisionCentroid,,,1,40.8434064,-74.58158945,Relaxed;Soundex,TwoThousandTen,,5602,35084,61890,0,35620,1010,1,457.04,27,34,9,Missing
64142,Governeur,NY,,,159,USCGeocoder,78.0913,1,4.1,,,11,CityCentroid,Success,LOCATION_TYPE_CITY,Meters,ArealInterpolation,5899782.05,ArealInterpolationGeometricCentroid,City,45.55555556,FeatureClassBased,FlipACoin,,CityCentroid,,,1,44.33665781,-75.46662311,Relaxed;Soundex,TwoThousandTen,29597,,,29608,1,36300,2023,2,4927,89,36,6,ResidenceCityOrZIPWithOneCensusTract
64160,St. Helens,OR,,,160,USCGeocoder,140.6301,1,4.1,,,11,CityCentroid,Success,LOCATION_TYPE_CITY,Meters,ArealInterpolation,14552133.65,ArealInterpolationGeometricCentroid,City,50,FeatureClassBased,FlipACoin,,CityCentroid,,,1,45.85778431,-122.8159711,Relaxed;Soundex,TwoThousandTen,64600,6442,,92703,0,38900,1028,1,9708,9,41,9,Missing
64163,Windsor,CT,,,161,USCGeocoder,0,1,4.1,,,11,CityCentroid,Success,LOCATION_TYPE_CITY,Meters,ArealInterpolation,24256148.97,ArealInterpolationGeometricCentroid,City,50,FeatureClassBased,FlipACoin,,CityCentroid,,,1,41.92671117,-72.65439456,Relaxed;Soundex,TwoThousandTen,87140,3280,,87070,0,25540,1024,1,4762,3,9,9,Missing
64171,Glen Dale,WV,,,162,USCGeocoder,156.2434,1,4.1,,,11,CityCentroid,Success,LOCATION_TYPE_CITY,Meters,ArealInterpolation,3107618.681,ArealInterpolationGeometricCentroid,City,50,FeatureClassBased,FlipACoin,,CityCentroid,,,1,39.94665658,-80.75629709,Relaxed;Soundex,TwoThousandTen,31492,9000,,90852,0,48540,1080,1,207.02,51,54,9,Missing
64220,Princess Ann,MD,,,163,USCGeocoder,78.1091,1,4.1,,,11,CityCentroid,Success,LOCATION_TYPE_CITY,Meters,ArealInterpolation,4617141.471,ArealInterpolationGeometricCentroid,City,39.09090909,FeatureClassBased,FlipACoin,,CityCentroid,,,1,38.20559031,-75.69693271,Relaxed;Soundex,TwoThousandTen,64000,,,90076,0,41540,3046,3,9301.01,39,24,9,Missing
64262,Torrence,CA,,,164,USCGeocoder,93.7576,1,4.1,,,11,CityCentroid,Success,LOCATION_TYPE_CITY,Meters,ArealInterpolation,53232768.87,ArealInterpolationGeometricCentroid,City,45,FeatureClassBased,FlipACoin,,CityCentroid,,,1,33.83459854,-118.341642,Relaxed;Soundex,TwoThousandTen,80000,4472,31084,93380,0,31100,2011,2,6504.01,37,6,9,Missing
64329,Chelmsford,MA,,,165,USCGeocoder,78.0679,1,4.1,,,12,CountyCentroid,Success,LOCATION_TYPE_CITY,Meters,ArealInterpolation,59788240.87,ArealInterpolationGeometricCentroid,CountySubRegion,40,FeatureClassBased,FlipACoin,,CountySubdivisionCentroid,,,1,42.59996392,-71.363119,Relaxed;Soundex,TwoThousandTen,,740,15764,13135,0,14460,1016,1,3171.01,17,25,9,Missing
64357,Plainfield,CT,,,166,USCGeocoder,31.2694,1,4.1,,,11,CityCentroid,Success,LOCATION_TYPE_CITY,Meters,ArealInterpolation,4454605.376,ArealInterpolationGeometricCentroid,City,50,FeatureClassBased,FlipACoin,,CityCentroid,,,1,41.67662897,-71.92491693,Relaxed;Soundex,TwoThousandTen,60090,1122,,59980,1,48740,3009,3,9073,15,9,9,Missing
64360,Enfield,CT,,,167,USCGeocoder,78.1385,1,4.1,,,12,CountyCentroid,Success,LOCATION_TYPE_CITY,Meters,ArealInterpolation,88617681.15,ArealInterpolationGeometricCentroid,CountySubRegion,40,FeatureClassBased,FlipACoin,,CountySubdivisionCentroid,,,1,41.9839643,-72.55475388,Relaxed;Soundex,TwoThousandTen,37770,3280,,25990,0,25540,2016,2,4808,3,9,9,Missing
64521,Chula vista,CA,,,169,USCGeocoder,93.7485,1,4.1,,,11,CityCentroid,Success,LOCATION_TYPE_CITY,Meters,ArealInterpolation,137016453.1,ArealInterpolationGeometricCentroid,City,50,FeatureClassBased,FlipACoin,,CityCentroid,,,1,32.62774333,-117.0143572,Relaxed;Soundex,TwoThousandTen,13392,7320,,92780,0,41740,4001,4,134.14,73,6,9,Missing
64531,Teaneck,NJ,,,170,USCGeocoder,140.653,1,4.1,,,12,CountyCentroid,Success,LOCATION_TYPE_CITY,Meters,ArealInterpolation,16126815.48,ArealInterpolationGeometricCentroid,CountySubRegion,40,FeatureClassBased,FlipACoin,,CountySubdivisionCentroid,,,1,40.89004984,-74.01057102,Relaxed;Soundex,TwoThousandTen,,5602,35644,72360,0,35620,2004,2,545,3,34,9,Missing
64553,Rock Hall,SC,,,171,USCGeocoder,234.2865,1,4.1,,,11,CityCentroid,Success,LOCATION_TYPE_CITY,Meters,ArealInterpolation,92936209,ArealInterpolationGeometricCentroid,City,10,FeatureClassBased,FlipACoin,,CityCentroid,,,1,34.943368,-81.0214512,Relaxed;Soundex,TwoThousandTen,,600,,92886,0,16740,1009,1,601.02,91,45,9,Missing
64618,East St. Louis,IL,,,172,USCGeocoder,156.2828,1,4.1,,,11,CityCentroid,Success,LOCATION_TYPE_CITY,Meters,ArealInterpolation,37221235.85,ArealInterpolationGeometricCentroid,City,50,FeatureClassBased,FlipACoin,,CityCentroid,,,1,38.61532048,-90.13041434,Relaxed;Soundex,TwoThousandTen,22255,7040,,22268,0,41180,3001,3,5012,163,17,9,Missing
64632,Paxinos,PA,,,173,USCGeocoder,140.5406,1,4.1,,,11,CityCentroid,Success,LOCATION_TYPE_CITY,Meters,ArealInterpolation,10308742.46,ArealInterpolationGeometricCentroid,City,10,FeatureClassBased,FlipACoin,,CityCentroid,,,1,41.27970801,-75.40165603,Relaxed;Soundex,TwoThousandTen,61774,,,42432,,,1067,1,9614,127,42,9,Missing
64658,Paxinos,PA,,,174,USCGeocoder,0,1,4.1,,,11,CityCentroid,Success,LOCATION_TYPE_CITY,Meters,ArealInterpolation,10308742.46,ArealInterpolationGeometricCentroid,City,10,FeatureClassBased,FlipACoin,,CityCentroid,,,1,41.27970801,-75.40165603,Relaxed;Soundex,TwoThousandTen,61774,,,42432,,,1067,1,9614,127,42,9,Missing
64685,Corona,NY,,,175,USCGeocoder,77.9684,1,4.1,,,11,CityCentroid,Success,LOCATION_TYPE_CITY,Meters,ArealInterpolation,35805284.48,ArealInterpolationGeometricCentroid,City,30,FeatureClassBased,FlipACoin,,CityCentroid,,,1,40.88124274,-73.00588461,Relaxed;Soundex,TwoThousandTen,18157,5602,35004,10000,0,35620,1002,1,1583.21,103,36,9,Missing
64693,Argyle,MI,,,176,USCGeocoder,78.0829,1,4.1,,,12,CountyCentroid,Success,LOCATION_TYPE_CITY,Meters,ArealInterpolation,94090023.26,ArealInterpolationGeometricCentroid,CountySubRegion,40,FeatureClassBased,FlipACoin,,CountySubdivisionCentroid,,,1,43.55000954,-82.93501926,Relaxed;Soundex,TwoThousandTen,,870,,3460,,,1030,1,9703,151,26,9,Missing
64810,Avon,CT,,,178,USCGeocoder,78.1386,1,4.1,,,12,CountyCentroid,Success,LOCATION_TYPE_CITY,Meters,ArealInterpolation,61103686.71,ArealInterpolationGeometricCentroid,CountySubRegion,40,FeatureClassBased,FlipACoin,,CountySubdivisionCentroid,,,1,41.79067429,-72.85383841,Relaxed;Soundex,TwoThousandTen,,1122,,2060,0,25540,2008,2,4622.01,3,9,9,Missing
64817,St. Helens,OR,,,179,USCGeocoder,0,1,4.1,,,11,CityCentroid,Success,LOCATION_TYPE_CITY,Meters,ArealInterpolation,14552133.65,ArealInterpolationGeometricCentroid,City,50,FeatureClassBased,FlipACoin,,CityCentroid,,,1,45.85778431,-122.8159711,Relaxed;Soundex,TwoThousandTen,64600,6442,,92703,0,38900,1028,1,9708,9,41,9,Missing
64831E,Berkley Heights,NJ,,,180,USCGeocoder,109.372,1,4.1,,,11,CityCentroid,Success,LOCATION_TYPE_CITY,Meters,ArealInterpolation,4296527.956,ArealInterpolationGeometricCentroid,City,21.42857143,FeatureClassBased,FlipACoin,,CityCentroid,,,1,39.90124333,-75.0008287,Relaxed;Soundex,TwoThousandTen,2880,6162,15804,12280,0,37980,1003,1,6036.02,7,34,9,Missing
64927,St. Louis,MO,,,181,USCGeocoder,15.7035,1,4.1,,,11,CityCentroid,Success,LOCATION_TYPE_CITY,Meters,ArealInterpolation,171026232.2,ArealInterpolationGeometricCentroid,City,50,FeatureClassBased,FlipACoin,,CityCentroid,,,1,38.63581226,-90.24511868,Relaxed;Soundex,TwoThousandTen,65000,7040,,65000,0,41180,1008,1,1186,510,29,9,Missing
64982,St. Marys,PA,,,183,USCGeocoder,15.5537,1,4.1,,,11,CityCentroid,Success,LOCATION_TYPE_CITY,Meters,ArealInterpolation,257763013,ArealInterpolationGeometricCentroid,City,50,FeatureClassBased,FlipACoin,,CityCentroid,,,1,41.45746601,-78.53417748,Relaxed;Soundex,TwoThousandTen,67344,,,67344,1,41260,1054,1,9512,47,42,9,Missing
65023B,Tidewood,PA,,,184,USCGeocoder,93.5314,1,4.1,,,11,CityCentroid,Success,LOCATION_TYPE_CITY,Meters,ArealInterpolation,3122003.366,ArealInterpolationGeometricCentroid,City,25,FeatureClassBased,FlipACoin,,CityCentroid,,,1,41.6847674,-79.40034948,Relaxed;Soundex,TwoThousandTen,76696,,,76696,1,47620,2000,2,9714,123,42,9,Missing
65023C,Decatur,PA,,,185,USCGeocoder,93.7615,1,4.1,,,11,CityCentroid,Success,LOCATION_TYPE_CITY,Meters,ArealInterpolation,3628064.867,ArealInterpolationGeometricCentroid,City,46,FeatureClassBased,FlipACoin,,CityCentroid,,,1,40.92895949,-78.28271771,Relaxed;Soundex,TwoThousandTen,82792,,,7432,1,20180,4080,4,3310,33,42,9,Missing
65115,Windsor,CT,,,186,USCGeocoder,15.602,1,4.1,,,11,CityCentroid,Success,LOCATION_TYPE_CITY,Meters,ArealInterpolation,24256148.97,ArealInterpolationGeometricCentroid,City,50,FeatureClassBased,FlipACoin,,CityCentroid,,,1,41.92671117,-72.65439456,Relaxed;Soundex,TwoThousandTen,87140,3280,,87070,0,25540,1024,1,4762,3,9,9,Missing
65284,Browns Summits,NC,,,187,USCGeocoder,78.0873,1,4.1,,,11,CityCentroid,Success,LOCATION_TYPE_CITY,Meters,ArealInterpolation,1090282.32,ArealInterpolationGeometricCentroid,City,25.38461538,FeatureClassBased,FlipACoin,,CityCentroid,,,1,34.29178133,-78.70617513,Relaxed;Soundex,TwoThousandTen,,480,,94000,,,3030,3,9310,47,37,6,ResidenceCityOrZIPWithOneCensusTract
65347,Clinton TWP,MI,,,188,USCGeocoder,46.9035,1,4.1,,,11,CityCentroid,Success,LOCATION_TYPE_CITY,Meters,ArealInterpolation,4903707.854,ArealInterpolationGeometricCentroid,City,38,FeatureClassBased,FlipACoin,,CityCentroid,,,1,42.06993607,-83.96860332,Relaxed;Soundex,TwoThousandTen,16480,2162,,16500,1,10300,1019,1,624,91,26,9,Missing
65459,St. Marys,PA,,,189,USCGeocoder,15.5328,1,4.1,,,11,CityCentroid,Success,LOCATION_TYPE_CITY,Meters,ArealInterpolation,257763013,ArealInterpolationGeometricCentroid,City,50,FeatureClassBased,FlipACoin,,CityCentroid,,,1,41.45746601,-78.53417748,Relaxed;Soundex,TwoThousandTen,67344,,,67344,1,41260,1054,1,9512,47,42,9,Missing
65509,Moose River,ME,,,190,USCGeocoder,109.3464,1,4.1,,,12,CountyCentroid,Success,LOCATION_TYPE_CITY,Meters,ArealInterpolation,105027131.5,ArealInterpolationGeometricCentroid,CountySubRegion,40,FeatureClassBased,FlipACoin,,CountySubdivisionCentroid,,,1,45.6969607,-70.2149917,Relaxed;Soundex,TwoThousandTen,,730,,47140,,,1013,1,9653.01,25,23,9,Missing
65568,St. Marys,PA,,,191,USCGeocoder,15.5961,1,4.1,,,11,CityCentroid,Success,LOCATION_TYPE_CITY,Meters,ArealInterpolation,257763013,ArealInterpolationGeometricCentroid,City,50,FeatureClassBased,FlipACoin,,CityCentroid,,,1,41.45746601,-78.53417748,Relaxed;Soundex,TwoThousandTen,67344,,,67344,1,41260,1054,1,9512,47,42,9,Missing
65628,St. Marys,PA,,,192,USCGeocoder,15.646,1,4.1,,,11,CityCentroid,Success,LOCATION_TYPE_CITY,Meters,ArealInterpolation,257763013,ArealInterpolationGeometricCentroid,City,50,FeatureClassBased,FlipACoin,,CityCentroid,,,1,41.45746601,-78.53417748,Relaxed;Soundex,TwoThousandTen,67344,,,67344,1,41260,1054,1,9512,47,42,9,Missing
70047,Kincheloe,MI,,,194,USCGeocoder,78.0404,1,4.1,,,11,CityCentroid,Success,LOCATION_TYPE_CITY,Meters,ArealInterpolation,3725427.594,ArealInterpolationGeometricCentroid,City,27.77777778,FeatureClassBased,FlipACoin,,CityCentroid,,,1,44.58500034,-85.53349178,Relaxed;Soundex,TwoThousandTen,43340,,,62320,1,45900,1083,1,5506,55,26,9,Missing
70052A,Brownstown,MI,,,195,USCGeocoder,62.4925,1,4.1,,,11,CityCentroid,Success,LOCATION_TYPE_CITY,Meters,ArealInterpolation,2837648.798,ArealInterpolationGeometricCentroid,City,50,FeatureClassBased,FlipACoin,,CityCentroid,,,1,43.21137043,-82.98791784,Relaxed;Soundex,TwoThousandTen,11180,,,,,,3037,3,9711,151,26,9,Missing
70079,North St. Paul,MN,,,196,USCGeocoder,62.5388,1,4.1,,,11,CityCentroid,Success,LOCATION_TYPE_CITY,Meters,ArealInterpolation,7789458.577,ArealInterpolationGeometricCentroid,City,50,FeatureClassBased,FlipACoin,,CityCentroid,,,1,45.0136758,-92.99948144,Relaxed;Soundex,TwoThousandTen,47221,5120,,47221,0,33460,3014,3,426.01,123,27,9,Missing
70100,St. Marys,PA,,,198,USCGeocoder,15.5383,1,4.1,,,11,CityCentroid,Success,LOCATION_TYPE_CITY,Meters,ArealInterpolation,257763013,ArealInterpolationGeometricCentroid,City,50,FeatureClassBased,FlipACoin,,CityCentroid,,,1,41.45746601,-78.53417748,Relaxed;Soundex,TwoThousandTen,67344,,,67344,1,41260,1054,1,9512,47,42,9,Missing
70101,Baileyville,ME,,,199,USCGeocoder,78.1284,1,4.1,,,12,CountyCentroid,Success,LOCATION_TYPE_CITY,Meters,ArealInterpolation,108551161.9,ArealInterpolationGeometricCentroid,CountySubRegion,40,FeatureClassBased,FlipACoin,,CountySubdivisionCentroid,,,1,45.17856009,-67.44160422,Relaxed;Soundex,TwoThousandTen,,730,,2480,,,1024,1,9554,29,23,9,Missing
70117,Baileyville,ME,,,201,USCGeocoder,15.638,1,4.1,,,12,CountyCentroid,Success,LOCATION_TYPE_CITY,Meters,ArealInterpolation,108551161.9,ArealInterpolationGeometricCentroid,CountySubRegion,40,FeatureClassBased,FlipACoin,,CountySubdivisionCentroid,,,1,45.17856009,-67.44160422,Relaxed;Soundex,TwoThousandTen,,730,,2480,,,1024,1,9554,29,23,9,Missing
70214,St. Marys,PA,,,203,USCGeocoder,15.7822,1,4.1,,,11,CityCentroid,Success,LOCATION_TYPE_CITY,Meters,ArealInterpolation,257763013,ArealInterpolationGeometricCentroid,City,50,FeatureClassBased,FlipACoin,,CityCentroid,,,1,41.45746601,-78.53417748,Relaxed;Soundex,TwoThousandTen,67344,,,67344,1,41260,1054,1,9512,47,42,9,Missing
70216,Canon City,CO,,,204,USCGeocoder,124.9963,1,4.1,,,11,CityCentroid,Success,LOCATION_TYPE_CITY,Meters,ArealInterpolation,56432663.5,ArealInterpolationGeometricCentroid,City,10,FeatureClassBased,FlipACoin,,CityCentroid,,,1,39.61507206,-104.3267508,Relaxed;Soundex,TwoThousandTen,16465,2082,,91178,0,19740,4123,4,71.01,5,8,9,Missing
70240,Madison,TN,,,205,USCGeocoder,78.2503,1,4.1,,,11,CityCentroid,Success,LOCATION_TYPE_CITY,Meters,ArealInterpolation,16092076.45,ArealInterpolationGeometricCentroid,City,21.42857143,FeatureClassBased,FlipACoin,,CityCentroid,,,1,35.52336837,-84.36374447,Relaxed;Soundex,TwoThousandTen,45320,,,90314,,,3013,3,9253,123,47,9,Missing
70294,St. Marys,PA,,,206,USCGeocoder,15.6113,1,4.1,,,11,CityCentroid,Success,LOCATION_TYPE_CITY,Meters,ArealInterpolation,257763013,ArealInterpolationGeometricCentroid,City,50,FeatureClassBased,FlipACoin,,CityCentroid,,,1,41.45746601,-78.53417748,Relaxed;Soundex,TwoThousandTen,67344,,,67344,1,41260,1054,1,9512,47,42,9,Missing
70389,Farmington,CT,,,208,USCGeocoder,78.0469,1,4.1,,,12,CountyCentroid,Success,LOCATION_TYPE_CITY,Meters,ArealInterpolation,50681841.7,ArealInterpolationGeometricCentroid,CountySubRegion,40,FeatureClassBased,FlipACoin,,CountySubdivisionCentroid,,,1,41.61528119,-72.14320933,Relaxed;Soundex,TwoThousandTen,,1122,,29910,0,35980,1024,1,7121,11,9,9,Missing
70541,Long Island City,NY,,,210,USCGeocoder,15.652,1,4.1,,,11,CityCentroid,Success,LOCATION_TYPE_CITY,Meters,ArealInterpolation,7073998.126,ArealInterpolationGeometricCentroid,City,10,FeatureClassBased,FlipACoin,,CityCentroid,,,1,42.9006951,-78.67011046,Relaxed;Soundex,TwoThousandTen,41135,1280,,41146,0,15380,3010,3,144,29,36,9,Missing
70549,Augres,MI,,,211,USCGeocoder,62.4891,1,4.1,,,11,CityCentroid,Success,LOCATION_TYPE_CITY,Meters,ArealInterpolation,6047100.532,ArealInterpolationGeometricCentroid,City,10,FeatureClassBased,FlipACoin,,CityCentroid,,,1,44.04309412,-83.69344544,Relaxed;Soundex,TwoThousandTen,4120,,,4120,,,2040,2,9704,11,26,6,ResidenceCityOrZIPWithOneCensusTract
70557,Branford,CT,,,212,USCGeocoder,15.6204,1,4.1,,,11,CityCentroid,Success,LOCATION_TYPE_CITY,Meters,ArealInterpolation,5403226.521,ArealInterpolationGeometricCentroid,City,50,FeatureClassBased,FlipACoin,,CityCentroid,,,1,41.27740865,-72.81509087,Relaxed;Soundex,TwoThousandTen,7345,5602,,7310,0,35300,2009,2,1841,9,9,9,Missing
70557A,Branford,CT,,,213,USCGeocoder,15.6962,1,4.1,,,11,CityCentroid,Success,LOCATION_TYPE_CITY,Meters,ArealInterpolation,5403226.521,ArealInterpolationGeometricCentroid,City,50,FeatureClassBased,FlipACoin,,CityCentroid,,,1,41.27740865,-72.81509087,Relaxed;Soundex,TwoThousandTen,7345,5602,,7310,0,35300,2009,2,1841,9,9,9,Missing
70559,Titasville,PA,,,214,USCGeocoder,62.5141,1,4.1,,,11,CityCentroid,Success,LOCATION_TYPE_CITY,Meters,ArealInterpolation,7513058.555,ArealInterpolationGeometricCentroid,City,46,FeatureClassBased,FlipACoin,,CityCentroid,,,1,41.62727944,-79.66984983,Relaxed;Soundex,TwoThousandTen,76904,,,76904,1,32740,1023,1,1111,39,42,9,Missing
70608,Arden,NC,,,215,USCGeocoder,15.7247,1,4.1,,,11,CityCentroid,Success,LOCATION_TYPE_CITY,Meters,ArealInterpolation,39873633.3,ArealInterpolationGeometricCentroid,City,10,FeatureClassBased,FlipACoin,,CityCentroid,,,1,35.95914071,-79.75979485,Relaxed;Soundex,TwoThousandTen,52760,3120,,91096,0,24660,1007,1,169,81,37,9,Missing
70618,St. Augustine,FL,,,216,USCGeocoder,62.644,1,4.1,,,11,CityCentroid,Success,LOCATION_TYPE_CITY,Meters,ArealInterpolation,33092283.81,ArealInterpolationGeometricCentroid,City,50,FeatureClassBased,FlipACoin,,CityCentroid,,,1,29.89793883,-81.31000464,Relaxed;Soundex,TwoThousandTen,62500,3600,,93016,0,27260,2043,2,205,109,12,9,Missing
70648,Plainfield,CT,,,217,USCGeocoder,0,1,4.1,,,11,CityCentroid,Success,LOCATION_TYPE_CITY,Meters,ArealInterpolation,4454605.376,ArealInterpolationGeometricCentroid,City,50,FeatureClassBased,FlipACoin,,CityCentroid,,,1,41.67662897,-71.92491693,Relaxed;Soundex,TwoThousandTen,60090,1122,,59980,1,48740,3009,3,9073,15,9,9,Missing
70755,Eldorado,AR,,,219,USCGeocoder,156.3763,1,4.1,,,11,CityCentroid,Success,LOCATION_TYPE_CITY,Meters,ArealInterpolation,42151279.88,ArealInterpolationGeometricCentroid,City,10,FeatureClassBased,FlipACoin,,CityCentroid,,,1,33.21822258,-92.66412493,Relaxed;Soundex,TwoThousandTen,21070,,,91218,1,20980,1017,1,9508,139,5,9,Missing
70800,Enfield,CT,,,220,USCGeocoder,15.6312,1,4.1,,,12,CountyCentroid,Success,LOCATION_TYPE_CITY,Meters,ArealInterpolation,88617681.15,ArealInterpolationGeometricCentroid,CountySubRegion,40,FeatureClassBased,FlipACoin,,CountySubdivisionCentroid,,,1,41.9839643,-72.55475388,Relaxed;Soundex,TwoThousandTen,37770,3280,,25990,0,25540,2016,2,4808,3,9,9,Missing
70871C,Big Springs,TX,,,221,USCGeocoder,140.6569,1,4.1,,,11,CityCentroid,Success,LOCATION_TYPE_CITY,Meters,ArealInterpolation,49690631.2,ArealInterpolationGeometricCentroid,City,10,FeatureClassBased,FlipACoin,,CityCentroid,,,1,32.23871397,-101.4801578,Relaxed;Soundex,TwoThousandTen,8236,,,90300,1,13700,2001,2,9504,227,48,9,Missing
70949M,Mansfield,MA,,,222,USCGeocoder,0,1,4.1,,,11,CityCentroid,Success,LOCATION_TYPE_CITY,Meters,ArealInterpolation,7298430.034,ArealInterpolationGeometricCentroid,City,50,FeatureClassBased,FlipACoin,,CityCentroid,,,1,42.02249279,-71.21805564,Relaxed;Soundex,TwoThousandTen,38230,1122,,38225,0,39300,3058,3,6101,5,25,9,Missing
70990,West Lake,TX,,,223,USCGeocoder,78.2033,1,4.1,,,11,CityCentroid,Success,LOCATION_TYPE_CITY,Meters,ArealInterpolation,17816131.38,ArealInterpolationGeometricCentroid,City,50,FeatureClassBased,FlipACoin,,CityCentroid,,,1,32.98101991,-97.2038572,Relaxed;Soundex,TwoThousandTen,77620,1922,23104,92805,0,19100,4002,4,1139.1,439,48,9,Missing
71041,Brownstown,MI,,,224,USCGeocoder,15.6133,1,4.1,,,11,CityCentroid,Success,LOCATION_TYPE_CITY,Meters,ArealInterpolation,2837648.798,ArealInterpolationGeometricCentroid,City,50,FeatureClassBased,FlipACoin,,CityCentroid,,,1,43.21137043,-82.98791784,Relaxed;Soundex,TwoThousandTen,11180,,,,,,3037,3,9711,151,26,9,Missing
71109,St. Paul,MN,,,226,USCGeocoder,15.644,1,4.1,,,11,CityCentroid,Success,LOCATION_TYPE_CITY,Meters,ArealInterpolation,145498914.5,ArealInterpolationGeometricCentroid,City,50,FeatureClassBased,FlipACoin,,CityCentroid,,,1,44.94774025,-93.10399583,Relaxed;Soundex,TwoThousandTen,58000,5120,,58000,0,33460,1045,1,428,123,27,9,Missing
71180,Trumbaursville,PA,,,227,USCGeocoder,93.6561,1,4.1,,,11,CityCentroid,Success,LOCATION_TYPE_CITY,Meters,ArealInterpolation,1152346.124,ArealInterpolationGeometricCentroid,City,47.14285714,FeatureClassBased,FlipACoin,,CityCentroid,,,1,40.41316263,-75.38012824,Relaxed;Soundex,TwoThousandTen,77704,6162,37964,77704,0,37980,4010,4,1064.02,17,42,6,ResidenceCityOrZIPWithOneCensusTract
71204,St. Marys,PA,,,228,USCGeocoder,15.6529,1,4.1,,,11,CityCentroid,Success,LOCATION_TYPE_CITY,Meters,ArealInterpolation,257763013,ArealInterpolationGeometricCentroid,City,50,FeatureClassBased,FlipACoin,,CityCentroid,,,1,41.45746601,-78.53417748,Relaxed;Soundex,TwoThousandTen,67344,,,67344,1,41260,1054,1,9512,47,42,9,Missing
71257,Nashville Plantation,ME,,,229,USCGeocoder,15.6699,1,4.1,,,12,CountyCentroid,Success,LOCATION_TYPE_CITY,Meters,ArealInterpolation,92195558.33,ArealInterpolationGeometricCentroid,CountySubRegion,40,FeatureClassBased,FlipACoin,,CountySubdivisionCentroid,,,1,46.69995428,-68.50025599,Relaxed;Soundex,TwoThousandTen,,730,,48120,,,1104,1,9509,3,23,9,Missing
71529A,Belleue,NE,,,230,USCGeocoder,218.7314,1,4.1,,,12,CountyCentroid,Success,LOCATION_TYPE_CITY,Meters,ArealInterpolation,93072755.52,ArealInterpolationGeometricCentroid,CountySubRegion,40,FeatureClassBased,FlipACoin,,CountySubdivisionCentroid,,,1,42.65307138,-98.83418384,Relaxed;Soundex,TwoThousandTen,,4360,,3880,,,1328,1,9740,89,31,9,Missing
71533,South Windsor,CT,,,231,USCGeocoder,15.6107,1,4.1,,,11,CityCentroid,Success,LOCATION_TYPE_CITY,Meters,ArealInterpolation,8123356.633,ArealInterpolationGeometricCentroid,City,10,FeatureClassBased,FlipACoin,,CityCentroid,,,1,41.68494319,-72.18452284,Relaxed;Soundex,TwoThousandTen,71250,1122,,86790,1,48740,4015,4,8005,15,9,9,Missing
71555,St. Marys,PA,,,233,USCGeocoder,15.1783,1,4.1,,,11,CityCentroid,Success,LOCATION_TYPE_CITY,Meters,ArealInterpolation,257763013,ArealInterpolationGeometricCentroid,City,50,FeatureClassBased,FlipACoin,,CityCentroid,,,1,41.45746601,-78.53417748,Relaxed;Soundex,TwoThousandTen,67344,,,67344,1,41260,1054,1,9512,47,42,9,Missing
71558,DuBois,PA,,,234,USCGeocoder,78.1365,1,4.1,,,11,CityCentroid,Success,LOCATION_TYPE_CITY,Meters,ArealInterpolation,8330947.309,ArealInterpolationGeometricCentroid,City,50,FeatureClassBased,FlipACoin,,CityCentroid,,,1,41.12250837,-78.75644835,Relaxed;Soundex,TwoThousandTen,20136,,,67792,1,20180,1095,1,3303,33,42,9,Missing
71579,Jamaica,NY,,,235,USCGeocoder,140.6415,1,4.1,,,12,CountyCentroid,Success,LOCATION_TYPE_CITY,Meters,ArealInterpolation,69551678.72,ArealInterpolationGeometricCentroid,CountySubRegion,40,FeatureClassBased,FlipACoin,,CountySubdivisionCentroid,,,1,42.97993584,-76.90961809,Relaxed;Soundex,TwoThousandTen,,160,,38858,1,42900,2051,2,9501,99,36,9,Missing
71711,St. Marys,PA,,,238,USCGeocoder,0,1,4.1,,,11,CityCentroid,Success,LOCATION_TYPE_CITY,Meters,ArealInterpolation,257763013,ArealInterpolationGeometricCentroid,City,50,FeatureClassBased,FlipACoin,,CityCentroid,,,1,41.45746601,-78.53417748,Relaxed;Soundex,TwoThousandTen,67344,,,67344,1,41260,1054,1,9512,47,42,9,Missing
71711A,St. Marys,PA,,,239,USCGeocoder,0,1,4.1,,,11,CityCentroid,Success,LOCATION_TYPE_CITY,Meters,ArealInterpolation,257763013,ArealInterpolationGeometricCentroid,City,50,FeatureClassBased,FlipACoin,,CityCentroid,,,1,41.45746601,-78.53417748,Relaxed;Soundex,TwoThousandTen,67344,,,67344,1,41260,1054,1,9512,47,42,9,Missing
71785,Dangerfield,TX,,,240,USCGeocoder,78.0144,1,4.1,,,11,CityCentroid,Success,LOCATION_TYPE_CITY,Meters,ArealInterpolation,6366821.506,ArealInterpolationGeometricCentroid,City,46.36363636,FeatureClassBased,FlipACoin,,CityCentroid,,,1,33.03058907,-94.7250984,Relaxed;Soundex,TwoThousandTen,18464,,,90940,,,3009,3,9503,343,48,9,Missing
71873,St. Mary's,PA,,,241,USCGeocoder,15.5998,1,4.1,,,12,CountyCentroid,Success,LOCATION_TYPE_CITY,Meters,ArealInterpolation,257763013,ArealInterpolationGeometricCentroid,CountySubRegion,40,FeatureClassBased,FlipACoin,,CountySubdivisionCentroid,,,1,41.45746601,-78.53417748,Relaxed;Soundex,TwoThousandTen,67344,,,67344,1,41260,1054,1,9512,47,42,9,Missing
71895,Clackamas,OR,,,242,USCGeocoder,124.9825,1,4.1,,,11,CityCentroid,Success,LOCATION_TYPE_CITY,Meters,ArealInterpolation,2117182.102,ArealInterpolationGeometricCentroid,City,14.44444444,FeatureClassBased,FlipACoin,,CityCentroid,,,1,42.57641718,-121.8677525,Relaxed;Soundex,TwoThousandTen,13050,,,90527,1,28900,3113,3,9702,35,41,6,ResidenceCityOrZIPWithOneCensusTract
71921,Lonestar,TX,,,243,USCGeocoder,78.188,1,4.1,,,11,CityCentroid,Success,LOCATION_TYPE_CITY,Meters,ArealInterpolation,5179458.189,ArealInterpolationGeometricCentroid,City,10,FeatureClassBased,FlipACoin,,CityCentroid,,,1,32.93928129,-94.70904796,Relaxed;Soundex,TwoThousandTen,43684,,,90940,,,5021,5,9502,343,48,6,ResidenceCityOrZIPWithOneCensusTract
71927,DeWitt,NE,,,244,USCGeocoder,78.1517,1,4.1,,,11,CityCentroid,Success,LOCATION_TYPE_CITY,Meters,ArealInterpolation,1080960.599,ArealInterpolationGeometricCentroid,City,10,FeatureClassBased,FlipACoin,,CityCentroid,,,1,40.39531128,-96.92220868,Relaxed;Soundex,TwoThousandTen,13015,,,90705,,,2176,2,9609,151,31,9,Missing
71932,Pittsburg,PA,,,246,USCGeocoder,109.4112,1,4.1,,,11,CityCentroid,Success,LOCATION_TYPE_CITY,Meters,ArealInterpolation,1776688.409,ArealInterpolationGeometricCentroid,City,46,FeatureClassBased,FlipACoin,,CityCentroid,,,1,40.93099097,-80.35911939,Relaxed;Soundex,TwoThousandTen,83848,,,76192,1,35260,4048,4,111,73,42,6,ResidenceCityOrZIPWithOneCensusTract
71933,Washington,MI,,,247,USCGeocoder,62.4801,1,4.1,,,12,CountyCentroid,Success,LOCATION_TYPE_CITY,Meters,ArealInterpolation,91776791.9,ArealInterpolationGeometricCentroid,CountySubRegion,40,FeatureClassBased,FlipACoin,,CountySubdivisionCentroid,,,1,43.16115598,-84.54214291,Relaxed;Soundex,TwoThousandTen,,870,,84080,1,10940,4062,4,9,57,26,9,Missing
71954,Long Island City,NY,,,248,USCGeocoder,0,1,4.1,,,11,CityCentroid,Success,LOCATION_TYPE_CITY,Meters,ArealInterpolation,7073998.126,ArealInterpolationGeometricCentroid,City,10,FeatureClassBased,FlipACoin,,CityCentroid,,,1,42.9006951,-78.67011046,Relaxed;Soundex,TwoThousandTen,41135,1280,,41146,0,15380,3010,3,144,29,36,9,Missing
72034,Smithfield,RI,,,250,USCGeocoder,78.1147,1,4.1,,,12,CountyCentroid,Success,LOCATION_TYPE_CITY,Meters,ArealInterpolation,71901623.03,ArealInterpolationGeometricCentroid,CountySubRegion,40,FeatureClassBased,FlipACoin,,CountySubdivisionCentroid,,,1,41.90136649,-71.53104117,Relaxed;Soundex,TwoThousandTen,,5520,,66200,0,39300,2033,2,126.01,7,44,9,Missing
72039,Dixonville,PA,,,251,USCGeocoder,62.4388,1,4.1,,,11,CityCentroid,Success,LOCATION_TYPE_CITY,Meters,ArealInterpolation,2345217.788,ArealInterpolationGeometricCentroid,City,38,FeatureClassBased,FlipACoin,,CityCentroid,,,1,40.71529954,-79.01051114,Relaxed;Soundex,TwoThousandTen,19161,,,30816,1,26860,4023,4,9604,63,42,9,Missing
72080,Arden,NC,,,252,USCGeocoder,0,1,4.1,,,11,CityCentroid,Success,LOCATION_TYPE_CITY,Meters,ArealInterpolation,39873633.3,ArealInterpolationGeometricCentroid,City,10,FeatureClassBased,FlipACoin,,CityCentroid,,,1,35.95914071,-79.75979485,Relaxed;Soundex,TwoThousandTen,52760,3120,,91096,0,24660,1007,1,169,81,37,9,Missing
72104,Elon College,NC,,,254,USCGeocoder,62.5364,1,4.1,,,11,CityCentroid,Success,LOCATION_TYPE_CITY,Meters,ArealInterpolation,2004686.135,ArealInterpolationGeometricCentroid,City,50,FeatureClassBased,FlipACoin,,CityCentroid,,,1,35.80879036,-77.86215574,Relaxed;Soundex,TwoThousandTen,20980,,,93244,1,48980,4035,4,13,195,37,6,ResidenceCityOrZIPWithOneCensusTract
72106,St. Mary's,PA,,,255,USCGeocoder,15.6273,1,4.1,,,12,CountyCentroid,Success,LOCATION_TYPE_CITY,Meters,ArealInterpolation,257763013,ArealInterpolationGeometricCentroid,CountySubRegion,40,FeatureClassBased,FlipACoin,,CountySubdivisionCentroid,,,1,41.45746601,-78.53417748,Relaxed;Soundex,TwoThousandTen,67344,,,67344,1,41260,1054,1,9512,47,42,9,Missing
72115,St. Louis,MO,,,256,USCGeocoder,140.5577,1,4.1,,,11,CityCentroid,Success,LOCATION_TYPE_CITY,Meters,ArealInterpolation,171026232.2,ArealInterpolationGeometricCentroid,City,50,FeatureClassBased,FlipACoin,,CityCentroid,,,1,38.63581226,-90.24511868,Relaxed;Soundex,TwoThousandTen,65000,7040,,65000,0,41180,1008,1,1186,510,29,9,Missing
72122,St. Louis,MO,,,257,USCGeocoder,15.6311,1,4.1,,,11,CityCentroid,Success,LOCATION_TYPE_CITY,Meters,ArealInterpolation,171026232.2,ArealInterpolationGeometricCentroid,City,50,FeatureClassBased,FlipACoin,,CityCentroid,,,1,38.63581226,-90.24511868,Relaxed;Soundex,TwoThousandTen,65000,7040,,65000,0,41180,1008,1,1186,510,29,9,Missing
72145,Dubois,PA,,,258,USCGeocoder,31.2581,1,4.1,,,11,CityCentroid,Success,LOCATION_TYPE_CITY,Meters,ArealInterpolation,8330947.309,ArealInterpolationGeometricCentroid,City,50,FeatureClassBased,FlipACoin,,CityCentroid,,,1,41.12250837,-78.75644835,Relaxed;Soundex,TwoThousandTen,20136,,,67792,1,20180,1095,1,3303,33,42,9,Missing
72166,St. Marys,PA,,,259,USCGeocoder,15.6228,1,4.1,,,11,CityCentroid,Success,LOCATION_TYPE_CITY,Meters,ArealInterpolation,257763013,ArealInterpolationGeometricCentroid,City,50,FeatureClassBased,FlipACoin,,CityCentroid,,,1,41.45746601,-78.53417748,Relaxed;Soundex,TwoThousandTen,67344,,,67344,1,41260,1054,1,9512,47,42,9,Missing
72229,Winston Salem,NC,,,260,USCGeocoder,218.608,1,4.1,,,11,CityCentroid,Success,LOCATION_TYPE_CITY,Meters,ArealInterpolation,346269875,ArealInterpolationGeometricCentroid,City,33.33333333,FeatureClassBased,FlipACoin,,CityCentroid,,,1,36.1032616,-80.2605782,Relaxed;Soundex,TwoThousandTen,,480,,,0,49180,1056,1,2,67,37,9,Missing
72316,St. Louis,MO,,,261,USCGeocoder,15.6505,1,4.1,,,11,CityCentroid,Success,LOCATION_TYPE_CITY,Meters,ArealInterpolation,171026232.2,ArealInterpolationGeometricCentroid,City,50,FeatureClassBased,FlipACoin,,CityCentroid,,,1,38.63581226,-90.24511868,Relaxed;Soundex,TwoThousandTen,65000,7040,,65000,0,41180,1008,1,1186,510,29,9,Missing
72317,St. Mary's,PA,,,262,USCGeocoder,31.3095,1,4.1,,,12,CountyCentroid,Success,LOCATION_TYPE_CITY,Meters,ArealInterpolation,257763013,ArealInterpolationGeometricCentroid,CountySubRegion,40,FeatureClassBased,FlipACoin,,CountySubdivisionCentroid,,,1,41.45746601,-78.53417748,Relaxed;Soundex,TwoThousandTen,67344,,,67344,1,41260,1054,1,9512,47,42,9,Missing
72356,HarrisonTwp,MI,,,264,USCGeocoder,62.5148,1,4.1,,,11,CityCentroid,Success,LOCATION_TYPE_CITY,Meters,ArealInterpolation,10440070.06,ArealInterpolationGeometricCentroid,City,39.09090909,FeatureClassBased,FlipACoin,,CityCentroid,,,1,44.01682687,-84.80798542,Relaxed;Soundex,TwoThousandTen,36800,,,37340,,,1009,1,13,35,26,9,Missing
72477,Madison,TN,,,267,USCGeocoder,15.7874,1,4.1,,,11,CityCentroid,Success,LOCATION_TYPE_CITY,Meters,ArealInterpolation,16092076.45,ArealInterpolationGeometricCentroid,City,21.42857143,FeatureClassBased,FlipACoin,,CityCentroid,,,1,35.52336837,-84.36374447,Relaxed;Soundex,TwoThousandTen,45320,,,90314,,,3013,3,9253,123,47,9,Missing
72503,Chelmsford,MA,,,268,USCGeocoder,15.6132,1,4.1,,,12,CountyCentroid,Success,LOCATION_TYPE_CITY,Meters,ArealInterpolation,59788240.87,ArealInterpolationGeometricCentroid,CountySubRegion,40,FeatureClassBased,FlipACoin,,CountySubdivisionCentroid,,,1,42.59996392,-71.363119,Relaxed;Soundex,TwoThousandTen,,740,15764,13135,0,14460,1016,1,3171.01,17,25,9,Missing
72549,Bensalem,PA,,,269,USCGeocoder,109.3062,1,4.1,,,12,CountyCentroid,Success,LOCATION_TYPE_CITY,Meters,ArealInterpolation,54206462.27,ArealInterpolationGeometricCentroid,CountySubRegion,40,FeatureClassBased,FlipACoin,,CountySubdivisionCentroid,,,1,40.10860589,-74.94310605,Relaxed;Soundex,TwoThousandTen,,240,37964,5616,0,37980,4000,4,1002.08,17,42,9,Missing
72556,Westford,MA,,,270,USCGeocoder,15.6213,1,4.1,,,11,CityCentroid,Success,LOCATION_TYPE_CITY,Meters,ArealInterpolation,122725578.1,ArealInterpolationGeometricCentroid,City,35,FeatureClassBased,FlipACoin,,CityCentroid,,,1,42.13814949,-72.7562089,Relaxed;Soundex,TwoThousandTen,76030,8000,,76030,0,44140,2030,2,8128,13,25,9,Missing
72569,Canton,MI,,,271,USCGeocoder,109.3471,1,4.1,,,11,CityCentroid,Success,LOCATION_TYPE_CITY,Meters,ArealInterpolation,2181949.664,ArealInterpolationGeometricCentroid,City,30,FeatureClassBased,FlipACoin,,CityCentroid,,,1,41.75508587,-84.75618426,Relaxed;Soundex,TwoThousandTen,12760,,,12780,,,2020,2,512,59,26,6,ResidenceCityOrZIPWithOneCensusTract
72699,Winston Salem,NC,,,273,USCGeocoder,171.7876,1,4.1,,,11,CityCentroid,Success,LOCATION_TYPE_CITY,Meters,ArealInterpolation,346269875,ArealInterpolationGeometricCentroid,City,33.33333333,FeatureClassBased,FlipACoin,,CityCentroid,,,1,36.1032616,-80.2605782,Relaxed;Soundex,TwoThousandTen,,480,,,0,49180,1056,1,2,67,37,9,Missing
72738,Cranford,NJ,,,274,USCGeocoder,78.2565,1,4.1,,,11,CityCentroid,Success,LOCATION_TYPE_CITY,Meters,ArealInterpolation,3155926.782,ArealInterpolationGeometricCentroid,City,35,FeatureClassBased,FlipACoin,,CityCentroid,,,1,40.3102018,-74.51680171,Relaxed;Soundex,TwoThousandTen,15520,5602,20764,15550,0,35620,1033,1,87,23,34,6,ResidenceCityOrZIPWithOneCensusTract
72780,Seabrook,NH,,,275,USCGeocoder,124.9915,1,4.1,,,11,CityCentroid,Success,LOCATION_TYPE_CITY,Meters,ArealInterpolation,3609136.255,ArealInterpolationGeometricCentroid,City,50,FeatureClassBased,FlipACoin,,CityCentroid,,,1,42.88514515,-70.82392454,Relaxed;Soundex,TwoThousandTen,68340,1122,40484,68260,0,14460,4005,4,630.02,15,33,9,Missing
72788,Windsor,CT,,,276,USCGeocoder,0,1,4.1,,,11,CityCentroid,Success,LOCATION_TYPE_CITY,Meters,ArealInterpolation,24256148.97,ArealInterpolationGeometricCentroid,City,50,FeatureClassBased,FlipACoin,,CityCentroid,,,1,41.92671117,-72.65439456,Relaxed;Soundex,TwoThousandTen,87140,3280,,87070,0,25540,1024,1,4762,3,9,9,Missing
72790,Southbury,CT,,,277,USCGeocoder,78.1245,1,4.1,,,11,CityCentroid,Success,LOCATION_TYPE_CITY,Meters,ArealInterpolation,2569762.384,ArealInterpolationGeometricCentroid,City,36.66666667,FeatureClassBased,FlipACoin,,CityCentroid,,,1,41.13412754,-73.28782374,Relaxed;Soundex,TwoThousandTen,71040,5602,,26620,0,14860,1063,1,606,1,9,9,Missing
72809,Brighton,MA,,,278,USCGeocoder,218.6293,1,4.1,,,11,CityCentroid,Success,LOCATION_TYPE_CITY,Meters,ArealInterpolation,55748359.94,ArealInterpolationGeometricCentroid,City,35,FeatureClassBased,FlipACoin,,CityCentroid,,,1,42.08207137,-71.02416563,Relaxed;Soundex,TwoThousandTen,9000,1122,14484,9000,0,14460,3005,3,5108,23,25,9,Missing
72949,Irvine (Formerly at Lake Forest),CA,,,282,USCGeocoder,109.3754,1,4.1,,,11,CityCentroid,Success,LOCATION_TYPE_CITY,Meters,ArealInterpolation,172114987.7,ArealInterpolationGeometricCentroid,City,18.57142857,FeatureClassBased,FlipACoin,,CityCentroid,,,1,33.67801089,-117.7736333,Relaxed;Soundex,TwoThousandTen,36770,4472,42044,91413,0,31100,1010,1,525.17,59,6,9,Missing
73066,Research Triangle Park,NC,,,283,USCGeocoder,15.6216,1,4.1,,,12,CountyCentroid,Success,LOCATION_TYPE_CITY,Meters,ArealInterpolation,94222352.49,ArealInterpolationGeometricCentroid,CountySubRegion,40,FeatureClassBased,FlipACoin,,CountySubdivisionCentroid,,,1,36.07153823,-79.58023557,Relaxed;Soundex,TwoThousandTen,73760,3120,,92716,0,24660,3047,3,152,81,37,9,Missing
73130,Simsbury,CT,,,284,USCGeocoder,78.0987,1,4.1,,,11,CityCentroid,Success,LOCATION_TYPE_CITY,Meters,ArealInterpolation,11822192.03,ArealInterpolationGeometricCentroid,City,50,FeatureClassBased,FlipACoin,,CityCentroid,,,1,41.88077097,-72.81112999,Relaxed;Soundex,TwoThousandTen,69010,3280,,68940,0,25540,2016,2,4663,3,9,9,Missing
73247,St. Marys,OH,,,285,USCGeocoder,93.775,1,4.1,,,11,CityCentroid,Success,LOCATION_TYPE_CITY,Meters,ArealInterpolation,11994477.65,ArealInterpolationGeometricCentroid,City,50,FeatureClassBased,FlipACoin,,CityCentroid,,,1,40.54752679,-84.3934521,Relaxed;Soundex,TwoThousandTen,69680,4320,,69694,1,47540,1016,1,412.02,11,39,9,Missing
73334,Chester,CT,,,286,USCGeocoder,234.4866,1,4.1,,,11,CityCentroid,Success,LOCATION_TYPE_CITY,Meters,ArealInterpolation,5242111.161,ArealInterpolationGeometricCentroid,City,50,FeatureClassBased,FlipACoin,,CityCentroid,,,1,41.40132614,-72.45236721,Relaxed;Soundex,TwoThousandTen,14370,3280,,14300,0,25540,2023,2,6001,7,9,9,Missing
73479,Edison,NJ,,,290,USCGeocoder,31.247,1,4.1,,,12,CountyCentroid,Success,LOCATION_TYPE_CITY,Meters,ArealInterpolation,86517048.05,ArealInterpolationGeometricCentroid,CountySubRegion,40,FeatureClassBased,FlipACoin,,CountySubdivisionCentroid,,,1,40.53630628,-74.36891398,Relaxed;Soundex,TwoThousandTen,45690,5602,20764,20230,0,35620,2006,2,22,23,34,9,Missing
73483,Bedford,MA,,,291,USCGeocoder,15.6634,1,4.1,,,11,CityCentroid,Success,LOCATION_TYPE_CITY,Meters,ArealInterpolation,62500245.68,ArealInterpolationGeometricCentroid,City,46,FeatureClassBased,FlipACoin,,CityCentroid,,,1,41.66149045,-70.93819641,Relaxed;Soundex,TwoThousandTen,45000,1122,,45000,0,39300,1003,1,6509,5,25,9,Missing
73496,LaGrange,GA,,,292,USCGeocoder,62.4111,1,4.1,,,11,CityCentroid,Success,LOCATION_TYPE_CITY,Meters,ArealInterpolation,107865361.1,ArealInterpolationGeometricCentroid,City,50,FeatureClassBased,FlipACoin,,CityCentroid,,,1,33.02943338,-85.03610052,Relaxed;Soundex,TwoThousandTen,44340,,,91674,1,29300,1038,1,9608,285,13,9,Missing
73510,Lincoln,RI,,,293,USCGeocoder,15.6887,1,4.1,,,12,CountyCentroid,Success,LOCATION_TYPE_CITY,Meters,ArealInterpolation,49082394.88,ArealInterpolationGeometricCentroid,CountySubRegion,40,FeatureClassBased,FlipACoin,,CountySubdivisionCentroid,,,1,41.91694217,-71.45048232,Relaxed;Soundex,TwoThousandTen,,5520,,41500,0,39300,3005,3,116,7,44,9,Missing
73526,St. Marys,PA,,,295,USCGeocoder,15.6173,1,4.1,,,11,CityCentroid,Success,LOCATION_TYPE_CITY,Meters,ArealInterpolation,257763013,ArealInterpolationGeometricCentroid,City,50,FeatureClassBased,FlipACoin,,CityCentroid,,,1,41.45746601,-78.53417748,Relaxed;Soundex,TwoThousandTen,67344,,,67344,1,41260,1054,1,9512,47,42,9,Missing
73576,Winston Salem,NC,,,296,USCGeocoder,187.4723,1,4.1,,,11,CityCentroid,Success,LOCATION_TYPE_CITY,Meters,ArealInterpolation,346269875,ArealInterpolationGeometricCentroid,City,33.33333333,FeatureClassBased,FlipACoin,,CityCentroid,,,1,36.1032616,-80.2605782,Relaxed;Soundex,TwoThousandTen,,480,,,0,49180,1056,1,2,67,37,9,Missing
73617,Allentown (Trexlertown),PA,,,297,USCGeocoder,109.3555,1,4.1,,,11,CityCentroid,Success,LOCATION_TYPE_CITY,Meters,ArealInterpolation,46683430.52,ArealInterpolationGeometricCentroid,City,26.36363636,FeatureClassBased,FlipACoin,,CityCentroid,,,1,40.59610027,-75.47553833,Relaxed;Soundex,TwoThousandTen,2000,240,,2000,0,10900,1001,1,14.01,77,42,9,Missing
73667,Bristol,RI,,,298,USCGeocoder,0,1,4.1,,,12,CountyCentroid,Success,LOCATION_TYPE_CITY,Meters,ArealInterpolation,53367227.99,ArealInterpolationGeometricCentroid,CountySubRegion,40,FeatureClassBased,FlipACoin,,CountySubdivisionCentroid,,,1,41.67612732,-71.27328702,Relaxed;Soundex,TwoThousandTen,,5520,,9280,0,39300,1004,1,307,1,44,9,Missing
73672,Elma,NY,,,299,USCGeocoder,15.5304,1,4.1,,,11,CityCentroid,Success,LOCATION_TYPE_CITY,Meters,ArealInterpolation,16196464.64,ArealInterpolationGeometricCentroid,City,50,FeatureClassBased,FlipACoin,,CityCentroid,,,1,42.82830837,-78.63428541,Relaxed;Soundex,TwoThousandTen,24141,1280,,24130,0,15380,1019,1,141.01,29,36,9,Missing
73693,Research Triangle Park,NC,,,300,USCGeocoder,15.5024,1,4.1,,,12,CountyCentroid,Success,LOCATION_TYPE_CITY,Meters,ArealInterpolation,94222352.49,ArealInterpolationGeometricCentroid,CountySubRegion,40,FeatureClassBased,FlipACoin,,CountySubdivisionCentroid,,,1,36.07153823,-79.58023557,Relaxed;Soundex,TwoThousandTen,73760,3120,,92716,0,24660,3047,3,152,81,37,9,Missing
73728,St. Peters,MO,,,302,USCGeocoder,156.2198,1,4.1,,,11,CityCentroid,Success,LOCATION_TYPE_CITY,Meters,ArealInterpolation,57930068,ArealInterpolationGeometricCentroid,City,50,FeatureClassBased,FlipACoin,,CityCentroid,,,1,38.7835202,-90.6050746,Relaxed;Soundex,TwoThousandTen,,1740,,65130,0,41180,3016,3,3113.11,183,29,9,Missing
73772,Waterford,MI,,,303,USCGeocoder,46.7057,1,4.1,,,11,CityCentroid,Success,LOCATION_TYPE_CITY,Meters,ArealInterpolation,3193812.089,ArealInterpolationGeometricCentroid,City,27.77777778,FeatureClassBased,FlipACoin,,CityCentroid,,,1,42.18837238,-86.25778276,Relaxed;Soundex,TwoThousandTen,84500,870,,84500,0,35660,4026,4,103,21,26,6,ResidenceCityOrZIPWithOneCensusTract
73773,Redford,MI,,,304,USCGeocoder,78.0138,1,4.1,,,11,CityCentroid,Success,LOCATION_TYPE_CITY,Meters,ArealInterpolation,2559909.631,ArealInterpolationGeometricCentroid,City,15.71428571,FeatureClassBased,FlipACoin,,CityCentroid,,,1,43.50753295,-86.34768523,Relaxed;Soundex,TwoThousandTen,69880,,,34400,,,5048,5,103,127,26,6,ResidenceCityOrZIPWithOneCensusTract
73783,Lonestar,TX,,,305,USCGeocoder,15.6456,1,4.1,,,11,CityCentroid,Success,LOCATION_TYPE_CITY,Meters,ArealInterpolation,5179458.189,ArealInterpolationGeometricCentroid,City,10,FeatureClassBased,FlipACoin,,CityCentroid,,,1,32.93928129,-94.70904796,Relaxed;Soundex,TwoThousandTen,43684,,,90940,,,5021,5,9502,343,48,6,ResidenceCityOrZIPWithOneCensusTract
73784A,St. Paul,MN,,,306,USCGeocoder,15.7466,1,4.1,,,11,CityCentroid,Success,LOCATION_TYPE_CITY,Meters,ArealInterpolation,145498914.5,ArealInterpolationGeometricCentroid,City,50,FeatureClassBased,FlipACoin,,CityCentroid,,,1,44.94774025,-93.10399583,Relaxed;Soundex,TwoThousandTen,58000,5120,,58000,0,33460,1045,1,428,123,27,9,Missing
73785,Murrow,OH,,,307,USCGeocoder,62.5249,1,4.1,,,11,CityCentroid,Success,LOCATION_TYPE_CITY,Meters,ArealInterpolation,5080976.728,ArealInterpolationGeometricCentroid,City,43.33333333,FeatureClassBased,FlipACoin,,CityCentroid,,,1,39.3495407,-84.12353619,Relaxed;Soundex,TwoThousandTen,52374,1642,,69988,0,17140,3021,3,323,165,39,6,ResidenceCityOrZIPWithOneCensusTract
73851,St. Pauls,NC,,,308,USCGeocoder,78.121,1,4.1,,,11,CityCentroid,Success,LOCATION_TYPE_CITY,Meters,ArealInterpolation,2806237.525,ArealInterpolationGeometricCentroid,City,50,FeatureClassBased,FlipACoin,,CityCentroid,,,1,34.80705258,-78.97355288,Relaxed;Soundex,TwoThousandTen,58720,,,92796,1,31300,1094,1,9601.02,155,37,6,ResidenceCityOrZIPWithOneCensusTract
73863,Bensalem,PA,,,309,USCGeocoder,15.6415,1,4.1,,,12,CountyCentroid,Success,LOCATION_TYPE_CITY,Meters,ArealInterpolation,54206462.27,ArealInterpolationGeometricCentroid,CountySubRegion,40,FeatureClassBased,FlipACoin,,CountySubdivisionCentroid,,,1,40.10860589,-74.94310605,Relaxed;Soundex,TwoThousandTen,,240,37964,5616,0,37980,4000,4,1002.08,17,42,9,Missing
73972,Ocean Port,NJ,,,310,USCGeocoder,93.7867,1,4.1,,,11,CityCentroid,Success,LOCATION_TYPE_CITY,Meters,ArealInterpolation,9837630.997,ArealInterpolationGeometricCentroid,City,50,FeatureClassBased,FlipACoin,,CityCentroid,,,1,40.31604691,-74.02049706,Relaxed;Soundex,TwoThousandTen,54570,5602,20764,54570,0,35620,4013,4,8053,25,34,9,Missing
73993,Norwell,MA,,,311,USCGeocoder,78.1373,1,4.1,,,12,CountyCentroid,Success,LOCATION_TYPE_CITY,Meters,ArealInterpolation,55015241.04,ArealInterpolationGeometricCentroid,CountySubRegion,40,FeatureClassBased,FlipACoin,,CountySubdivisionCentroid,,,1,42.16074947,-70.8176467,Relaxed;Soundex,TwoThousandTen,,740,14484,50145,0,14460,1018,1,5041.01,23,25,9,Missing
74007,Berkeley Heights,NJ,,,312,USCGeocoder,31.2095,1,4.1,,,11,CityCentroid,Success,LOCATION_TYPE_CITY,Meters,ArealInterpolation,4296527.956,ArealInterpolationGeometricCentroid,City,20.66666667,FeatureClassBased,FlipACoin,,CityCentroid,,,1,39.90124333,-75.0008287,Relaxed;Soundex,TwoThousandTen,2880,6162,15804,12280,0,37980,1003,1,6036.02,7,34,9,Missing
74034,St. Louis,MO,,,313,USCGeocoder,15.7274,1,4.1,,,11,CityCentroid,Success,LOCATION_TYPE_CITY,Meters,ArealInterpolation,171026232.2,ArealInterpolationGeometricCentroid,City,50,FeatureClassBased,FlipACoin,,CityCentroid,,,1,38.63581226,-90.24511868,Relaxed;Soundex,TwoThousandTen,65000,7040,,65000,0,41180,1008,1,1186,510,29,9,Missing
74049,St. Louis,MO,,,314,USCGeocoder,15.6177,1,4.1,,,11,CityCentroid,Success,LOCATION_TYPE_CITY,Meters,ArealInterpolation,171026232.2,ArealInterpolationGeometricCentroid,City,50,FeatureClassBased,FlipACoin,,CityCentroid,,,1,38.63581226,-90.24511868,Relaxed;Soundex,TwoThousandTen,65000,7040,,65000,0,41180,1008,1,1186,510,29,9,Missing
74106,Cheshire,CT,,,315,USCGeocoder,62.4921,1,4.1,,,11,CityCentroid,Success,LOCATION_TYPE_CITY,Meters,ArealInterpolation,8726222.152,ArealInterpolationGeometricCentroid,City,50,FeatureClassBased,FlipACoin,,CityCentroid,,,1,41.50260108,-72.89925306,Relaxed;Soundex,TwoThousandTen,14200,5602,,14160,0,35300,2031,2,3431.02,9,9,9,Missing
74128,Mount Laurel,NJ,,,316,USCGeocoder,62.4611,1,4.1,,,11,CityCentroid,Success,LOCATION_TYPE_CITY,Meters,ArealInterpolation,1666230.621,ArealInterpolationGeometricCentroid,City,20.90909091,FeatureClassBased,FlipACoin,,CityCentroid,,,1,40.04386068,-74.05088978,Relaxed;Soundex,TwoThousandTen,43380,5602,20764,43380,0,35620,1020,1,7120,29,34,9,Missing
74173,Bala Cynwyd,PA,,,318,USCGeocoder,78.1452,1,4.1,,,12,CountyCentroid,Success,LOCATION_TYPE_CITY,Meters,ArealInterpolation,113018353,ArealInterpolationGeometricCentroid,CountySubRegion,40,FeatureClassBased,FlipACoin,,CountySubdivisionCentroid,,,1,40.08030198,-79.51235258,Relaxed;Soundex,TwoThousandTen,,240,,10152,0,38300,3026,3,2604.02,51,42,9,Missing
74253G,Bedford,NH,,,319,USCGeocoder,125.0033,1,4.1,,,12,CountyCentroid,Success,LOCATION_TYPE_CITY,Meters,ArealInterpolation,85775022.94,ArealInterpolationGeometricCentroid,CountySubRegion,40,FeatureClassBased,FlipACoin,,CountySubdivisionCentroid,,,1,42.94075031,-71.53042723,Relaxed;Soundex,TwoThousandTen,,1122,,4500,0,31700,2000,2,29.03,11,33,9,Missing
74300,Clackamas,OR,,,320,USCGeocoder,0,1,4.1,,,11,CityCentroid,Success,LOCATION_TYPE_CITY,Meters,ArealInterpolation,2117182.102,ArealInterpolationGeometricCentroid,City,14.44444444,FeatureClassBased,FlipACoin,,CityCentroid,,,1,42.57641718,-121.8677525,Relaxed;Soundex,TwoThousandTen,13050,,,90527,1,28900,3113,3,9702,35,41,6,ResidenceCityOrZIPWithOneCensusTract
74393,Rocky Hill,CT,,,323,USCGeocoder,78.1501,1,4.1,,,12,CountyCentroid,Success,LOCATION_TYPE_CITY,Meters,ArealInterpolation,35844004.65,ArealInterpolationGeometricCentroid,CountySubRegion,40,FeatureClassBased,FlipACoin,,CountySubdivisionCentroid,,,1,41.65719165,-72.66318988,Relaxed;Soundex,TwoThousandTen,,1122,,65370,0,25540,5011,5,5242,3,9,9,Missing
74434,Commerce Township,MI,,,324,USCGeocoder,78.144,1,4.1,,,12,CountyCentroid,Success,LOCATION_TYPE_CITY,Meters,ArealInterpolation,77450376.53,ArealInterpolationGeometricCentroid,CountySubRegion,40,FeatureClassBased,FlipACoin,,CountySubdivisionCentroid,,,1,42.57632867,-83.49578236,Relaxed;Soundex,TwoThousandTen,,870,47644,17640,0,19820,2016,2,1343,125,26,9,Missing
74437,Wilton,CT,,,325,USCGeocoder,78.193,1,4.1,,,11,CityCentroid,Success,LOCATION_TYPE_CITY,Meters,ArealInterpolation,714247.4949,ArealInterpolationGeometricCentroid,City,50,FeatureClassBased,FlipACoin,,CityCentroid,,,1,41.18814368,-73.42992362,Relaxed;Soundex,TwoThousandTen,86380,5602,,86370,0,14860,2007,2,452,1,9,9,Missing
74465,Northridge,CA,,,326,USCGeocoder,0,1,4.1,,,11,CityCentroid,Success,LOCATION_TYPE_CITY,Meters,ArealInterpolation,4045664.941,ArealInterpolationGeometricCentroid,City,10,FeatureClassBased,FlipACoin,,CityCentroid,,,1,37.96455609,-122.3727498,Relaxed;Soundex,TwoThousandTen,52162,7362,36084,93620,0,41860,3019,3,3650.02,13,6,9,Missing
74472,Research Triangle Park,NC,,,327,USCGeocoder,15.7571,1,4.1,,,12,CountyCentroid,Success,LOCATION_TYPE_CITY,Meters,ArealInterpolation,94222352.49,ArealInterpolationGeometricCentroid,CountySubRegion,40,FeatureClassBased,FlipACoin,,CountySubdivisionCentroid,,,1,36.07153823,-79.58023557,Relaxed;Soundex,TwoThousandTen,73760,3120,,92716,0,24660,3047,3,152,81,37,9,Missing
74474,Berkeley Heights,NJ,,,328,USCGeocoder,0,1,4.1,,,11,CityCentroid,Success,LOCATION_TYPE_CITY,Meters,ArealInterpolation,4296527.956,ArealInterpolationGeometricCentroid,City,20.66666667,FeatureClassBased,FlipACoin,,CityCentroid,,,1,39.90124333,-75.0008287,Relaxed;Soundex,TwoThousandTen,2880,6162,15804,12280,0,37980,1003,1,6036.02,7,34,9,Missing
74494,Ulster Park,NY,,,329,USCGeocoder,78.1086,1,4.1,,,12,CountyCentroid,Success,LOCATION_TYPE_CITY,Meters,ArealInterpolation,74799653.13,ArealInterpolationGeometricCentroid,CountySubRegion,40,FeatureClassBased,FlipACoin,,CountySubdivisionCentroid,,,1,41.96997819,-74.00408443,Relaxed;Soundex,TwoThousandTen,,160,,75935,0,28740,2008,2,9514,111,36,9,Missing
74530C,Canton,MI,,,330,USCGeocoder,15.6431,1,4.1,,,11,CityCentroid,Success,LOCATION_TYPE_CITY,Meters,ArealInterpolation,2181949.664,ArealInterpolationGeometricCentroid,City,30,FeatureClassBased,FlipACoin,,CityCentroid,,,1,41.75508587,-84.75618426,Relaxed;Soundex,TwoThousandTen,12760,,,12780,,,2020,2,512,59,26,6,ResidenceCityOrZIPWithOneCensusTract
74530O,Edison,NJ,,,332,USCGeocoder,15.6082,1,4.1,,,12,CountyCentroid,Success,LOCATION_TYPE_CITY,Meters,ArealInterpolation,86517048.05,ArealInterpolationGeometricCentroid,CountySubRegion,40,FeatureClassBased,FlipACoin,,CountySubdivisionCentroid,,,1,40.53630628,-74.36891398,Relaxed;Soundex,TwoThousandTen,45690,5602,20764,20230,0,35620,2006,2,22,23,34,9,Missing
74567,Springhouse,PA,,,333,USCGeocoder,109.3919,1,4.1,,,11,CityCentroid,Success,LOCATION_TYPE_CITY,Meters,ArealInterpolation,2125980.068,ArealInterpolationGeometricCentroid,City,50,FeatureClassBased,FlipACoin,,CityCentroid,,,1,40.17681093,-75.54660017,Relaxed;Soundex,TwoThousandTen,72920,6162,37964,72920,0,37980,1010,1,3011,29,42,9,Missing
74572,St. Marys,PA,,,334,USCGeocoder,0,1,4.1,,,11,CityCentroid,Success,LOCATION_TYPE_CITY,Meters,ArealInterpolation,257763013,ArealInterpolationGeometricCentroid,City,50,FeatureClassBased,FlipACoin,,CityCentroid,,,1,41.45746601,-78.53417748,Relaxed;Soundex,TwoThousandTen,67344,,,67344,1,41260,1054,1,9512,47,42,9,Missing
74595,Presque Island,ME,,,335,USCGeocoder,46.9022,1,4.1,,,11,CityCentroid,Success,LOCATION_TYPE_CITY,Meters,ArealInterpolation,200987135.8,ArealInterpolationGeometricCentroid,City,10,FeatureClassBased,FlipACoin,,CityCentroid,,,1,46.68671998,-67.98735025,Relaxed;Soundex,TwoThousandTen,60825,,,60825,,,4022,4,9518,3,23,9,Missing
74612,Mansfield,MA,,,336,USCGeocoder,0,1,4.1,,,11,CityCentroid,Success,LOCATION_TYPE_CITY,Meters,ArealInterpolation,7298430.034,ArealInterpolationGeometricCentroid,City,50,FeatureClassBased,FlipACoin,,CityCentroid,,,1,42.02249279,-71.21805564,Relaxed;Soundex,TwoThousandTen,38230,1122,,38225,0,39300,3058,3,6101,5,25,9,Missing
74613,Billerica,MA,,,337,USCGeocoder,78.1406,1,4.1,,,12,CountyCentroid,Success,LOCATION_TYPE_CITY,Meters,ArealInterpolation,68145494.92,ArealInterpolationGeometricCentroid,CountySubRegion,40,FeatureClassBased,FlipACoin,,CountySubdivisionCentroid,,,1,42.55867287,-71.26730219,Relaxed;Soundex,TwoThousandTen,,740,15764,5805,0,14460,2023,2,3161.02,17,25,9,Missing
74623,Smithfield,RI,,,338,USCGeocoder,15.6967,1,4.1,,,12,CountyCentroid,Success,LOCATION_TYPE_CITY,Meters,ArealInterpolation,71901623.03,ArealInterpolationGeometricCentroid,CountySubRegion,40,FeatureClassBased,FlipACoin,,CountySubdivisionCentroid,,,1,41.90136649,-71.53104117,Relaxed;Soundex,TwoThousandTen,,5520,,66200,0,39300,2033,2,126.01,7,44,9,Missing
74645,Mount Laurel,NJ,,,339,USCGeocoder,15.6112,1,4.1,,,11,CityCentroid,Success,LOCATION_TYPE_CITY,Meters,ArealInterpolation,1666230.621,ArealInterpolationGeometricCentroid,City,20.90909091,FeatureClassBased,FlipACoin,,CityCentroid,,,1,40.04386068,-74.05088978,Relaxed;Soundex,TwoThousandTen,43380,5602,20764,43380,0,35620,1020,1,7120,29,34,9,Missing
74677,Pleasant Pairie,WI,,,340,USCGeocoder,78.0832,1,4.1,,,11,CityCentroid,Success,LOCATION_TYPE_CITY,Meters,ArealInterpolation,87113597.65,ArealInterpolationGeometricCentroid,City,32.85714286,FeatureClassBased,FlipACoin,,CityCentroid,,,1,42.52654385,-87.88931882,Relaxed;Soundex,TwoThousandTen,63300,1602,29404,63300,0,16980,2014,2,26.02,59,55,9,Missing
74687,Hinckley,OH,,,341,USCGeocoder,62.5257,1,4.1,,,12,CountyCentroid,Success,LOCATION_TYPE_CITY,Meters,ArealInterpolation,69523195.31,ArealInterpolationGeometricCentroid,CountySubRegion,40,FeatureClassBased,FlipACoin,,CountySubdivisionCentroid,,,1,41.23941774,-81.73513088,Relaxed;Soundex,TwoThousandTen,,1320,,35644,0,17460,3005,3,4001,103,39,9,Missing
74728,Avon,MA,,,342,USCGeocoder,156.0595,1,4.1,,,12,CountyCentroid,Success,LOCATION_TYPE_CITY,Meters,ArealInterpolation,11752181.86,ArealInterpolationGeometricCentroid,CountySubRegion,40,FeatureClassBased,FlipACoin,,CountySubdivisionCentroid,,,1,42.12666226,-71.04924571,Relaxed;Soundex,TwoThousandTen,,740,14484,2935,0,14460,1003,1,4571,21,25,9,Missing
74804,Florrisant,MO,,,344,USCGeocoder,140.3636,1,4.1,,,11,CityCentroid,Success,LOCATION_TYPE_CITY,Meters,ArealInterpolation,33334662.34,ArealInterpolationGeometricCentroid,City,42,FeatureClassBased,FlipACoin,,CityCentroid,,,1,38.79950669,-90.32693517,Relaxed;Soundex,TwoThousandTen,24778,7040,,24796,0,41180,1010,1,2109.25,189,29,9,Missing
74817,Ashland,MA,,,345,USCGeocoder,78.219,1,4.1,,,12,CountyCentroid,Success,LOCATION_TYPE_CITY,Meters,ArealInterpolation,33329223.54,ArealInterpolationGeometricCentroid,CountySubRegion,40,FeatureClassBased,FlipACoin,,CountySubdivisionCentroid,,,1,42.25725541,-71.46865418,Relaxed;Soundex,TwoThousandTen,,740,15764,2130,0,14460,2048,2,3851,17,25,9,Missing
75006,Billerica,MA,,,347,USCGeocoder,15.5495,1,4.1,,,12,CountyCentroid,Success,LOCATION_TYPE_CITY,Meters,ArealInterpolation,68145494.92,ArealInterpolationGeometricCentroid,CountySubRegion,40,FeatureClassBased,FlipACoin,,CountySubdivisionCentroid,,,1,42.55867287,-71.26730219,Relaxed;Soundex,TwoThousandTen,,740,15764,5805,0,14460,2023,2,3161.02,17,25,9,Missing
75026,Charleston,ME,,,348,USCGeocoder,78.1437,1,4.1,,,12,CountyCentroid,Success,LOCATION_TYPE_CITY,Meters,ArealInterpolation,105064205.5,ArealInterpolationGeometricCentroid,CountySubRegion,40,FeatureClassBased,FlipACoin,,CountySubdivisionCentroid,,,1,45.07090392,-69.03378319,Relaxed;Soundex,TwoThousandTen,,730,,12105,0,12620,1022,1,312,19,23,9,Missing
75059,St. Croix Falls,WI,,,350,USCGeocoder,62.5195,1,4.1,,,11,CityCentroid,Success,LOCATION_TYPE_CITY,Meters,ArealInterpolation,12359944.95,ArealInterpolationGeometricCentroid,City,50,FeatureClassBased,FlipACoin,,CityCentroid,,,1,45.41096498,-92.62579653,Relaxed;Soundex,TwoThousandTen,70550,,,70550,,,2032,2,9607,95,55,6,ResidenceCityOrZIPWithOneCensusTract
75196,St. Louis,MO,,,351,USCGeocoder,15.629,1,4.1,,,11,CityCentroid,Success,LOCATION_TYPE_CITY,Meters,ArealInterpolation,171026232.2,ArealInterpolationGeometricCentroid,City,50,FeatureClassBased,FlipACoin,,CityCentroid,,,1,38.63581226,-90.24511868,Relaxed;Soundex,TwoThousandTen,65000,7040,,65000,0,41180,1008,1,1186,510,29,9,Missing
75268,St. Louis Park,MN,,,353,USCGeocoder,78.2684,1,4.1,,,11,CityCentroid,Success,LOCATION_TYPE_CITY,Meters,ArealInterpolation,28120353.72,ArealInterpolationGeometricCentroid,City,50,FeatureClassBased,FlipACoin,,CityCentroid,,,1,44.94875989,-93.36502317,Relaxed;Soundex,TwoThousandTen,57220,5120,,57220,0,33460,1003,1,1226,53,27,9,Missing
75275,Woodland Hills,CA,,,354,USCGeocoder,78.1499,1,4.1,,,11,CityCentroid,Success,LOCATION_TYPE_CITY,Meters,ArealInterpolation,4282731.236,ArealInterpolationGeometricCentroid,City,37.69230769,FeatureClassBased,FlipACoin,,CityCentroid,,,1,35.02887914,-120.5523911,Relaxed;Soundex,TwoThousandTen,86380,7460,,90120,0,42020,1088,1,123.04,79,6,9,Missing
75312,Winston Salem,NC,,,357,USCGeocoder,156.2746,1,4.1,,,11,CityCentroid,Success,LOCATION_TYPE_CITY,Meters,ArealInterpolation,346269875,ArealInterpolationGeometricCentroid,City,33.33333333,FeatureClassBased,FlipACoin,,CityCentroid,,,1,36.1032616,-80.2605782,Relaxed;Soundex,TwoThousandTen,,480,,,0,49180,1056,1,2,67,37,9,Missing
80003,Playa Vista,CA,,,358,USCGeocoder,93.7578,1,4.1,,,11,CityCentroid,Success,LOCATION_TYPE_CITY,Meters,ArealInterpolation,1925232.98,ArealInterpolationGeometricCentroid,City,14,FeatureClassBased,FlipACoin,,CityCentroid,,,1,40.21174106,-123.7844492,Relaxed;Soundex,TwoThousandTen,56854,,,91100,1,21700,3106,3,116,23,6,6,ResidenceCityOrZIPWithOneCensusTract
80033,Brookfield,CT,,,359,USCGeocoder,62.5011,1,4.1,,,12,CountyCentroid,Success,LOCATION_TYPE_CITY,Meters,ArealInterpolation,52755557.93,ArealInterpolationGeometricCentroid,CountySubRegion,40,FeatureClassBased,FlipACoin,,CountySubdivisionCentroid,,,1,41.46741983,-73.3922006,Relaxed;Soundex,TwoThousandTen,,1122,,8980,0,14860,3021,3,2052,1,9,9,Missing
80081,Los Alamitos,TX,,,360,USCGeocoder,78.1315,1,4.1,,,11,CityCentroid,Success,LOCATION_TYPE_CITY,Meters,ArealInterpolation,10961613.19,ArealInterpolationGeometricCentroid,City,20.90909091,FeatureClassBased,FlipACoin,,CityCentroid,,,1,29.38669291,-98.61794071,Relaxed;Soundex,TwoThousandTen,65000,7240,,93407,0,41700,1017,1,1614,29,48,9,Missing
80146B,Charlestown,WV,,,362,USCGeocoder,93.7331,1,4.1,,,11,CityCentroid,Success,LOCATION_TYPE_CITY,Meters,ArealInterpolation,16475772.49,ArealInterpolationGeometricCentroid,City,50,FeatureClassBased,FlipACoin,,CityCentroid,,,1,39.27422868,-77.86310395,Relaxed;Soundex,TwoThousandTen,14610,8872,47894,90504,0,47900,2023,2,9725.05,37,54,9,Missing
80174A,Henrietta,NY,,,365,USCGeocoder,78.1604,1,4.1,,,12,CountyCentroid,Success,LOCATION_TYPE_CITY,Meters,ArealInterpolation,92324418.27,ArealInterpolationGeometricCentroid,CountySubRegion,40,FeatureClassBased,FlipACoin,,CountySubdivisionCentroid,,,1,43.05556301,-77.64127292,Relaxed;Soundex,TwoThousandTen,,160,,34099,0,40380,1024,1,132.04,55,36,9,Missing
80179,Edison,NJ,,,366,USCGeocoder,15.5927,1,4.1,,,12,CountyCentroid,Success,LOCATION_TYPE_CITY,Meters,ArealInterpolation,86517048.05,ArealInterpolationGeometricCentroid,CountySubRegion,40,FeatureClassBased,FlipACoin,,CountySubdivisionCentroid,,,1,40.53630628,-74.36891398,Relaxed;Soundex,TwoThousandTen,45690,5602,20764,20230,0,35620,2006,2,22,23,34,9,Missing
80213,St. Louis,MO,,,367,USCGeocoder,15.6401,1,4.1,,,11,CityCentroid,Success,LOCATION_TYPE_CITY,Meters,ArealInterpolation,171026232.2,ArealInterpolationGeometricCentroid,City,50,FeatureClassBased,FlipACoin,,CityCentroid,,,1,38.63581226,-90.24511868,Relaxed;Soundex,TwoThousandTen,65000,7040,,65000,0,41180,1008,1,1186,510,29,9,Missing
80257,West Chester,OH,,,368,USCGeocoder,78.0535,1,4.1,,,11,CityCentroid,Success,LOCATION_TYPE_CITY,Meters,ArealInterpolation,925097.2692,ArealInterpolationGeometricCentroid,City,50,FeatureClassBased,FlipACoin,,CityCentroid,,,1,39.33521546,-84.40347504,Relaxed;Soundex,TwoThousandTen,58149,1642,,83150,0,17140,2009,2,111.09,17,39,9,Missing
80267,Canton,MA,,,369,USCGeocoder,15.6126,1,4.1,,,12,CountyCentroid,Success,LOCATION_TYPE_CITY,Meters,ArealInterpolation,50797131.02,ArealInterpolationGeometricCentroid,CountySubRegion,40,FeatureClassBased,FlipACoin,,CountySubdivisionCentroid,,,1,42.17519337,-71.12650777,Relaxed;Soundex,TwoThousandTen,,740,14484,11315,0,14460,1011,1,4152,21,25,9,Missing
80297,Lincoln,RI,,,372,USCGeocoder,15.6232,1,4.1,,,12,CountyCentroid,Success,LOCATION_TYPE_CITY,Meters,ArealInterpolation,49082394.88,ArealInterpolationGeometricCentroid,CountySubRegion,40,FeatureClassBased,FlipACoin,,CountySubdivisionCentroid,,,1,41.91694217,-71.45048232,Relaxed;Soundex,TwoThousandTen,,5520,,41500,0,39300,3005,3,116,7,44,9,Missing
80301,Lee's Summit,MO,,,373,USCGeocoder,31.228,1,4.1,,,12,CountyCentroid,Success,LOCATION_TYPE_CITY,Meters,ArealInterpolation,48423979.63,ArealInterpolationGeometricCentroid,CountySubRegion,40,FeatureClassBased,FlipACoin,,CountySubdivisionCentroid,,,1,38.84429994,-90.32122852,Relaxed;Soundex,TwoThousandTen,54352,7040,,41825,0,41180,2024,2,2109.27,189,29,9,Missing
80367,St. Petersburg,FL,,,375,USCGeocoder,15.6211,1,4.1,,,11,CityCentroid,Success,LOCATION_TYPE_CITY,Meters,ArealInterpolation,357500421.3,ArealInterpolationGeometricCentroid,City,50,FeatureClassBased,FlipACoin,,CityCentroid,,,1,27.76172935,-82.64293485,Relaxed;Soundex,TwoThousandTen,63000,8280,,93042,0,45300,1029,1,286,103,12,9,Missing
80385,New York City,NY,,,376,USCGeocoder,78.3492,1,4.1,,,11,CityCentroid,Success,LOCATION_TYPE_CITY,Meters,ArealInterpolation,1213369810,ArealInterpolationGeometricCentroid,City,50,FeatureClassBased,FlipACoin,,CityCentroid,,,1,40.66393072,-73.93827499,Relaxed;Soundex,TwoThousandTen,51000,5602,35644,10022,0,35620,1000,1,331,47,36,9,Missing
80408,Southbury,CT,,,377,USCGeocoder,15.6181,1,4.1,,,11,CityCentroid,Success,LOCATION_TYPE_CITY,Meters,ArealInterpolation,2569762.384,ArealInterpolationGeometricCentroid,City,36.66666667,FeatureClassBased,FlipACoin,,CityCentroid,,,1,41.13412754,-73.28782374,Relaxed;Soundex,TwoThousandTen,71040,5602,,26620,0,14860,1063,1,606,1,9,9,Missing
80513,Jeanette,PA,,,379,USCGeocoder,78.1118,1,4.1,,,11,CityCentroid,Success,LOCATION_TYPE_CITY,Meters,ArealInterpolation,6185666.562,ArealInterpolationGeometricCentroid,City,45,FeatureClassBased,FlipACoin,,CityCentroid,,,1,40.32775241,-79.61390371,Relaxed;Soundex,TwoThousandTen,37784,6280,,37784,0,38300,2031,2,8026,129,42,9,Missing
81084,St. Marys,PA,,,380,USCGeocoder,0,1,4.1,,,11,CityCentroid,Success,LOCATION_TYPE_CITY,Meters,ArealInterpolation,257763013,ArealInterpolationGeometricCentroid,City,50,FeatureClassBased,FlipACoin,,CityCentroid,,,1,41.45746601,-78.53417748,Relaxed;Soundex,TwoThousandTen,67344,,,67344,1,41260,1054,1,9512,47,42,9,Missing
81133,Research Triangle Park,NC,,,381,USCGeocoder,15.619,1,4.1,,,12,CountyCentroid,Success,LOCATION_TYPE_CITY,Meters,ArealInterpolation,94222352.49,ArealInterpolationGeometricCentroid,CountySubRegion,40,FeatureClassBased,FlipACoin,,CountySubdivisionCentroid,,,1,36.07153823,-79.58023557,Relaxed;Soundex,TwoThousandTen,73760,3120,,92716,0,24660,3047,3,152,81,37,9,Missing
81140,Amherst,NY,,,382,USCGeocoder,78.1353,1,4.1,,,12,CountyCentroid,Success,LOCATION_TYPE_CITY,Meters,ArealInterpolation,138807110.9,ArealInterpolationGeometricCentroid,CountySubRegion,40,FeatureClassBased,FlipACoin,,CountySubdivisionCentroid,,,1,43.01168418,-78.75693933,Relaxed;Soundex,TwoThousandTen,,160,,2000,0,15380,2028,2,91.13,29,36,9,Missing
81153,North Andover,MA,,,383,USCGeocoder,15.6499,1,4.1,,,11,CityCentroid,Success,LOCATION_TYPE_CITY,Meters,ArealInterpolation,92596799.02,ArealInterpolationGeometricCentroid,City,30,FeatureClassBased,FlipACoin,,CityCentroid,,,1,42.32663214,-72.67454127,Relaxed;Soundex,TwoThousandTen,46330,8000,,46330,0,44140,2011,2,8222,15,25,9,Missing
81162,Greenfield,MA,,,384,USCGeocoder,78.1052,1,4.1,,,11,CityCentroid,Success,LOCATION_TYPE_CITY,Meters,ArealInterpolation,56677217.78,ArealInterpolationGeometricCentroid,City,50,FeatureClassBased,FlipACoin,,CityCentroid,,,1,42.6140248,-72.59854763,Relaxed;Soundex,TwoThousandTen,27100,8000,,27100,0,44140,1003,1,411,11,25,9,Missing
81250,LaVergne,TN,,,386,USCGeocoder,15.8246,1,4.1,,,11,CityCentroid,Success,LOCATION_TYPE_CITY,Meters,ArealInterpolation,65310394.63,ArealInterpolationGeometricCentroid,City,10,FeatureClassBased,FlipACoin,,CityCentroid,,,1,36.02101196,-86.55734106,Relaxed;Soundex,TwoThousandTen,41200,5360,,90150,0,34980,2020,2,401.04,149,47,9,Missing
81301A,Enfield,CT,,,387,USCGeocoder,15.4964,1,4.1,,,12,CountyCentroid,Success,LOCATION_TYPE_CITY,Meters,ArealInterpolation,88617681.15,ArealInterpolationGeometricCentroid,CountySubRegion,40,FeatureClassBased,FlipACoin,,CountySubdivisionCentroid,,,1,41.9839643,-72.55475388,Relaxed;Soundex,TwoThousandTen,37770,3280,,25990,0,25540,2016,2,4808,3,9,9,Missing
81322,Raynham,MA,,,388,USCGeocoder,62.2503,1,4.1,,,11,CityCentroid,Success,LOCATION_TYPE_CITY,Meters,ArealInterpolation,11287885.54,ArealInterpolationGeometricCentroid,City,50,FeatureClassBased,FlipACoin,,CityCentroid,,,1,41.93280867,-71.04308945,Relaxed;Soundex,TwoThousandTen,56095,1122,,56060,0,39300,2003,2,6122,5,25,9,Missing
81386,St. Joseph,MO,,,389,USCGeocoder,0,1,4.1,,,11,CityCentroid,Success,LOCATION_TYPE_CITY,Meters,ArealInterpolation,115963206.9,ArealInterpolationGeometricCentroid,City,50,FeatureClassBased,FlipACoin,,CityCentroid,,,1,39.75983122,-94.82092468,Relaxed;Soundex,TwoThousandTen,64550,7000,,77236,0,41140,1005,1,15,21,29,9,Missing
81478,Middleton,MA,,,391,USCGeocoder,78.2351,1,4.1,,,12,CountyCentroid,Success,LOCATION_TYPE_CITY,Meters,ArealInterpolation,37514922.54,ArealInterpolationGeometricCentroid,CountySubRegion,40,FeatureClassBased,FlipACoin,,CountySubdivisionCentroid,,,1,42.60428467,-71.01647665,Relaxed;Soundex,TwoThousandTen,,740,37764,41095,0,14460,2002,2,2121,9,25,9,Missing
81490,Windsor,CT,,,392,USCGeocoder,15.5651,1,4.1,,,11,CityCentroid,Success,LOCATION_TYPE_CITY,Meters,ArealInterpolation,24256148.97,ArealInterpolationGeometricCentroid,City,50,FeatureClassBased,FlipACoin,,CityCentroid,,,1,41.92671117,-72.65439456,Relaxed;Soundex,TwoThousandTen,87140,3280,,87070,0,25540,1024,1,4762,3,9,9,Missing
81491,St. Joseph,MO,,,393,USCGeocoder,15.5812,1,4.1,,,11,CityCentroid,Success,LOCATION_TYPE_CITY,Meters,ArealInterpolation,115963206.9,ArealInterpolationGeometricCentroid,City,50,FeatureClassBased,FlipACoin,,CityCentroid,,,1,39.75983122,-94.82092468,Relaxed;Soundex,TwoThousandTen,64550,7000,,77236,0,41140,1005,1,15,21,29,9,Missing
81493,Asuza,CA,,,394,USCGeocoder,78.0946,1,4.1,,,11,CityCentroid,Success,LOCATION_TYPE_CITY,Meters,ArealInterpolation,25983314.73,ArealInterpolationGeometricCentroid,City,34,FeatureClassBased,FlipACoin,,CityCentroid,,,1,34.1386666,-117.9120593,Relaxed;Soundex,TwoThousandTen,3386,4472,31084,90810,0,31100,3027,3,4006.02,37,6,9,Missing
81494,Boxborough,MA,,,395,USCGeocoder,78.1452,1,4.1,,,11,CityCentroid,Success,LOCATION_TYPE_CITY,Meters,ArealInterpolation,14176108.51,ArealInterpolationGeometricCentroid,City,30,FeatureClassBased,FlipACoin,,CityCentroid,,,1,42.66941329,-70.98311098,Relaxed;Soundex,TwoThousandTen,7385,1122,37764,7420,0,14460,1049,1,2131,9,25,9,Missing
81532II,North Potomac,VA,,,396,USCGeocoder,124.9752,1,4.1,,,12,CountyCentroid,Success,LOCATION_TYPE_CITY,Meters,ArealInterpolation,335101974.4,ArealInterpolationGeometricCentroid,CountySubRegion,40,FeatureClassBased,FlipACoin,,CountySubdivisionCentroid,,,1,36.91788592,-81.56782702,Relaxed;Soundex,TwoThousandTen,,1540,,94895,,,4015,4,301,173,51,9,Missing
81532X,Highland Ranch,CO,,,397,USCGeocoder,93.7347,1,4.1,,,11,CityCentroid,Success,LOCATION_TYPE_CITY,Meters,ArealInterpolation,62906020.21,ArealInterpolationGeometricCentroid,City,34.61538462,FeatureClassBased,FlipACoin,,CityCentroid,,,1,39.54191967,-104.9707602,Relaxed;Soundex,TwoThousandTen,36410,2082,,93249,0,19740,1010,1,141.33,35,8,9,Missing
81532Z,Hillsborough,NJ,,,398,USCGeocoder,93.7831,1,4.1,,,12,CountyCentroid,Success,LOCATION_TYPE_CITY,Meters,ArealInterpolation,142452745.3,ArealInterpolationGeometricCentroid,CountySubRegion,40,FeatureClassBased,FlipACoin,,CountySubdivisionCentroid,,,1,40.49856609,-74.67403433,Relaxed;Soundex,TwoThousandTen,,5602,20764,31890,0,35620,1006,1,537.04,35,34,9,Missing
81575D,Bellvue,WA,,,401,USCGeocoder,93.6122,1,4.1,,,11,CityCentroid,Success,LOCATION_TYPE_CITY,Meters,ArealInterpolation,98208893.69,ArealInterpolationGeometricCentroid,City,44.28571429,FeatureClassBased,FlipACoin,,CityCentroid,,,1,47.59519066,-122.1528698,Relaxed;Soundex,TwoThousandTen,5210,7602,42644,92931,0,42660,4004,4,236.04,33,53,9,Missing
81610,Westford,MA,,,402,USCGeocoder,15.6411,1,4.1,,,11,CityCentroid,Success,LOCATION_TYPE_CITY,Meters,ArealInterpolation,122725578.1,ArealInterpolationGeometricCentroid,City,35,FeatureClassBased,FlipACoin,,CityCentroid,,,1,42.13814949,-72.7562089,Relaxed;Soundex,TwoThousandTen,76030,8000,,76030,0,44140,2030,2,8128,13,25,9,Missing
81633B,Research Triangle,NC,,,403,USCGeocoder,31.1942,1,4.1,,,12,CountyCentroid,Success,LOCATION_TYPE_CITY,Meters,ArealInterpolation,94222352.49,ArealInterpolationGeometricCentroid,CountySubRegion,40,FeatureClassBased,FlipACoin,,CountySubdivisionCentroid,,,1,36.07153823,-79.58023557,Relaxed;Soundex,TwoThousandTen,73760,3120,,92716,0,24660,3047,3,152,81,37,9,Missing
81657,Dubois,PA,,,405,USCGeocoder,0,1,4.1,,,11,CityCentroid,Success,LOCATION_TYPE_CITY,Meters,ArealInterpolation,8330947.309,ArealInterpolationGeometricCentroid,City,50,FeatureClassBased,FlipACoin,,CityCentroid,,,1,41.12250837,-78.75644835,Relaxed;Soundex,TwoThousandTen,20136,,,67792,1,20180,1095,1,3303,33,42,9,Missing
81667,Woodland Hills,CA,,,406,USCGeocoder,0,1,4.1,,,11,CityCentroid,Success,LOCATION_TYPE_CITY,Meters,ArealInterpolation,4282731.236,ArealInterpolationGeometricCentroid,City,37.69230769,FeatureClassBased,FlipACoin,,CityCentroid,,,1,35.02887914,-120.5523911,Relaxed;Soundex,TwoThousandTen,86380,7460,,90120,0,42020,1088,1,123.04,79,6,9,Missing
81667C,Woodland Hills,CA,,,407,USCGeocoder,0,1,4.1,,,11,CityCentroid,Success,LOCATION_TYPE_CITY,Meters,ArealInterpolation,4282731.236,ArealInterpolationGeometricCentroid,City,37.69230769,FeatureClassBased,FlipACoin,,CityCentroid,,,1,35.02887914,-120.5523911,Relaxed;Soundex,TwoThousandTen,86380,7460,,90120,0,42020,1088,1,123.04,79,6,9,Missing
81770,Southington,CT,,,410,USCGeocoder,78.123,1,4.1,,,12,CountyCentroid,Success,LOCATION_TYPE_CITY,Meters,ArealInterpolation,94905175.98,ArealInterpolationGeometricCentroid,CountySubRegion,40,FeatureClassBased,FlipACoin,,CountySubdivisionCentroid,,,1,41.60492578,-72.88011721,Relaxed;Soundex,TwoThousandTen,,1122,,70550,0,25540,2025,2,4306.02,3,9,9,Missing
81813,West Warwick,RI,,,413,USCGeocoder,77.9618,1,4.1,,,11,CityCentroid,Success,LOCATION_TYPE_CITY,Meters,ArealInterpolation,42783002.42,ArealInterpolationGeometricCentroid,City,28.18181818,FeatureClassBased,FlipACoin,,CityCentroid,,,1,41.37225578,-71.80694044,Relaxed;Soundex,TwoThousandTen,76820,5520,,77000,0,39300,2031,2,509.01,9,44,9,Missing
81865,Grand Island,NY,,,416,USCGeocoder,62.5365,1,4.1,,,11,CityCentroid,Success,LOCATION_TYPE_CITY,Meters,ArealInterpolation,4876748.218,ArealInterpolationGeometricCentroid,City,31.81818182,FeatureClassBased,FlipACoin,,CityCentroid,,,1,42.98685457,-78.95401475,Relaxed;Soundex,TwoThousandTen,29894,1280,,29828,0,15380,2002,2,73.02,29,36,9,Missing
81873,St. Petersburg,FL,,,417,USCGeocoder,0,1,4.1,,,11,CityCentroid,Success,LOCATION_TYPE_CITY,Meters,ArealInterpolation,357500421.3,ArealInterpolationGeometricCentroid,City,50,FeatureClassBased,FlipACoin,,CityCentroid,,,1,27.76172935,-82.64293485,Relaxed;Soundex,TwoThousandTen,63000,8280,,93042,0,45300,1029,1,286,103,12,9,Missing
81875,Windsor,CT,,,418,USCGeocoder,0,1,4.1,,,11,CityCentroid,Success,LOCATION_TYPE_CITY,Meters,ArealInterpolation,24256148.97,ArealInterpolationGeometricCentroid,City,50,FeatureClassBased,FlipACoin,,CityCentroid,,,1,41.92671117,-72.65439456,Relaxed;Soundex,TwoThousandTen,87140,3280,,87070,0,25540,1024,1,4762,3,9,9,Missing
81925,Redwood Shores,CA,,,420,USCGeocoder,31.2784,1,4.1,,,11,CityCentroid,Success,LOCATION_TYPE_CITY,Meters,ArealInterpolation,90000471.17,ArealInterpolationGeometricCentroid,City,50,FeatureClassBased,FlipACoin,,CityCentroid,,,1,37.51732201,-122.2113139,Relaxed;Soundex,TwoThousandTen,60102,7362,41884,92870,0,41860,1027,1,6103.02,81,6,9,Missing
81960,Highlands,CO,,,421,USCGeocoder,46.8799,1,4.1,,,11,CityCentroid,Success,LOCATION_TYPE_CITY,Meters,ArealInterpolation,62906020.21,ArealInterpolationGeometricCentroid,City,50,FeatureClassBased,FlipACoin,,CityCentroid,,,1,39.54191967,-104.9707602,Relaxed;Soundex,TwoThousandTen,36410,2082,,93249,0,19740,1010,1,141.33,35,8,9,Missing
81974,Sparrows Point,MD,,,422,USCGeocoder,109.2789,1,4.1,,,11,CityCentroid,Success,LOCATION_TYPE_CITY,Meters,ArealInterpolation,7828933.872,ArealInterpolationGeometricCentroid,City,25.38461538,FeatureClassBased,FlipACoin,,CityCentroid,,,1,38.98018579,-76.84984246,Relaxed;Soundex,TwoThousandTen,70775,8872,47894,91256,0,47900,1012,1,8004.12,33,24,9,Missing
81983A,St. Louis Park,MN,,,423,USCGeocoder,15.5032,1,4.1,,,11,CityCentroid,Success,LOCATION_TYPE_CITY,Meters,ArealInterpolation,28120353.72,ArealInterpolationGeometricCentroid,City,50,FeatureClassBased,FlipACoin,,CityCentroid,,,1,44.94875989,-93.36502317,Relaxed;Soundex,TwoThousandTen,57220,5120,,57220,0,33460,1003,1,1226,53,27,9,Missing
82030,Sparrows Point,MD,,,424,USCGeocoder,15.6033,1,4.1,,,11,CityCentroid,Success,LOCATION_TYPE_CITY,Meters,ArealInterpolation,7828933.872,ArealInterpolationGeometricCentroid,City,25.38461538,FeatureClassBased,FlipACoin,,CityCentroid,,,1,38.98018579,-76.84984246,Relaxed;Soundex,TwoThousandTen,70775,8872,47894,91256,0,47900,1012,1,8004.12,33,24,9,Missing
82048,Windsor,CT,,,425,USCGeocoder,0,1,4.1,,,11,CityCentroid,Success,LOCATION_TYPE_CITY,Meters,ArealInterpolation,24256148.97,ArealInterpolationGeometricCentroid,City,50,FeatureClassBased,FlipACoin,,CityCentroid,,,1,41.92671117,-72.65439456,Relaxed;Soundex,TwoThousandTen,87140,3280,,87070,0,25540,1024,1,4762,3,9,9,Missing
82049,Simsbury,CT,,,426,USCGeocoder,15.6147,1,4.1,,,11,CityCentroid,Success,LOCATION_TYPE_CITY,Meters,ArealInterpolation,11822192.03,ArealInterpolationGeometricCentroid,City,50,FeatureClassBased,FlipACoin,,CityCentroid,,,1,41.88077097,-72.81112999,Relaxed;Soundex,TwoThousandTen,69010,3280,,68940,0,25540,2016,2,4663,3,9,9,Missing
82050,Simsbury,CT,,,427,USCGeocoder,15.4454,1,4.1,,,11,CityCentroid,Success,LOCATION_TYPE_CITY,Meters,ArealInterpolation,11822192.03,ArealInterpolationGeometricCentroid,City,50,FeatureClassBased,FlipACoin,,CityCentroid,,,1,41.88077097,-72.81112999,Relaxed;Soundex,TwoThousandTen,69010,3280,,68940,0,25540,2016,2,4663,3,9,9,Missing
82050B,Windsor,CT,,,428,USCGeocoder,0,1,4.1,,,11,CityCentroid,Success,LOCATION_TYPE_CITY,Meters,ArealInterpolation,24256148.97,ArealInterpolationGeometricCentroid,City,50,FeatureClassBased,FlipACoin,,CityCentroid,,,1,41.92671117,-72.65439456,Relaxed;Soundex,TwoThousandTen,87140,3280,,87070,0,25540,1024,1,4762,3,9,9,Missing
82099,Sparrows Point,MD,,,429,USCGeocoder,0,1,4.1,,,11,CityCentroid,Success,LOCATION_TYPE_CITY,Meters,ArealInterpolation,7828933.872,ArealInterpolationGeometricCentroid,City,25.38461538,FeatureClassBased,FlipACoin,,CityCentroid,,,1,38.98018579,-76.84984246,Relaxed;Soundex,TwoThousandTen,70775,8872,47894,91256,0,47900,1012,1,8004.12,33,24,9,Missing
82110,Wayland,MA,,,430,USCGeocoder,78.1508,1,4.1,,,12,CountyCentroid,Success,LOCATION_TYPE_CITY,Meters,ArealInterpolation,41204016.81,ArealInterpolationGeometricCentroid,CountySubRegion,40,FeatureClassBased,FlipACoin,,CountySubdivisionCentroid,,,1,42.35855491,-71.35947617,Relaxed;Soundex,TwoThousandTen,,740,15764,73790,0,14460,1024,1,3662.02,17,25,9,Missing
82113,St. Marys,PA,,,431,USCGeocoder,15.5829,1,4.1,,,11,CityCentroid,Success,LOCATION_TYPE_CITY,Meters,ArealInterpolation,257763013,ArealInterpolationGeometricCentroid,City,50,FeatureClassBased,FlipACoin,,CityCentroid,,,1,41.45746601,-78.53417748,Relaxed;Soundex,TwoThousandTen,67344,,,67344,1,41260,1054,1,9512,47,42,9,Missing
82120,Skaneateles Falls,NY,,,432,USCGeocoder,15.6198,1,4.1,,,11,CityCentroid,Success,LOCATION_TYPE_CITY,Meters,ArealInterpolation,4456197.814,ArealInterpolationGeometricCentroid,City,37.5,FeatureClassBased,FlipACoin,,CityCentroid,,,1,42.94578955,-76.42818715,Relaxed;Soundex,TwoThousandTen,67510,8160,,67521,0,45060,3047,3,166,67,36,9,Missing
82135A,Southington,CT,,,433,USCGeocoder,0,1,4.1,,,12,CountyCentroid,Success,LOCATION_TYPE_CITY,Meters,ArealInterpolation,94905175.98,ArealInterpolationGeometricCentroid,CountySubRegion,40,FeatureClassBased,FlipACoin,,CountySubdivisionCentroid,,,1,41.60492578,-72.88011721,Relaxed;Soundex,TwoThousandTen,,1122,,70550,0,25540,2025,2,4306.02,3,9,9,Missing
82138,Dresher,PA,,,434,USCGeocoder,109.3613,1,4.1,,,12,CountyCentroid,Success,LOCATION_TYPE_CITY,Meters,ArealInterpolation,38463476.89,ArealInterpolationGeometricCentroid,CountySubRegion,40,FeatureClassBased,FlipACoin,,CountySubdivisionCentroid,,,1,41.45622975,-80.13974368,Relaxed;Soundex,TwoThousandTen,,240,,18536,0,49660,3030,3,318,85,42,9,Missing
82197,Seatac,WA,,,436,USCGeocoder,93.8442,1,4.1,,,11,CityCentroid,Success,LOCATION_TYPE_CITY,Meters,ArealInterpolation,26431165.27,ArealInterpolationGeometricCentroid,City,50,FeatureClassBased,FlipACoin,,CityCentroid,,,1,47.44444883,-122.2985537,Relaxed;Soundex,TwoThousandTen,62288,7602,42644,92928,0,42660,4052,4,284.02,33,53,9,Missing
82297,Southborough,MA,,,438,USCGeocoder,31.2682,1,4.1,,,11,CityCentroid,Success,LOCATION_TYPE_CITY,Meters,ArealInterpolation,54140159,ArealInterpolationGeometricCentroid,City,50,FeatureClassBased,FlipACoin,,CityCentroid,,,1,42.06038214,-72.03378847,Relaxed;Soundex,TwoThousandTen,63345,1122,,63345,0,49340,2010,2,7575,27,25,9,Missing
82313,Kite,KY,,,439,USCGeocoder,156.247,1,4.1,,,11,CityCentroid,Success,LOCATION_TYPE_CITY,Meters,ArealInterpolation,7039226.574,ArealInterpolationGeometricCentroid,City,10,FeatureClassBased,FlipACoin,,CityCentroid,,,1,37.06108577,-88.1116494,Relaxed;Soundex,TwoThousandTen,43264,,,91104,,,4078,4,9601,143,21,9,Missing
82334A,Mansfield,MA,,,440,USCGeocoder,15.5713,1,4.1,,,11,CityCentroid,Success,LOCATION_TYPE_CITY,Meters,ArealInterpolation,7298430.034,ArealInterpolationGeometricCentroid,City,50,FeatureClassBased,FlipACoin,,CityCentroid,,,1,42.02249279,-71.21805564,Relaxed;Soundex,TwoThousandTen,38230,1122,,38225,0,39300,3058,3,6101,5,25,9,Missing
82382D,St. Louis,MO,,,441,USCGeocoder,15.632,1,4.1,,,11,CityCentroid,Success,LOCATION_TYPE_CITY,Meters,ArealInterpolation,171026232.2,ArealInterpolationGeometricCentroid,City,50,FeatureClassBased,FlipACoin,,CityCentroid,,,1,38.63581226,-90.24511868,Relaxed;Soundex,TwoThousandTen,65000,7040,,65000,0,41180,1008,1,1186,510,29,9,Missing
82410B,St. Mary,MO,,,444,USCGeocoder,62.5837,1,4.1,,,11,CityCentroid,Success,LOCATION_TYPE_CITY,Meters,ArealInterpolation,1577018.871,ArealInterpolationGeometricCentroid,City,50,FeatureClassBased,FlipACoin,,CityCentroid,,,1,37.87368981,-89.94965132,Relaxed;Soundex,TwoThousandTen,65034,,,3790,,,3044,3,9604,186,29,9,Missing
82421,Bensalem,PA,,,445,USCGeocoder,15.6277,1,4.1,,,12,CountyCentroid,Success,LOCATION_TYPE_CITY,Meters,ArealInterpolation,54206462.27,ArealInterpolationGeometricCentroid,CountySubRegion,40,FeatureClassBased,FlipACoin,,CountySubdivisionCentroid,,,1,40.10860589,-74.94310605,Relaxed;Soundex,TwoThousandTen,,240,37964,5616,0,37980,4000,4,1002.08,17,42,9,Missing
82426,St. Paul,MN,,,446,USCGeocoder,31.1601,1,4.1,,,11,CityCentroid,Success,LOCATION_TYPE_CITY,Meters,ArealInterpolation,145498914.5,ArealInterpolationGeometricCentroid,City,50,FeatureClassBased,FlipACoin,,CityCentroid,,,1,44.94774025,-93.10399583,Relaxed;Soundex,TwoThousandTen,58000,5120,,58000,0,33460,1045,1,428,123,27,9,Missing
82473A,"Babbitt,",MN,,,448,USCGeocoder,62.5057,1,4.1,,,11,CityCentroid,Success,LOCATION_TYPE_CITY,Meters,ArealInterpolation,276405620.2,ArealInterpolationGeometricCentroid,City,45,FeatureClassBased,FlipACoin,,CityCentroid,,,1,47.6445755,-91.94570625,Relaxed;Soundex,TwoThousandTen,3106,2240,,3106,0,20260,1152,1,141,137,27,9,Missing
82485,St. Louis Park,MN,,,449,USCGeocoder,15.5976,1,4.1,,,11,CityCentroid,Success,LOCATION_TYPE_CITY,Meters,ArealInterpolation,28120353.72,ArealInterpolationGeometricCentroid,City,50,FeatureClassBased,FlipACoin,,CityCentroid,,,1,44.94875989,-93.36502317,Relaxed;Soundex,TwoThousandTen,57220,5120,,57220,0,33460,1003,1,1226,53,27,9,Missing
82490,Edison,NJ,,,450,USCGeocoder,15.5802,1,4.1,,,12,CountyCentroid,Success,LOCATION_TYPE_CITY,Meters,ArealInterpolation,86517048.05,ArealInterpolationGeometricCentroid,CountySubRegion,40,FeatureClassBased,FlipACoin,,CountySubdivisionCentroid,,,1,40.53630628,-74.36891398,Relaxed;Soundex,TwoThousandTen,45690,5602,20764,20230,0,35620,2006,2,22,23,34,9,Missing
82538,Lincoln,RI,,,451,USCGeocoder,15.618,1,4.1,,,12,CountyCentroid,Success,LOCATION_TYPE_CITY,Meters,ArealInterpolation,49082394.88,ArealInterpolationGeometricCentroid,CountySubRegion,40,FeatureClassBased,FlipACoin,,CountySubdivisionCentroid,,,1,41.91694217,-71.45048232,Relaxed;Soundex,TwoThousandTen,,5520,,41500,0,39300,3005,3,116,7,44,9,Missing
82541,Kittaning,PA,,,452,USCGeocoder,93.6703,1,4.1,,,11,CityCentroid,Success,LOCATION_TYPE_CITY,Meters,ArealInterpolation,3237158.706,ArealInterpolationGeometricCentroid,City,45.55555556,FeatureClassBased,FlipACoin,,CityCentroid,,,1,40.82791208,-79.52335652,Relaxed;Soundex,TwoThousandTen,,240,,63560,0,38300,3032,3,9506,5,42,9,Missing
82548,Middleton,MA,,,454,USCGeocoder,0,1,4.1,,,12,CountyCentroid,Success,LOCATION_TYPE_CITY,Meters,ArealInterpolation,37514922.54,ArealInterpolationGeometricCentroid,CountySubRegion,40,FeatureClassBased,FlipACoin,,CountySubdivisionCentroid,,,1,42.60428467,-71.01647665,Relaxed;Soundex,TwoThousandTen,,740,37764,41095,0,14460,2002,2,2121,9,25,9,Missing
82595,Livingston,NJ,,,455,USCGeocoder,93.8095,1,4.1,,,12,CountyCentroid,Success,LOCATION_TYPE_CITY,Meters,ArealInterpolation,36472058.38,ArealInterpolationGeometricCentroid,CountySubRegion,40,FeatureClassBased,FlipACoin,,CountySubdivisionCentroid,,,1,40.78565594,-74.32911212,Relaxed;Soundex,TwoThousandTen,,5602,35084,40890,0,35620,4007,4,207,13,34,9,Missing
82612,Bumpass,VA,,,457,USCGeocoder,62.4854,1,4.1,,,11,CityCentroid,Success,LOCATION_TYPE_CITY,Meters,ArealInterpolation,17586099.23,ArealInterpolationGeometricCentroid,City,10,FeatureClassBased,FlipACoin,,CityCentroid,,,1,37.7315905,-79.35654236,Relaxed;Soundex,TwoThousandTen,11032,,,90556,,,3056,3,9306,530,51,9,Missing
82643,West Boylston,MA,,,458,USCGeocoder,47.0456,1,4.1,,,11,CityCentroid,Success,LOCATION_TYPE_CITY,Meters,ArealInterpolation,4933265.336,ArealInterpolationGeometricCentroid,City,30,FeatureClassBased,FlipACoin,,CityCentroid,,,1,42.26717597,-71.6168463,Relaxed;Soundex,TwoThousandTen,75050,1122,,75015,0,49340,4010,4,7423,27,25,9,Missing
82646,St. Paul,MN,,,459,USCGeocoder,15.6043,1,4.1,,,11,CityCentroid,Success,LOCATION_TYPE_CITY,Meters,ArealInterpolation,145498914.5,ArealInterpolationGeometricCentroid,City,50,FeatureClassBased,FlipACoin,,CityCentroid,,,1,44.94774025,-93.10399583,Relaxed;Soundex,TwoThousandTen,58000,5120,,58000,0,33460,1045,1,428,123,27,9,Missing
82655,St. Louis,MO,,,460,USCGeocoder,15.6336,1,4.1,,,11,CityCentroid,Success,LOCATION_TYPE_CITY,Meters,ArealInterpolation,171026232.2,ArealInterpolationGeometricCentroid,City,50,FeatureClassBased,FlipACoin,,CityCentroid,,,1,38.63581226,-90.24511868,Relaxed;Soundex,TwoThousandTen,65000,7040,,65000,0,41180,1008,1,1186,510,29,9,Missing
82680B,St. Petersburg,FL,,,461,USCGeocoder,15.6107,1,4.1,,,11,CityCentroid,Success,LOCATION_TYPE_CITY,Meters,ArealInterpolation,357500421.3,ArealInterpolationGeometricCentroid,City,50,FeatureClassBased,FlipACoin,,CityCentroid,,,1,27.76172935,-82.64293485,Relaxed;Soundex,TwoThousandTen,63000,8280,,93042,0,45300,1029,1,286,103,12,9,Missing
82684,Hermon,ME,,,462,USCGeocoder,78.1488,1,4.1,,,12,CountyCentroid,Success,LOCATION_TYPE_CITY,Meters,ArealInterpolation,100663673.3,ArealInterpolationGeometricCentroid,CountySubRegion,40,FeatureClassBased,FlipACoin,,CountySubdivisionCentroid,,,1,43.86380951,-70.82579252,Relaxed;Soundex,TwoThousandTen,,730,,33315,,,1062,1,9669,17,23,9,Missing
82693,Avon,MA,,,463,USCGeocoder,0,1,4.1,,,12,CountyCentroid,Success,LOCATION_TYPE_CITY,Meters,ArealInterpolation,11752181.86,ArealInterpolationGeometricCentroid,CountySubRegion,40,FeatureClassBased,FlipACoin,,CountySubdivisionCentroid,,,1,42.12666226,-71.04924571,Relaxed;Soundex,TwoThousandTen,,740,14484,2935,0,14460,1003,1,4571,21,25,9,Missing
82725,Jeanette,PA,,,464,USCGeocoder,0,1,4.1,,,11,CityCentroid,Success,LOCATION_TYPE_CITY,Meters,ArealInterpolation,6185666.562,ArealInterpolationGeometricCentroid,City,45,FeatureClassBased,FlipACoin,,CityCentroid,,,1,40.32775241,-79.61390371,Relaxed;Soundex,TwoThousandTen,37784,6280,,37784,0,38300,2031,2,8026,129,42,9,Missing
82748,St. Marys,PA,,,465,USCGeocoder,0,1,4.1,,,11,CityCentroid,Success,LOCATION_TYPE_CITY,Meters,ArealInterpolation,257763013,ArealInterpolationGeometricCentroid,City,50,FeatureClassBased,FlipACoin,,CityCentroid,,,1,41.45746601,-78.53417748,Relaxed;Soundex,TwoThousandTen,67344,,,67344,1,41260,1054,1,9512,47,42,9,Missing
82760A,Windsor,CT,,,467,USCGeocoder,0,1,4.1,,,11,CityCentroid,Success,LOCATION_TYPE_CITY,Meters,ArealInterpolation,24256148.97,ArealInterpolationGeometricCentroid,City,50,FeatureClassBased,FlipACoin,,CityCentroid,,,1,41.92671117,-72.65439456,Relaxed;Soundex,TwoThousandTen,87140,3280,,87070,0,25540,1024,1,4762,3,9,9,Missing
82918,Simsbury,CT,,,470,USCGeocoder,15.6227,1,4.1,,,11,CityCentroid,Success,LOCATION_TYPE_CITY,Meters,ArealInterpolation,11822192.03,ArealInterpolationGeometricCentroid,City,50,FeatureClassBased,FlipACoin,,CityCentroid,,,1,41.88077097,-72.81112999,Relaxed;Soundex,TwoThousandTen,69010,3280,,68940,0,25540,2016,2,4663,3,9,9,Missing
82922,South Indianapolis,IN,,,471,USCGeocoder,140.5991,1,4.1,,,11,CityCentroid,Success,LOCATION_TYPE_CITY,Meters,ArealInterpolation,892286.5109,ArealInterpolationGeometricCentroid,City,19.41176471,FeatureClassBased,FlipACoin,,CityCentroid,,,1,39.48639894,-87.18901242,Relaxed;Soundex,TwoThousandTen,72782,8320,,61290,0,45460,3050,3,404,21,18,6,ResidenceCityOrZIPWithOneCensusTract
82951,St. Louis,MO,,,472,USCGeocoder,15.6217,1,4.1,,,11,CityCentroid,Success,LOCATION_TYPE_CITY,Meters,ArealInterpolation,171026232.2,ArealInterpolationGeometricCentroid,City,50,FeatureClassBased,FlipACoin,,CityCentroid,,,1,38.63581226,-90.24511868,Relaxed;Soundex,TwoThousandTen,65000,7040,,65000,0,41180,1008,1,1186,510,29,9,Missing
82975,St. Joseph,MO,,,474,USCGeocoder,0,1,4.1,,,11,CityCentroid,Success,LOCATION_TYPE_CITY,Meters,ArealInterpolation,115963206.9,ArealInterpolationGeometricCentroid,City,50,FeatureClassBased,FlipACoin,,CityCentroid,,,1,39.75983122,-94.82092468,Relaxed;Soundex,TwoThousandTen,64550,7000,,77236,0,41140,1005,1,15,21,29,9,Missing
83042,Wallingford,CT,,,475,USCGeocoder,0,1,4.1,,,11,CityCentroid,Success,LOCATION_TYPE_CITY,Meters,ArealInterpolation,19118676.86,ArealInterpolationGeometricCentroid,City,50,FeatureClassBased,FlipACoin,,CityCentroid,,,1,41.44993274,-72.8188551,Relaxed;Soundex,TwoThousandTen,78880,5602,,78740,0,35300,1008,1,1752,9,9,9,Missing
83059,East Longmeadow,MA,,,476,USCGeocoder,15.6261,1,4.1,,,12,CountyCentroid,Success,LOCATION_TYPE_CITY,Meters,ArealInterpolation,33867983.46,ArealInterpolationGeometricCentroid,CountySubRegion,40,FeatureClassBased,FlipACoin,,CountySubdivisionCentroid,,,1,42.05963362,-72.499013,Relaxed;Soundex,TwoThousandTen,,740,,19645,0,44140,2005,2,8134.04,13,25,9,Missing
83063,Rocky Hill,CT,,,477,USCGeocoder,0,1,4.1,,,12,CountyCentroid,Success,LOCATION_TYPE_CITY,Meters,ArealInterpolation,35844004.65,ArealInterpolationGeometricCentroid,CountySubRegion,40,FeatureClassBased,FlipACoin,,CountySubdivisionCentroid,,,1,41.65719165,-72.66318988,Relaxed;Soundex,TwoThousandTen,,1122,,65370,0,25540,5011,5,5242,3,9,9,Missing
83171,St. Louis,MO,,,480,USCGeocoder,15.7309,1,4.1,,,11,CityCentroid,Success,LOCATION_TYPE_CITY,Meters,ArealInterpolation,171026232.2,ArealInterpolationGeometricCentroid,City,50,FeatureClassBased,FlipACoin,,CityCentroid,,,1,38.63581226,-90.24511868,Relaxed;Soundex,TwoThousandTen,65000,7040,,65000,0,41180,1008,1,1186,510,29,9,Missing
83275,St. Louis,MO,,,483,USCGeocoder,15.6144,1,4.1,,,11,CityCentroid,Success,LOCATION_TYPE_CITY,Meters,ArealInterpolation,171026232.2,ArealInterpolationGeometricCentroid,City,50,FeatureClassBased,FlipACoin,,CityCentroid,,,1,38.63581226,-90.24511868,Relaxed;Soundex,TwoThousandTen,65000,7040,,65000,0,41180,1008,1,1186,510,29,9,Missing
83332,St. Clair,MO,,,485,USCGeocoder,15.6963,1,4.1,,,11,CityCentroid,Success,LOCATION_TYPE_CITY,Meters,ArealInterpolation,9715984.668,ArealInterpolationGeometricCentroid,City,50,FeatureClassBased,FlipACoin,,CityCentroid,,,1,38.34942008,-90.98714897,Relaxed;Soundex,TwoThousandTen,64136,7040,,12754,0,41180,3012,3,8009.02,71,29,9,Missing
83336,Jamaica,NY,,,486,USCGeocoder,15.6257,1,4.1,,,12,CountyCentroid,Success,LOCATION_TYPE_CITY,Meters,ArealInterpolation,69551678.72,ArealInterpolationGeometricCentroid,CountySubRegion,40,FeatureClassBased,FlipACoin,,CountySubdivisionCentroid,,,1,42.97993584,-76.90961809,Relaxed;Soundex,TwoThousandTen,,160,,38858,1,42900,2051,2,9501,99,36,9,Missing
83342,Long Island City,NY,,,487,USCGeocoder,15.6184,1,4.1,,,11,CityCentroid,Success,LOCATION_TYPE_CITY,Meters,ArealInterpolation,7073998.126,ArealInterpolationGeometricCentroid,City,10,FeatureClassBased,FlipACoin,,CityCentroid,,,1,42.9006951,-78.67011046,Relaxed;Soundex,TwoThousandTen,41135,1280,,41146,0,15380,3010,3,144,29,36,9,Missing
83367,Woodland Hills,CA,,,488,USCGeocoder,15.6737,1,4.1,,,11,CityCentroid,Success,LOCATION_TYPE_CITY,Meters,ArealInterpolation,4282731.236,ArealInterpolationGeometricCentroid,City,37.69230769,FeatureClassBased,FlipACoin,,CityCentroid,,,1,35.02887914,-120.5523911,Relaxed;Soundex,TwoThousandTen,86380,7460,,90120,0,42020,1088,1,123.04,79,6,9,Missing
85116,Canton,MA,,,498,USCGeocoder,0,1,4.1,,,12,CountyCentroid,Success,LOCATION_TYPE_CITY,Meters,ArealInterpolation,50797131.02,ArealInterpolationGeometricCentroid,CountySubRegion,40,FeatureClassBased,FlipACoin,,CountySubdivisionCentroid,,,1,42.17519337,-71.12650777,Relaxed;Soundex,TwoThousandTen,,740,14484,11315,0,14460,1011,1,4152,21,25,9,Missing
85263,Sparks,MD,,,499,USCGeocoder,31.2427,1,4.1,,,11,CityCentroid,Success,LOCATION_TYPE_CITY,Meters,ArealInterpolation,7828933.872,ArealInterpolationGeometricCentroid,City,16.66666667,FeatureClassBased,FlipACoin,,CityCentroid,,,1,38.98018579,-76.84984246,Relaxed;Soundex,TwoThousandTen,70775,8872,47894,91256,0,47900,1012,1,8004.12,33,24,9,Missing
85280,South Windsor,CT,,,500,USCGeocoder,15.6321,1,4.1,,,11,CityCentroid,Success,LOCATION_TYPE_CITY,Meters,ArealInterpolation,8123356.633,ArealInterpolationGeometricCentroid,City,10,FeatureClassBased,FlipACoin,,CityCentroid,,,1,41.68494319,-72.18452284,Relaxed;Soundex,TwoThousandTen,71250,1122,,86790,1,48740,4015,4,8005,15,9,9,Missing
85292,Cicero,NY,,,501,USCGeocoder,78.1351,1,4.1,,,12,CountyCentroid,Success,LOCATION_TYPE_CITY,Meters,ArealInterpolation,125523684.5,ArealInterpolationGeometricCentroid,CountySubRegion,40,FeatureClassBased,FlipACoin,,CountySubdivisionCentroid,,,1,43.16634848,-76.06604881,Relaxed;Soundex,TwoThousandTen,,160,,15704,0,45060,2004,2,104,67,36,9,Missing
85301,Warren,NJ,,,502,USCGeocoder,78.1267,1,4.1,,,12,CountyCentroid,Success,LOCATION_TYPE_CITY,Meters,ArealInterpolation,50877355.43,ArealInterpolationGeometricCentroid,CountySubRegion,40,FeatureClassBased,FlipACoin,,CountySubdivisionCentroid,,,1,40.63226547,-74.51483043,Relaxed;Soundex,TwoThousandTen,,5602,20764,76940,0,35620,2008,2,522.04,35,34,9,Missing
85413,Long Island City,NY,,,504,USCGeocoder,15.5984,1,4.1,,,11,CityCentroid,Success,LOCATION_TYPE_CITY,Meters,ArealInterpolation,7073998.126,ArealInterpolationGeometricCentroid,City,10,FeatureClassBased,FlipACoin,,CityCentroid,,,1,42.9006951,-78.67011046,Relaxed;Soundex,TwoThousandTen,41135,1280,,41146,0,15380,3010,3,144,29,36,9,Missing
85488,Newington,NH,,,505,USCGeocoder,140.6333,1,4.1,,,12,CountyCentroid,Success,LOCATION_TYPE_CITY,Meters,ArealInterpolation,32265515.66,ArealInterpolationGeometricCentroid,CountySubRegion,40,FeatureClassBased,FlipACoin,,CountySubdivisionCentroid,,,1,43.09306207,-70.8358606,Relaxed;Soundex,TwoThousandTen,,1122,40484,51620,0,14460,1043,1,1075,15,33,9,Missing
85534G,Freewater,OR,,,506,USCGeocoder,93.7557,1,4.1,,,11,CityCentroid,Success,LOCATION_TYPE_CITY,Meters,ArealInterpolation,5170833.065,ArealInterpolationGeometricCentroid,City,46,FeatureClassBased,FlipACoin,,CityCentroid,,,1,45.93487369,-118.3912944,Relaxed;Soundex,TwoThousandTen,48600,,,91929,1,37820,7001,7,9502,59,41,9,Missing
85550,Champagne,IL,,,507,USCGeocoder,78.0104,1,4.1,,,11,CityCentroid,Success,LOCATION_TYPE_CITY,Meters,ArealInterpolation,64113861.23,ArealInterpolationGeometricCentroid,City,41.11111111,FeatureClassBased,FlipACoin,,CityCentroid,,,1,40.1138099,-88.2752997,Relaxed;Soundex,TwoThousandTen,12385,1400,,12411,0,16580,1014,1,10,19,17,9,Missing
85577,Jamaica,NY,,,508,USCGeocoder,15.451,1,4.1,,,12,CountyCentroid,Success,LOCATION_TYPE_CITY,Meters,ArealInterpolation,69551678.72,ArealInterpolationGeometricCentroid,CountySubRegion,40,FeatureClassBased,FlipACoin,,CountySubdivisionCentroid,,,1,42.97993584,-76.90961809,Relaxed;Soundex,TwoThousandTen,,160,,38858,1,42900,2051,2,9501,99,36,9,Missing
85616,Billerica,MA,,,509,USCGeocoder,15.6493,1,4.1,,,12,CountyCentroid,Success,LOCATION_TYPE_CITY,Meters,ArealInterpolation,68145494.92,ArealInterpolationGeometricCentroid,CountySubRegion,40,FeatureClassBased,FlipACoin,,CountySubdivisionCentroid,,,1,42.55867287,-71.26730219,Relaxed;Soundex,TwoThousandTen,,740,15764,5805,0,14460,2023,2,3161.02,17,25,9,Missing
85661F,Hamilton,PA,,,511,USCGeocoder,62.4736,1,4.1,,,11,CityCentroid,Success,LOCATION_TYPE_CITY,Meters,ArealInterpolation,477941.499,ArealInterpolationGeometricCentroid,City,46,FeatureClassBased,FlipACoin,,CityCentroid,,,1,40.39249278,-77.83554871,Relaxed;Soundex,TwoThousandTen,54160,,,81784,1,30380,3039,3,9604,87,42,6,ResidenceCityOrZIPWithOneCensusTract
85661G,Mineral Point,PA,,,512,USCGeocoder,78.124,1,4.1,,,12,CountyCentroid,Success,LOCATION_TYPE_CITY,Meters,ArealInterpolation,57688016.63,ArealInterpolationGeometricCentroid,CountySubRegion,40,FeatureClassBased,FlipACoin,,CountySubdivisionCentroid,,,1,41.31884248,-79.96568468,Relaxed;Soundex,TwoThousandTen,,240,,50048,1,36340,1035,1,2014,121,42,9,Missing
85661H,Penn Run,PA,,,513,USCGeocoder,93.7579,1,4.1,,,11,CityCentroid,Success,LOCATION_TYPE_CITY,Meters,ArealInterpolation,4921417.312,ArealInterpolationGeometricCentroid,City,38.57142857,FeatureClassBased,FlipACoin,,CityCentroid,,,1,40.20164112,-76.36745449,Relaxed;Soundex,TwoThousandTen,59344,4000,,58840,0,29540,2005,2,103,71,42,9,Missing
85661K,Mineral Point,PA,,,514,USCGeocoder,15.618,1,4.1,,,12,CountyCentroid,Success,LOCATION_TYPE_CITY,Meters,ArealInterpolation,57688016.63,ArealInterpolationGeometricCentroid,CountySubRegion,40,FeatureClassBased,FlipACoin,,CountySubdivisionCentroid,,,1,41.31884248,-79.96568468,Relaxed;Soundex,TwoThousandTen,,240,,50048,1,36340,1035,1,2014,121,42,9,Missing
85825,Camp Lejeune,NC,,,517,USCGeocoder,78.1869,1,4.1,,,12,CountyCentroid,Success,LOCATION_TYPE_CITY,Meters,ArealInterpolation,693590058.4,ArealInterpolationGeometricCentroid,CountySubRegion,40,FeatureClassBased,FlipACoin,,CountySubdivisionCentroid,,,1,34.62062414,-77.38383289,Relaxed;Soundex,TwoThousandTen,,480,,90482,0,27340,1266,1,5,133,37,9,Missing
85874,Lee's Summit,MO,,,520,USCGeocoder,15.6494,1,4.1,,,12,CountyCentroid,Success,LOCATION_TYPE_CITY,Meters,ArealInterpolation,48423979.63,ArealInterpolationGeometricCentroid,CountySubRegion,40,FeatureClassBased,FlipACoin,,CountySubdivisionCentroid,,,1,38.84429994,-90.32122852,Relaxed;Soundex,TwoThousandTen,54352,7040,,41825,0,41180,2024,2,2109.27,189,29,9,Missing
85894,St. Paul,MN,,,521,USCGeocoder,15.6183,1,4.1,,,11,CityCentroid,Success,LOCATION_TYPE_CITY,Meters,ArealInterpolation,145498914.5,ArealInterpolationGeometricCentroid,City,50,FeatureClassBased,FlipACoin,,CityCentroid,,,1,44.94774025,-93.10399583,Relaxed;Soundex,TwoThousandTen,58000,5120,,58000,0,33460,1045,1,428,123,27,9,Missing
85918,Bedford,MA,,,522,USCGeocoder,15.6209,1,4.1,,,11,CityCentroid,Success,LOCATION_TYPE_CITY,Meters,ArealInterpolation,62500245.68,ArealInterpolationGeometricCentroid,City,46,FeatureClassBased,FlipACoin,,CityCentroid,,,1,41.66149045,-70.93819641,Relaxed;Soundex,TwoThousandTen,45000,1122,,45000,0,39300,1003,1,6509,5,25,9,Missing
85985,Pompano Bay,FL,,,523,USCGeocoder,78.1403,1,4.1,,,11,CityCentroid,Success,LOCATION_TYPE_CITY,Meters,ArealInterpolation,65814462.89,ArealInterpolationGeometricCentroid,City,38,FeatureClassBased,FlipACoin,,CityCentroid,,,1,26.24264803,-80.1298292,Relaxed;Soundex,TwoThousandTen,58050,4992,22744,92782,0,33100,1008,1,304.02,11,12,9,Missing
86022,Cannonsburg,PA,,,524,USCGeocoder,78.1193,1,4.1,,,11,CityCentroid,Success,LOCATION_TYPE_CITY,Meters,ArealInterpolation,5982940.742,ArealInterpolationGeometricCentroid,City,46.36363636,FeatureClassBased,FlipACoin,,CityCentroid,,,1,40.26424669,-80.18677583,Relaxed;Soundex,TwoThousandTen,11152,6280,,11152,0,38300,3001,3,7441,125,42,9,Missing
90057,St. Paul,MN,,,529,USCGeocoder,15.5166,1,4.1,,,11,CityCentroid,Success,LOCATION_TYPE_CITY,Meters,ArealInterpolation,145498914.5,ArealInterpolationGeometricCentroid,City,50,FeatureClassBased,FlipACoin,,CityCentroid,,,1,44.94774025,-93.10399583,Relaxed;Soundex,TwoThousandTen,58000,5120,,58000,0,33460,1045,1,428,123,27,9,Missing
90090,Enfield,CT,,,530,USCGeocoder,0,1,4.1,,,12,CountyCentroid,Success,LOCATION_TYPE_CITY,Meters,ArealInterpolation,88617681.15,ArealInterpolationGeometricCentroid,CountySubRegion,40,FeatureClassBased,FlipACoin,,CountySubdivisionCentroid,,,1,41.9839643,-72.55475388,Relaxed;Soundex,TwoThousandTen,37770,3280,,25990,0,25540,2016,2,4808,3,9,9,Missing
90098,St. Louis,MO,,,531,USCGeocoder,15.7306,1,4.1,,,11,CityCentroid,Success,LOCATION_TYPE_CITY,Meters,ArealInterpolation,171026232.2,ArealInterpolationGeometricCentroid,City,50,FeatureClassBased,FlipACoin,,CityCentroid,,,1,38.63581226,-90.24511868,Relaxed;Soundex,TwoThousandTen,65000,7040,,65000,0,41180,1008,1,1186,510,29,9,Missing
90099,Rockland,MA,,,532,USCGeocoder,78.0937,1,4.1,,,12,CountyCentroid,Success,LOCATION_TYPE_CITY,Meters,ArealInterpolation,26957500.46,ArealInterpolationGeometricCentroid,CountySubRegion,40,FeatureClassBased,FlipACoin,,CountySubdivisionCentroid,,,1,42.12993334,-70.91092625,Relaxed;Soundex,TwoThousandTen,,740,14484,57775,0,14460,1016,1,5021.01,23,25,9,Missing
90117,St. Louis,MO,,,533,USCGeocoder,15.6112,1,4.1,,,11,CityCentroid,Success,LOCATION_TYPE_CITY,Meters,ArealInterpolation,171026232.2,ArealInterpolationGeometricCentroid,City,50,FeatureClassBased,FlipACoin,,CityCentroid,,,1,38.63581226,-90.24511868,Relaxed;Soundex,TwoThousandTen,65000,7040,,65000,0,41180,1008,1,1186,510,29,9,Missing
90128,Clifton Park,NY,,,534,USCGeocoder,15.7632,1,4.1,,,11,CityCentroid,Success,LOCATION_TYPE_CITY,Meters,ArealInterpolation,3934373.34,ArealInterpolationGeometricCentroid,City,35.45454545,FeatureClassBased,FlipACoin,,CityCentroid,,,1,42.96075185,-77.13545694,Relaxed;Soundex,TwoThousandTen,16375,6840,,44864,0,40380,3005,3,503.01,69,36,9,Missing
90143E,Clackamas,OR,,,535,USCGeocoder,0,1,4.1,,,11,CityCentroid,Success,LOCATION_TYPE_CITY,Meters,ArealInterpolation,2117182.102,ArealInterpolationGeometricCentroid,City,14.44444444,FeatureClassBased,FlipACoin,,CityCentroid,,,1,42.57641718,-121.8677525,Relaxed;Soundex,TwoThousandTen,13050,,,90527,1,28900,3113,3,9702,35,41,6,ResidenceCityOrZIPWithOneCensusTract
90143F,West Lynn,OR,,,536,USCGeocoder,93.7474,1,4.1,,,11,CityCentroid,Success,LOCATION_TYPE_CITY,Meters,ArealInterpolation,21135555.98,ArealInterpolationGeometricCentroid,City,10,FeatureClassBased,FlipACoin,,CityCentroid,,,1,45.36687116,-122.639907,Relaxed;Soundex,TwoThousandTen,80150,6442,,92261,0,38900,3044,3,206,5,41,9,Missing
90150,Windsor,CT,,,537,USCGeocoder,0,1,4.1,,,11,CityCentroid,Success,LOCATION_TYPE_CITY,Meters,ArealInterpolation,24256148.97,ArealInterpolationGeometricCentroid,City,50,FeatureClassBased,FlipACoin,,CityCentroid,,,1,41.92671117,-72.65439456,Relaxed;Soundex,TwoThousandTen,87140,3280,,87070,0,25540,1024,1,4762,3,9,9,Missing
90202A,Salem,NH,,,538,USCGeocoder,46.7951,1,4.1,,,12,CountyCentroid,Success,LOCATION_TYPE_CITY,Meters,ArealInterpolation,66953440.88,ArealInterpolationGeometricCentroid,CountySubRegion,40,FeatureClassBased,FlipACoin,,CountySubdivisionCentroid,,,1,42.79021101,-71.22018223,Relaxed;Soundex,TwoThousandTen,,1122,40484,66660,0,14460,4005,4,1002,15,33,9,Missing
90209,Amherst,NY,,,539,USCGeocoder,15.6176,1,4.1,,,12,CountyCentroid,Success,LOCATION_TYPE_CITY,Meters,ArealInterpolation,138807110.9,ArealInterpolationGeometricCentroid,CountySubRegion,40,FeatureClassBased,FlipACoin,,CountySubdivisionCentroid,,,1,43.01168418,-78.75693933,Relaxed;Soundex,TwoThousandTen,,160,,2000,0,15380,2028,2,91.13,29,36,9,Missing
90272,St. Paul,MN,,,540,USCGeocoder,15.757,1,4.1,,,11,CityCentroid,Success,LOCATION_TYPE_CITY,Meters,ArealInterpolation,145498914.5,ArealInterpolationGeometricCentroid,City,50,FeatureClassBased,FlipACoin,,CityCentroid,,,1,44.94774025,-93.10399583,Relaxed;Soundex,TwoThousandTen,58000,5120,,58000,0,33460,1045,1,428,123,27,9,Missing
90320,Cheshire,CT,,,542,USCGeocoder,0,1,4.1,,,11,CityCentroid,Success,LOCATION_TYPE_CITY,Meters,ArealInterpolation,8726222.152,ArealInterpolationGeometricCentroid,City,50,FeatureClassBased,FlipACoin,,CityCentroid,,,1,41.50260108,-72.89925306,Relaxed;Soundex,TwoThousandTen,14200,5602,,14160,0,35300,2031,2,3431.02,9,9,9,Missing
91055,St. Louis,MO,,,543,USCGeocoder,0,1,4.1,,,11,CityCentroid,Success,LOCATION_TYPE_CITY,Meters,ArealInterpolation,171026232.2,ArealInterpolationGeometricCentroid,City,50,FeatureClassBased,FlipACoin,,CityCentroid,,,1,38.63581226,-90.24511868,Relaxed;Soundex,TwoThousandTen,65000,7040,,65000,0,41180,1008,1,1186,510,29,9,Missing
91121A,Silver Bow,MT,,,545,USCGeocoder,78.1181,1,4.1,,,11,CityCentroid,Success,LOCATION_TYPE_CITY,Meters,ArealInterpolation,1862289166,ArealInterpolationGeometricCentroid,City,50,FeatureClassBased,FlipACoin,,CityCentroid,,,1,45.9023551,-112.6567163,Relaxed;Soundex,TwoThousandTen,11397,,,90483,1,15580,5141,5,8,93,30,9,Missing
91121C,Silver Bow,MT,,,546,USCGeocoder,15.5948,1,4.1,,,11,CityCentroid,Success,LOCATION_TYPE_CITY,Meters,ArealInterpolation,1862289166,ArealInterpolationGeometricCentroid,City,50,FeatureClassBased,FlipACoin,,CityCentroid,,,1,45.9023551,-112.6567163,Relaxed;Soundex,TwoThousandTen,11397,,,90483,1,15580,5141,5,8,93,30,9,Missing
91148D,Clackamas,OR,,,547,USCGeocoder,15.6205,1,4.1,,,11,CityCentroid,Success,LOCATION_TYPE_CITY,Meters,ArealInterpolation,2117182.102,ArealInterpolationGeometricCentroid,City,14.44444444,FeatureClassBased,FlipACoin,,CityCentroid,,,1,42.57641718,-121.8677525,Relaxed;Soundex,TwoThousandTen,13050,,,90527,1,28900,3113,3,9702,35,41,6,ResidenceCityOrZIPWithOneCensusTract
91162,St. Louis,MO,,,548,USCGeocoder,15.6433,1,4.1,,,11,CityCentroid,Success,LOCATION_TYPE_CITY,Meters,ArealInterpolation,171026232.2,ArealInterpolationGeometricCentroid,City,50,FeatureClassBased,FlipACoin,,CityCentroid,,,1,38.63581226,-90.24511868,Relaxed;Soundex,TwoThousandTen,65000,7040,,65000,0,41180,1008,1,1186,510,29,9,Missing
91259,Shrewsbury,MA,,,550,USCGeocoder,77.9666,1,4.1,,,12,CountyCentroid,Success,LOCATION_TYPE_CITY,Meters,ArealInterpolation,56328703.88,ArealInterpolationGeometricCentroid,CountySubRegion,40,FeatureClassBased,FlipACoin,,CountySubdivisionCentroid,,,1,42.28419538,-71.7154322,Relaxed;Soundex,TwoThousandTen,,740,,61800,0,49340,1024,1,7393,27,25,9,Missing
91388,North Andover,MA,,,553,USCGeocoder,15.6205,1,4.1,,,11,CityCentroid,Success,LOCATION_TYPE_CITY,Meters,ArealInterpolation,92596799.02,ArealInterpolationGeometricCentroid,City,30,FeatureClassBased,FlipACoin,,CityCentroid,,,1,42.32663214,-72.67454127,Relaxed;Soundex,TwoThousandTen,46330,8000,,46330,0,44140,2011,2,8222,15,25,9,Missing
91413,St. Petersburg,FL,,,554,USCGeocoder,0,1,4.1,,,11,CityCentroid,Success,LOCATION_TYPE_CITY,Meters,ArealInterpolation,357500421.3,ArealInterpolationGeometricCentroid,City,50,FeatureClassBased,FlipACoin,,CityCentroid,,,1,27.76172935,-82.64293485,Relaxed;Soundex,TwoThousandTen,63000,8280,,93042,0,45300,1029,1,286,103,12,9,Missing
91459,St. Louis,MO,,,555,USCGeocoder,14.9239,1,4.1,,,11,CityCentroid,Success,LOCATION_TYPE_CITY,Meters,ArealInterpolation,171026232.2,ArealInterpolationGeometricCentroid,City,50,FeatureClassBased,FlipACoin,,CityCentroid,,,1,38.63581226,-90.24511868,Relaxed;Soundex,TwoThousandTen,65000,7040,,65000,0,41180,1008,1,1186,510,29,9,Missing
91522,Worchester,MA,,,556,USCGeocoder,93.6396,1,4.1,,,11,CityCentroid,Success,LOCATION_TYPE_CITY,Meters,ArealInterpolation,99600277.79,ArealInterpolationGeometricCentroid,City,46,FeatureClassBased,FlipACoin,,CityCentroid,,,1,42.27054255,-71.80794045,Relaxed;Soundex,TwoThousandTen,82000,1122,,82000,0,49340,5001,5,7316,27,25,9,Missing
91524,Millbury,MA,,,557,USCGeocoder,78.1012,1,4.1,,,11,CityCentroid,Success,LOCATION_TYPE_CITY,Meters,ArealInterpolation,26931695.99,ArealInterpolationGeometricCentroid,City,30,FeatureClassBased,FlipACoin,,CityCentroid,,,1,42.147716,-71.51673082,Relaxed;Soundex,TwoThousandTen,41200,1122,,41165,0,49340,2004,2,7442,27,25,9,Missing
91556,St. Joseph,MO,,,560,USCGeocoder,16.0584,1,4.1,,,11,CityCentroid,Success,LOCATION_TYPE_CITY,Meters,ArealInterpolation,115963206.9,ArealInterpolationGeometricCentroid,City,50,FeatureClassBased,FlipACoin,,CityCentroid,,,1,39.75983122,-94.82092468,Relaxed;Soundex,TwoThousandTen,64550,7000,,77236,0,41140,1005,1,15,21,29,9,Missing
91606,Terminal Island,CA,,,561,USCGeocoder,109.3115,1,4.1,,,11,CityCentroid,Success,LOCATION_TYPE_CITY,Meters,ArealInterpolation,2531347.044,ArealInterpolationGeometricCentroid,City,10,FeatureClassBased,FlipACoin,,CityCentroid,,,1,38.11525656,-121.4895582,Relaxed;Soundex,TwoThousandTen,78232,8120,,93340,0,44700,1066,1,40.01,77,6,6,ResidenceCityOrZIPWithOneCensusTract
91729,Elkhorn,NE,,,562,USCGeocoder,156.2219,1,4.1,,,11,CityCentroid,Success,LOCATION_TYPE_CITY,Meters,ArealInterpolation,335814.5235,ArealInterpolationGeometricCentroid,City,10,FeatureClassBased,FlipACoin,,CityCentroid,,,1,40.2882535,-96.12694281,Relaxed;Soundex,TwoThousandTen,14975,,,93210,,,1318,1,9676,97,31,6,ResidenceCityOrZIPWithOneCensusTract
91738,Southbury,CT,,,563,USCGeocoder,15.6549,1,4.1,,,11,CityCentroid,Success,LOCATION_TYPE_CITY,Meters,ArealInterpolation,2569762.384,ArealInterpolationGeometricCentroid,City,36.66666667,FeatureClassBased,FlipACoin,,CityCentroid,,,1,41.13412754,-73.28782374,Relaxed;Soundex,TwoThousandTen,71040,5602,,26620,0,14860,1063,1,606,1,9,9,Missing
91763,Bloomfield,CT,,,564,USCGeocoder,78.1256,1,4.1,,,12,CountyCentroid,Success,LOCATION_TYPE_CITY,Meters,ArealInterpolation,67992928.37,ArealInterpolationGeometricCentroid,CountySubRegion,40,FeatureClassBased,FlipACoin,,CountySubdivisionCentroid,,,1,41.84257881,-72.74062158,Relaxed;Soundex,TwoThousandTen,,1122,,5910,0,25540,1022,1,4714,3,9,9,Missing
91763A,Windsor,CT,,,565,USCGeocoder,15.6258,1,4.1,,,11,CityCentroid,Success,LOCATION_TYPE_CITY,Meters,ArealInterpolation,24256148.97,ArealInterpolationGeometricCentroid,City,50,FeatureClassBased,FlipACoin,,CityCentroid,,,1,41.92671117,-72.65439456,Relaxed;Soundex,TwoThousandTen,87140,3280,,87070,0,25540,1024,1,4762,3,9,9,Missing
91822,St. Louis,MO,,,566,USCGeocoder,15.6261,1,4.1,,,11,CityCentroid,Success,LOCATION_TYPE_CITY,Meters,ArealInterpolation,171026232.2,ArealInterpolationGeometricCentroid,City,50,FeatureClassBased,FlipACoin,,CityCentroid,,,1,38.63581226,-90.24511868,Relaxed;Soundex,TwoThousandTen,65000,7040,,65000,0,41180,1008,1,1186,510,29,9,Missing
91830,Irvine,TX,,,567,USCGeocoder,93.8126,1,4.1,,,11,CityCentroid,Success,LOCATION_TYPE_CITY,Meters,ArealInterpolation,176168521.6,ArealInterpolationGeometricCentroid,City,43.33333333,FeatureClassBased,FlipACoin,,CityCentroid,,,1,32.85838081,-96.97030583,Relaxed;Soundex,TwoThousandTen,37000,1922,19124,93682,0,19100,2003,2,143.12,113,48,9,Missing
91882,McKean,PA,,,568,USCGeocoder,62.4707,1,4.1,,,11,CityCentroid,Success,LOCATION_TYPE_CITY,Meters,ArealInterpolation,1508557.743,ArealInterpolationGeometricCentroid,City,50,FeatureClassBased,FlipACoin,,CityCentroid,,,1,41.99816591,-80.14099593,Relaxed;Soundex,TwoThousandTen,46216,2360,,46224,0,21500,2013,2,103.01,49,42,6,ResidenceCityOrZIPWithOneCensusTract
91910,St. Joseph,MO,,,570,USCGeocoder,0,1,4.1,,,11,CityCentroid,Success,LOCATION_TYPE_CITY,Meters,ArealInterpolation,115963206.9,ArealInterpolationGeometricCentroid,City,50,FeatureClassBased,FlipACoin,,CityCentroid,,,1,39.75983122,-94.82092468,Relaxed;Soundex,TwoThousandTen,64550,7000,,77236,0,41140,1005,1,15,21,29,9,Missing
91934,St. Joseph,MI,,,571,USCGeocoder,78.1175,1,4.1,,,11,CityCentroid,Success,LOCATION_TYPE_CITY,Meters,ArealInterpolation,12409068.01,ArealInterpolationGeometricCentroid,City,50,FeatureClassBased,FlipACoin,,CityCentroid,,,1,42.09901333,-86.48792651,Relaxed;Soundex,TwoThousandTen,70960,870,,70960,0,35660,1063,1,8,21,26,9,Missing
91968A,Huntington,TN,,,572,USCGeocoder,78.0745,1,4.1,,,11,CityCentroid,Success,LOCATION_TYPE_CITY,Meters,ArealInterpolation,30918040.93,ArealInterpolationGeometricCentroid,City,46,FeatureClassBased,FlipACoin,,CityCentroid,,,1,36.00465014,-88.4180299,Relaxed;Soundex,TwoThousandTen,36580,,,90778,,,3051,3,9621,17,47,6,ResidenceCityOrZIPWithOneCensusTract
91989A,St. Louis,MO,,,574,USCGeocoder,15.6307,1,4.1,,,11,CityCentroid,Success,LOCATION_TYPE_CITY,Meters,ArealInterpolation,171026232.2,ArealInterpolationGeometricCentroid,City,50,FeatureClassBased,FlipACoin,,CityCentroid,,,1,38.63581226,-90.24511868,Relaxed;Soundex,TwoThousandTen,65000,7040,,65000,0,41180,1008,1,1186,510,29,9,Missing
91995,St. Louis,MO,,,576,USCGeocoder,15.638,1,4.1,,,11,CityCentroid,Success,LOCATION_TYPE_CITY,Meters,ArealInterpolation,171026232.2,ArealInterpolationGeometricCentroid,City,50,FeatureClassBased,FlipACoin,,CityCentroid,,,1,38.63581226,-90.24511868,Relaxed;Soundex,TwoThousandTen,65000,7040,,65000,0,41180,1008,1,1186,510,29,9,Missing
92006,Chelmsford,MA,,,577,USCGeocoder,15.5174,1,4.1,,,12,CountyCentroid,Success,LOCATION_TYPE_CITY,Meters,ArealInterpolation,59788240.87,ArealInterpolationGeometricCentroid,CountySubRegion,40,FeatureClassBased,FlipACoin,,CountySubdivisionCentroid,,,1,42.59996392,-71.363119,Relaxed;Soundex,TwoThousandTen,,740,15764,13135,0,14460,1016,1,3171.01,17,25,9,Missing
92008,Billerica,MA,,,578,USCGeocoder,0,1,4.1,,,12,CountyCentroid,Success,LOCATION_TYPE_CITY,Meters,ArealInterpolation,68145494.92,ArealInterpolationGeometricCentroid,CountySubRegion,40,FeatureClassBased,FlipACoin,,CountySubdivisionCentroid,,,1,42.55867287,-71.26730219,Relaxed;Soundex,TwoThousandTen,,740,15764,5805,0,14460,2023,2,3161.02,17,25,9,Missing
92025,Clackamas,OR,,,579,USCGeocoder,15.6242,1,4.1,,,11,CityCentroid,Success,LOCATION_TYPE_CITY,Meters,ArealInterpolation,2117182.102,ArealInterpolationGeometricCentroid,City,14.44444444,FeatureClassBased,FlipACoin,,CityCentroid,,,1,42.57641718,-121.8677525,Relaxed;Soundex,TwoThousandTen,13050,,,90527,1,28900,3113,3,9702,35,41,6,ResidenceCityOrZIPWithOneCensusTract
92081,Somers,NY,,,580,USCGeocoder,78.1455,1,4.1,,,11,CityCentroid,Success,LOCATION_TYPE_CITY,Meters,ArealInterpolation,1888862.312,ArealInterpolationGeometricCentroid,City,10,FeatureClassBased,FlipACoin,,CityCentroid,,,1,41.33061031,-73.74088046,Relaxed;Soundex,TwoThousandTen,66872,5602,35644,68308,0,35620,3023,3,149.07,119,36,9,Missing
92086,Bells,CA,,,581,USCGeocoder,78.2408,1,4.1,,,11,CityCentroid,Success,LOCATION_TYPE_CITY,Meters,ArealInterpolation,985991.2582,ArealInterpolationGeometricCentroid,City,26,FeatureClassBased,FlipACoin,,CityCentroid,,,1,36.60887392,-119.7525639,Relaxed;Soundex,TwoThousandTen,7750,2840,,91060,0,23420,3118,3,17,19,6,6,ResidenceCityOrZIPWithOneCensusTract
92107,Essex,VT,,,582,USCGeocoder,125.0464,1,4.1,,,11,CityCentroid,Success,LOCATION_TYPE_CITY,Meters,ArealInterpolation,12281465.72,ArealInterpolationGeometricCentroid,City,50,FeatureClassBased,FlipACoin,,CityCentroid,,,1,44.49021891,-73.11400646,Relaxed;Soundex,TwoThousandTen,24400,1305,,24175,0,15540,4006,4,26.01,7,50,9,Missing
92133,Enfield,CT,,,585,USCGeocoder,15.5554,1,4.1,,,12,CountyCentroid,Success,LOCATION_TYPE_CITY,Meters,ArealInterpolation,88617681.15,ArealInterpolationGeometricCentroid,CountySubRegion,40,FeatureClassBased,FlipACoin,,CountySubdivisionCentroid,,,1,41.9839643,-72.55475388,Relaxed;Soundex,TwoThousandTen,37770,3280,,25990,0,25540,2016,2,4808,3,9,9,Missing
92154,Billerica,MA,,,587,USCGeocoder,15.4991,1,4.1,,,12,CountyCentroid,Success,LOCATION_TYPE_CITY,Meters,ArealInterpolation,68145494.92,ArealInterpolationGeometricCentroid,CountySubRegion,40,FeatureClassBased,FlipACoin,,CountySubdivisionCentroid,,,1,42.55867287,-71.26730219,Relaxed;Soundex,TwoThousandTen,,740,15764,5805,0,14460,2023,2,3161.02,17,25,9,Missing
92204,Bridgewater,NJ,,,590,USCGeocoder,93.5194,1,4.1,,,11,CityCentroid,Success,LOCATION_TYPE_CITY,Meters,ArealInterpolation,16656479.83,ArealInterpolationGeometricCentroid,City,35.45454545,FeatureClassBased,FlipACoin,,CityCentroid,,,1,39.42843443,-75.22836352,Relaxed;Soundex,TwoThousandTen,7600,6162,,7600,0,47220,2010,2,205.03,11,34,9,Missing
92213,Warren,NJ,,,591,USCGeocoder,15.6413,1,4.1,,,12,CountyCentroid,Success,LOCATION_TYPE_CITY,Meters,ArealInterpolation,50877355.43,ArealInterpolationGeometricCentroid,CountySubRegion,40,FeatureClassBased,FlipACoin,,CountySubdivisionCentroid,,,1,40.63226547,-74.51483043,Relaxed;Soundex,TwoThousandTen,,5602,20764,76940,0,35620,2008,2,522.04,35,34,9,Missing
92214E,Dulles,VA,,,592,USCGeocoder,109.3409,1,4.1,,,11,CityCentroid,Success,LOCATION_TYPE_CITY,Meters,ArealInterpolation,6364717.083,ArealInterpolationGeometricCentroid,City,50,FeatureClassBased,FlipACoin,,CityCentroid,,,1,39.02658218,-77.41976349,Relaxed;Soundex,TwoThousandTen,23732,8872,47894,95131,0,47900,1001,1,6115.02,107,51,9,Missing
92214L,St. Petersburg,FL,,,593,USCGeocoder,15.6247,1,4.1,,,11,CityCentroid,Success,LOCATION_TYPE_CITY,Meters,ArealInterpolation,357500421.3,ArealInterpolationGeometricCentroid,City,50,FeatureClassBased,FlipACoin,,CityCentroid,,,1,27.76172935,-82.64293485,Relaxed;Soundex,TwoThousandTen,63000,8280,,93042,0,45300,1029,1,286,103,12,9,Missing
92230,Billerica,MA,,,594,USCGeocoder,0,1,4.1,,,12,CountyCentroid,Success,LOCATION_TYPE_CITY,Meters,ArealInterpolation,68145494.92,ArealInterpolationGeometricCentroid,CountySubRegion,40,FeatureClassBased,FlipACoin,,CountySubdivisionCentroid,,,1,42.55867287,-71.26730219,Relaxed;Soundex,TwoThousandTen,,740,15764,5805,0,14460,2023,2,3161.02,17,25,9,Missing
92259B,Sandy,UT,,,596,USCGeocoder,312.5048,1,4.1,,,11,CityCentroid,Success,LOCATION_TYPE_CITY,Meters,ArealInterpolation,59263063,ArealInterpolationGeometricCentroid,City,50,FeatureClassBased,FlipACoin,,CityCentroid,,,1,40.5715632,-111.8522856,Relaxed;Soundex,TwoThousandTen,,2620,,93010,0,41620,2026,2,1126.13,35,49,9,Missing
92271,Grand Island,NY,,,598,USCGeocoder,15.6276,1,4.1,,,11,CityCentroid,Success,LOCATION_TYPE_CITY,Meters,ArealInterpolation,4876748.218,ArealInterpolationGeometricCentroid,City,31.81818182,FeatureClassBased,FlipACoin,,CityCentroid,,,1,42.98685457,-78.95401475,Relaxed;Soundex,TwoThousandTen,29894,1280,,29828,0,15380,2002,2,73.02,29,36,9,Missing
92313,Irvine,PA,,,601,USCGeocoder,62.4607,1,4.1,,,11,CityCentroid,Success,LOCATION_TYPE_CITY,Meters,ArealInterpolation,2459249.814,ArealInterpolationGeometricCentroid,City,36.66666667,FeatureClassBased,FlipACoin,,CityCentroid,,,1,40.77368019,-78.55010505,Relaxed;Soundex,TwoThousandTen,37192,,,37192,1,20180,1047,1,3318,33,42,6,ResidenceCityOrZIPWithOneCensusTract
92415,Somers,NY,,,602,USCGeocoder,0,1,4.1,,,11,CityCentroid,Success,LOCATION_TYPE_CITY,Meters,ArealInterpolation,1888862.312,ArealInterpolationGeometricCentroid,City,10,FeatureClassBased,FlipACoin,,CityCentroid,,,1,41.33061031,-73.74088046,Relaxed;Soundex,TwoThousandTen,66872,5602,35644,68308,0,35620,3023,3,149.07,119,36,9,Missing
92438,Clackamas,OR,,,603,USCGeocoder,0,1,4.1,,,11,CityCentroid,Success,LOCATION_TYPE_CITY,Meters,ArealInterpolation,2117182.102,ArealInterpolationGeometricCentroid,City,14.44444444,FeatureClassBased,FlipACoin,,CityCentroid,,,1,42.57641718,-121.8677525,Relaxed;Soundex,TwoThousandTen,13050,,,90527,1,28900,3113,3,9702,35,41,6,ResidenceCityOrZIPWithOneCensusTract
92446,St. Louis,MO,,,605,USCGeocoder,15.6532,1,4.1,,,11,CityCentroid,Success,LOCATION_TYPE_CITY,Meters,ArealInterpolation,171026232.2,ArealInterpolationGeometricCentroid,City,50,FeatureClassBased,FlipACoin,,CityCentroid,,,1,38.63581226,-90.24511868,Relaxed;Soundex,TwoThousandTen,65000,7040,,65000,0,41180,1008,1,1186,510,29,9,Missing
92448A,Clackamas,OR,,,606,USCGeocoder,15.6142,1,4.1,,,11,CityCentroid,Success,LOCATION_TYPE_CITY,Meters,ArealInterpolation,2117182.102,ArealInterpolationGeometricCentroid,City,14.44444444,FeatureClassBased,FlipACoin,,CityCentroid,,,1,42.57641718,-121.8677525,Relaxed;Soundex,TwoThousandTen,13050,,,90527,1,28900,3113,3,9702,35,41,6,ResidenceCityOrZIPWithOneCensusTract
92580,Stow,MA,,,607,USCGeocoder,78.1202,1,4.1,,,11,CityCentroid,Success,LOCATION_TYPE_CITY,Meters,ArealInterpolation,8875182.39,ArealInterpolationGeometricCentroid,City,10,FeatureClassBased,FlipACoin,,CityCentroid,,,1,42.70869528,-73.20121253,Relaxed;Soundex,TwoThousandTen,79950,6320,,79985,0,38340,1009,1,9201.02,3,25,9,Missing
92654A,Nutley,NJ,,,608,USCGeocoder,93.7275,1,4.1,,,12,CountyCentroid,Success,LOCATION_TYPE_CITY,Meters,ArealInterpolation,8877571.404,ArealInterpolationGeometricCentroid,CountySubRegion,40,FeatureClassBased,FlipACoin,,CountySubdivisionCentroid,,,1,40.81924155,-74.15718913,Relaxed;Soundex,TwoThousandTen,,5602,35084,53680,0,35620,4005,4,135,13,34,9,Missing
92667,Cranberry Township,PA,,,610,USCGeocoder,93.776,1,4.1,,,11,CityCentroid,Success,LOCATION_TYPE_CITY,Meters,ArealInterpolation,2186556.477,ArealInterpolationGeometricCentroid,City,19.41176471,FeatureClassBased,FlipACoin,,CityCentroid,,,1,40.12458714,-78.8189377,Relaxed;Soundex,TwoThousandTen,10720,3680,,69448,1,43740,3031,3,204,111,42,6,ResidenceCityOrZIPWithOneCensusTract
92670,Sterling Forrest,NY,,,611,USCGeocoder,77.9942,1,4.1,,,11,CityCentroid,Success,LOCATION_TYPE_CITY,Meters,ArealInterpolation,12337359.46,ArealInterpolationGeometricCentroid,City,10,FeatureClassBased,FlipACoin,,CityCentroid,,,1,44.16125046,-75.03631709,Relaxed;Soundex,TwoThousandTen,70849,,,25791,1,36300,5108,5,4925,89,36,6,ResidenceCityOrZIPWithOneCensusTract
92682A,Pittsburgh,KS,,,613,USCGeocoder,156.107,1,4.1,,,11,CityCentroid,Success,LOCATION_TYPE_CITY,Meters,ArealInterpolation,33447065.55,ArealInterpolationGeometricCentroid,City,46,FeatureClassBased,FlipACoin,,CityCentroid,,,1,37.41412472,-94.69830085,Relaxed;Soundex,TwoThousandTen,56025,,,56025,1,38260,2162,2,9570,37,20,9,Missing
92693,Southbury,CT,,,614,USCGeocoder,15.6461,1,4.1,,,11,CityCentroid,Success,LOCATION_TYPE_CITY,Meters,ArealInterpolation,2569762.384,ArealInterpolationGeometricCentroid,City,36.66666667,FeatureClassBased,FlipACoin,,CityCentroid,,,1,41.13412754,-73.28782374,Relaxed;Soundex,TwoThousandTen,71040,5602,,26620,0,14860,1063,1,606,1,9,9,Missing
92751,Bensalem,PA,,,617,USCGeocoder,15.6242,1,4.1,,,12,CountyCentroid,Success,LOCATION_TYPE_CITY,Meters,ArealInterpolation,54206462.27,ArealInterpolationGeometricCentroid,CountySubRegion,40,FeatureClassBased,FlipACoin,,CountySubdivisionCentroid,,,1,40.10860589,-74.94310605,Relaxed;Soundex,TwoThousandTen,,240,37964,5616,0,37980,4000,4,1002.08,17,42,9,Missing
92845,Lee's Summit,MO,,,619,USCGeocoder,15.5039,1,4.1,,,12,CountyCentroid,Success,LOCATION_TYPE_CITY,Meters,ArealInterpolation,48423979.63,ArealInterpolationGeometricCentroid,CountySubRegion,40,FeatureClassBased,FlipACoin,,CountySubdivisionCentroid,,,1,38.84429994,-90.32122852,Relaxed;Soundex,TwoThousandTen,54352,7040,,41825,0,41180,2024,2,2109.27,189,29,9,Missing
92855,Wayne,NJ,,,620,USCGeocoder,109.4966,1,4.1,,,12,CountyCentroid,Success,LOCATION_TYPE_CITY,Meters,ArealInterpolation,65201741.25,ArealInterpolationGeometricCentroid,CountySubRegion,40,FeatureClassBased,FlipACoin,,CountySubdivisionCentroid,,,1,40.94815648,-74.24503464,Relaxed;Soundex,TwoThousandTen,,5602,35644,77840,0,35620,1000,1,2462.02,31,34,9,Missing
92866,St. Marys,PA,,,622,USCGeocoder,0,1,4.1,,,11,CityCentroid,Success,LOCATION_TYPE_CITY,Meters,ArealInterpolation,257763013,ArealInterpolationGeometricCentroid,City,50,FeatureClassBased,FlipACoin,,CityCentroid,,,1,41.45746601,-78.53417748,Relaxed;Soundex,TwoThousandTen,67344,,,67344,1,41260,1054,1,9512,47,42,9,Missing
92866A,St. Marys,PA,,,623,USCGeocoder,15.6243,1,4.1,,,11,CityCentroid,Success,LOCATION_TYPE_CITY,Meters,ArealInterpolation,257763013,ArealInterpolationGeometricCentroid,City,50,FeatureClassBased,FlipACoin,,CityCentroid,,,1,41.45746601,-78.53417748,Relaxed;Soundex,TwoThousandTen,67344,,,67344,1,41260,1054,1,9512,47,42,9,Missing
92889,Truman,AR,,,625,USCGeocoder,140.6207,1,4.1,,,11,CityCentroid,Success,LOCATION_TYPE_CITY,Meters,ArealInterpolation,12989765.68,ArealInterpolationGeometricCentroid,City,43.33333333,FeatureClassBased,FlipACoin,,CityCentroid,,,1,35.67636682,-90.52296692,Relaxed;Soundex,TwoThousandTen,70010,,,94068,0,27860,1000,1,4904,111,5,9,Missing
92890,Littleton,MA,,,626,USCGeocoder,62.6192,1,4.1,,,11,CityCentroid,Success,LOCATION_TYPE_CITY,Meters,ArealInterpolation,9593435.839,ArealInterpolationGeometricCentroid,City,50,FeatureClassBased,FlipACoin,,CityCentroid,,,1,42.5352536,-71.47273989,Relaxed;Soundex,TwoThousandTen,36020,1122,15764,35950,0,14460,3052,3,3241.01,17,25,9,Missing
92895,Concord,MA,,,627,USCGeocoder,78.1157,1,4.1,,,11,CityCentroid,Success,LOCATION_TYPE_CITY,Meters,ArealInterpolation,9286431.011,ArealInterpolationGeometricCentroid,City,46,FeatureClassBased,FlipACoin,,CityCentroid,,,1,42.45175703,-71.40354085,Relaxed;Soundex,TwoThousandTen,75680,1122,15764,15060,0,14460,2013,2,3612,17,25,9,Missing
92922,Lyndhurst,NJ,,,629,USCGeocoder,109.3616,1,4.1,,,12,CountyCentroid,Success,LOCATION_TYPE_CITY,Meters,ArealInterpolation,12675821.25,ArealInterpolationGeometricCentroid,CountySubRegion,40,FeatureClassBased,FlipACoin,,CountySubdivisionCentroid,,,1,40.79655407,-74.11016492,Relaxed;Soundex,TwoThousandTen,,5602,35644,42090,0,35620,4025,4,311,3,34,9,Missing
92974,Wallingford,CT,,,631,USCGeocoder,0,1,4.1,,,11,CityCentroid,Success,LOCATION_TYPE_CITY,Meters,ArealInterpolation,19118676.86,ArealInterpolationGeometricCentroid,City,50,FeatureClassBased,FlipACoin,,CityCentroid,,,1,41.44993274,-72.8188551,Relaxed;Soundex,TwoThousandTen,78880,5602,,78740,0,35300,1008,1,1752,9,9,9,Missing
93000,Ewing,NJ,,,632,USCGeocoder,93.8404,1,4.1,,,12,CountyCentroid,Success,LOCATION_TYPE_CITY,Meters,ArealInterpolation,40400426.69,ArealInterpolationGeometricCentroid,CountySubRegion,40,FeatureClassBased,FlipACoin,,CountySubdivisionCentroid,,,1,40.26508977,-74.80057906,Relaxed;Soundex,TwoThousandTen,,5602,,22185,0,45940,4016,4,37.05,21,34,9,Missing
93023,Littleton,MA,,,633,USCGeocoder,0,1,4.1,,,11,CityCentroid,Success,LOCATION_TYPE_CITY,Meters,ArealInterpolation,9593435.839,ArealInterpolationGeometricCentroid,City,50,FeatureClassBased,FlipACoin,,CityCentroid,,,1,42.5352536,-71.47273989,Relaxed;Soundex,TwoThousandTen,36020,1122,15764,35950,0,14460,3052,3,3241.01,17,25,9,Missing
93024,Research Triangle Park,NC,,,634,USCGeocoder,15.7264,1,4.1,,,12,CountyCentroid,Success,LOCATION_TYPE_CITY,Meters,ArealInterpolation,94222352.49,ArealInterpolationGeometricCentroid,CountySubRegion,40,FeatureClassBased,FlipACoin,,CountySubdivisionCentroid,,,1,36.07153823,-79.58023557,Relaxed;Soundex,TwoThousandTen,73760,3120,,92716,0,24660,3047,3,152,81,37,9,Missing
93032,St. Paul,MN,,,635,USCGeocoder,15.6252,1,4.1,,,11,CityCentroid,Success,LOCATION_TYPE_CITY,Meters,ArealInterpolation,145498914.5,ArealInterpolationGeometricCentroid,City,50,FeatureClassBased,FlipACoin,,CityCentroid,,,1,44.94774025,-93.10399583,Relaxed;Soundex,TwoThousandTen,58000,5120,,58000,0,33460,1045,1,428,123,27,9,Missing
93059,Littleton,MA,,,637,USCGeocoder,0,1,4.1,,,11,CityCentroid,Success,LOCATION_TYPE_CITY,Meters,ArealInterpolation,9593435.839,ArealInterpolationGeometricCentroid,City,50,FeatureClassBased,FlipACoin,,CityCentroid,,,1,42.5352536,-71.47273989,Relaxed;Soundex,TwoThousandTen,36020,1122,15764,35950,0,14460,3052,3,3241.01,17,25,9,Missing
93138A,Northridge,CA,,,638,USCGeocoder,0,1,4.1,,,11,CityCentroid,Success,LOCATION_TYPE_CITY,Meters,ArealInterpolation,4045664.941,ArealInterpolationGeometricCentroid,City,10,FeatureClassBased,FlipACoin,,CityCentroid,,,1,37.96455609,-122.3727498,Relaxed;Soundex,TwoThousandTen,52162,7362,36084,93620,0,41860,3019,3,3650.02,13,6,9,Missing
93139H,Edison,NJ,,,639,USCGeocoder,15.6368,1,4.1,,,12,CountyCentroid,Success,LOCATION_TYPE_CITY,Meters,ArealInterpolation,86517048.05,ArealInterpolationGeometricCentroid,CountySubRegion,40,FeatureClassBased,FlipACoin,,CountySubdivisionCentroid,,,1,40.53630628,-74.36891398,Relaxed;Soundex,TwoThousandTen,45690,5602,20764,20230,0,35620,2006,2,22,23,34,9,Missing
93139T,Sacremento,CA,,,640,USCGeocoder,109.3852,1,4.1,,,11,CityCentroid,Success,LOCATION_TYPE_CITY,Meters,ArealInterpolation,259272812.1,ArealInterpolationGeometricCentroid,City,46,FeatureClassBased,FlipACoin,,CityCentroid,,,1,38.56663215,-121.4682998,Relaxed;Soundex,TwoThousandTen,64000,6922,,92690,0,40900,1034,1,13,67,6,9,Missing
93146A,Turner Falls,MA,,,641,USCGeocoder,78.0504,1,4.1,,,11,CityCentroid,Success,LOCATION_TYPE_CITY,Meters,ArealInterpolation,5952519.839,ArealInterpolationGeometricCentroid,City,35.45454545,FeatureClassBased,FlipACoin,,CityCentroid,,,1,42.59750955,-72.55727345,Relaxed;Soundex,TwoThousandTen,70815,8000,,42285,0,44140,3019,3,407.01,11,25,9,Missing
93153,St. Petersburg,FL,,,642,USCGeocoder,15.6302,1,4.1,,,11,CityCentroid,Success,LOCATION_TYPE_CITY,Meters,ArealInterpolation,357500421.3,ArealInterpolationGeometricCentroid,City,50,FeatureClassBased,FlipACoin,,CityCentroid,,,1,27.76172935,-82.64293485,Relaxed;Soundex,TwoThousandTen,63000,8280,,93042,0,45300,1029,1,286,103,12,9,Missing
93158,St. Petersburg,FL,,,643,USCGeocoder,15.5957,1,4.1,,,11,CityCentroid,Success,LOCATION_TYPE_CITY,Meters,ArealInterpolation,357500421.3,ArealInterpolationGeometricCentroid,City,50,FeatureClassBased,FlipACoin,,CityCentroid,,,1,27.76172935,-82.64293485,Relaxed;Soundex,TwoThousandTen,63000,8280,,93042,0,45300,1029,1,286,103,12,9,Missing
93194,Windsor,CT,,,644,USCGeocoder,0,1,4.1,,,11,CityCentroid,Success,LOCATION_TYPE_CITY,Meters,ArealInterpolation,24256148.97,ArealInterpolationGeometricCentroid,City,50,FeatureClassBased,FlipACoin,,CityCentroid,,,1,41.92671117,-72.65439456,Relaxed;Soundex,TwoThousandTen,87140,3280,,87070,0,25540,1024,1,4762,3,9,9,Missing
93197D,Avon,CT,,,645,USCGeocoder,0,1,4.1,,,12,CountyCentroid,Success,LOCATION_TYPE_CITY,Meters,ArealInterpolation,61103686.71,ArealInterpolationGeometricCentroid,CountySubRegion,40,FeatureClassBased,FlipACoin,,CountySubdivisionCentroid,,,1,41.79067429,-72.85383841,Relaxed;Soundex,TwoThousandTen,,1122,,2060,0,25540,2008,2,4622.01,3,9,9,Missing
93197L,Pembroke,MA,,,647,USCGeocoder,62.493,1,4.1,,,11,CityCentroid,Success,LOCATION_TYPE_CITY,Meters,ArealInterpolation,11483988.74,ArealInterpolationGeometricCentroid,City,46,FeatureClassBased,FlipACoin,,CityCentroid,,,1,42.09884448,-70.78207068,Relaxed;Soundex,TwoThousandTen,48710,1122,14484,52630,0,14460,4014,4,5081.01,23,25,9,Missing
93197M,Newington,NH,,,648,USCGeocoder,15.5798,1,4.1,,,12,CountyCentroid,Success,LOCATION_TYPE_CITY,Meters,ArealInterpolation,32265515.66,ArealInterpolationGeometricCentroid,CountySubRegion,40,FeatureClassBased,FlipACoin,,CountySubdivisionCentroid,,,1,43.09306207,-70.8358606,Relaxed;Soundex,TwoThousandTen,,1122,40484,51620,0,14460,1043,1,1075,15,33,9,Missing
93197R,Stockbridge,MA,,,649,USCGeocoder,62.4609,1,4.1,,,11,CityCentroid,Success,LOCATION_TYPE_CITY,Meters,ArealInterpolation,7762972.326,ArealInterpolationGeometricCentroid,City,10,FeatureClassBased,FlipACoin,,CityCentroid,,,1,42.6138078,-71.93838612,Relaxed;Soundex,TwoThousandTen,62780,1122,,1885,0,49340,4004,4,7001,27,25,9,Missing
93197T,Sudbury,MA,,,650,USCGeocoder,31.2629,1,4.1,,,11,CityCentroid,Success,LOCATION_TYPE_CITY,Meters,ArealInterpolation,54140159,ArealInterpolationGeometricCentroid,City,50,FeatureClassBased,FlipACoin,,CityCentroid,,,1,42.06038214,-72.03378847,Relaxed;Soundex,TwoThousandTen,63345,1122,,63345,0,49340,2010,2,7575,27,25,9,Missing
93197X,East Westport,CT,,,651,USCGeocoder,62.5122,1,4.1,,,12,CountyCentroid,Success,LOCATION_TYPE_CITY,Meters,ArealInterpolation,45752935.96,ArealInterpolationGeometricCentroid,CountySubRegion,40,FeatureClassBased,FlipACoin,,CountySubdivisionCentroid,,,1,41.94238408,-72.74096529,Relaxed;Soundex,TwoThousandTen,,1122,,22070,0,25540,4017,4,4701,3,9,9,Missing
93200,Canton,MA,,,652,USCGeocoder,15.5982,1,4.1,,,12,CountyCentroid,Success,LOCATION_TYPE_CITY,Meters,ArealInterpolation,50797131.02,ArealInterpolationGeometricCentroid,CountySubRegion,40,FeatureClassBased,FlipACoin,,CountySubdivisionCentroid,,,1,42.17519337,-71.12650777,Relaxed;Soundex,TwoThousandTen,,740,14484,11315,0,14460,1011,1,4152,21,25,9,Missing
93211,St. Louis,MO,,,654,USCGeocoder,15.4713,1,4.1,,,11,CityCentroid,Success,LOCATION_TYPE_CITY,Meters,ArealInterpolation,171026232.2,ArealInterpolationGeometricCentroid,City,50,FeatureClassBased,FlipACoin,,CityCentroid,,,1,38.63581226,-90.24511868,Relaxed;Soundex,TwoThousandTen,65000,7040,,65000,0,41180,1008,1,1186,510,29,9,Missing
93225,Lynwood,WA,,,656,USCGeocoder,93.7637,1,4.1,,,11,CityCentroid,Success,LOCATION_TYPE_CITY,Meters,ArealInterpolation,20339616.01,ArealInterpolationGeometricCentroid,City,44.28571429,FeatureClassBased,FlipACoin,,CityCentroid,,,1,47.82849659,-122.3033169,Relaxed;Soundex,TwoThousandTen,40840,7602,42644,90992,0,42660,3011,3,517.01,61,53,9,Missing
93240,Amesbury,MA,,,657,USCGeocoder,62.4084,1,4.1,,,11,CityCentroid,Success,LOCATION_TYPE_CITY,Meters,ArealInterpolation,35546675.97,ArealInterpolationGeometricCentroid,City,50,FeatureClassBased,FlipACoin,,CityCentroid,,,1,42.85294155,-70.94460004,Relaxed;Soundex,TwoThousandTen,1260,1122,37764,1260,0,14460,3000,3,2661,9,25,9,Missing
93243,Enfield,CT,,,658,USCGeocoder,0,1,4.1,,,12,CountyCentroid,Success,LOCATION_TYPE_CITY,Meters,ArealInterpolation,88617681.15,ArealInterpolationGeometricCentroid,CountySubRegion,40,FeatureClassBased,FlipACoin,,CountySubdivisionCentroid,,,1,41.9839643,-72.55475388,Relaxed;Soundex,TwoThousandTen,37770,3280,,25990,0,25540,2016,2,4808,3,9,9,Missing
93260,Conklin,NY,,,659,USCGeocoder,62.4004,1,4.1,,,12,CountyCentroid,Success,LOCATION_TYPE_CITY,Meters,ArealInterpolation,64461706.12,ArealInterpolationGeometricCentroid,CountySubRegion,40,FeatureClassBased,FlipACoin,,CountySubdivisionCentroid,,,1,42.03977881,-75.83414051,Relaxed;Soundex,TwoThousandTen,,160,,17772,0,13780,5023,5,127.01,7,36,9,Missing
93262E,Eagman,MN,,,660,USCGeocoder,78.1339,1,4.1,,,12,CountyCentroid,Success,LOCATION_TYPE_CITY,Meters,ArealInterpolation,86572912.41,ArealInterpolationGeometricCentroid,CountySubRegion,40,FeatureClassBased,FlipACoin,,CountySubdivisionCentroid,,,1,44.81680866,-93.16379873,Relaxed;Soundex,TwoThousandTen,17288,5120,,17288,0,33460,1004,1,607.29,37,27,9,Missing
93280,Wilton,CT,,,661,USCGeocoder,0,1,4.1,,,11,CityCentroid,Success,LOCATION_TYPE_CITY,Meters,ArealInterpolation,714247.4949,ArealInterpolationGeometricCentroid,City,50,FeatureClassBased,FlipACoin,,CityCentroid,,,1,41.18814368,-73.42992362,Relaxed;Soundex,TwoThousandTen,86380,5602,,86370,0,14860,2007,2,452,1,9,9,Missing
93289,Braintree,MA,,,662,USCGeocoder,78.0553,1,4.1,,,11,CityCentroid,Success,LOCATION_TYPE_CITY,Meters,ArealInterpolation,37717781.91,ArealInterpolationGeometricCentroid,City,50,FeatureClassBased,FlipACoin,,CityCentroid,,,1,42.20384192,-71.00222381,Relaxed;Soundex,TwoThousandTen,7740,1122,14484,7740,0,14460,2038,2,4198,21,25,9,Missing
93289A,Braintree,MA,,,663,USCGeocoder,15.6595,1,4.1,,,11,CityCentroid,Success,LOCATION_TYPE_CITY,Meters,ArealInterpolation,37717781.91,ArealInterpolationGeometricCentroid,City,50,FeatureClassBased,FlipACoin,,CityCentroid,,,1,42.20384192,-71.00222381,Relaxed;Soundex,TwoThousandTen,7740,1122,14484,7740,0,14460,2038,2,4198,21,25,9,Missing
93298,St. Louis,MO,,,664,USCGeocoder,15.6275,1,4.1,,,11,CityCentroid,Success,LOCATION_TYPE_CITY,Meters,ArealInterpolation,171026232.2,ArealInterpolationGeometricCentroid,City,50,FeatureClassBased,FlipACoin,,CityCentroid,,,1,38.63581226,-90.24511868,Relaxed;Soundex,TwoThousandTen,65000,7040,,65000,0,41180,1008,1,1186,510,29,9,Missing
93314,Edison,NJ,,,665,USCGeocoder,15.6295,1,4.1,,,12,CountyCentroid,Success,LOCATION_TYPE_CITY,Meters,ArealInterpolation,86517048.05,ArealInterpolationGeometricCentroid,CountySubRegion,40,FeatureClassBased,FlipACoin,,CountySubdivisionCentroid,,,1,40.53630628,-74.36891398,Relaxed;Soundex,TwoThousandTen,45690,5602,20764,20230,0,35620,2006,2,22,23,34,9,Missing
93325,Bridgewater,NJ,,,666,USCGeocoder,15.5172,1,4.1,,,11,CityCentroid,Success,LOCATION_TYPE_CITY,Meters,ArealInterpolation,16656479.83,ArealInterpolationGeometricCentroid,City,35.45454545,FeatureClassBased,FlipACoin,,CityCentroid,,,1,39.42843443,-75.22836352,Relaxed;Soundex,TwoThousandTen,7600,6162,,7600,0,47220,2010,2,205.03,11,34,9,Missing
93346,West Henrietta,NY,,,667,USCGeocoder,93.7151,1,4.1,,,11,CityCentroid,Success,LOCATION_TYPE_CITY,Meters,ArealInterpolation,8238210.947,ArealInterpolationGeometricCentroid,City,31.53846154,FeatureClassBased,FlipACoin,,CityCentroid,,,1,42.68835214,-73.87441316,Relaxed;Soundex,TwoThousandTen,80423,160,,31104,0,10580,2017,2,146.14,1,36,9,Missing
93350,St. Louis,MO,,,668,USCGeocoder,15.8143,1,4.1,,,11,CityCentroid,Success,LOCATION_TYPE_CITY,Meters,ArealInterpolation,171026232.2,ArealInterpolationGeometricCentroid,City,50,FeatureClassBased,FlipACoin,,CityCentroid,,,1,38.63581226,-90.24511868,Relaxed;Soundex,TwoThousandTen,65000,7040,,65000,0,41180,1008,1,1186,510,29,9,Missing
93353,Smithfield,RI,,,669,USCGeocoder,15.5508,1,4.1,,,12,CountyCentroid,Success,LOCATION_TYPE_CITY,Meters,ArealInterpolation,71901623.03,ArealInterpolationGeometricCentroid,CountySubRegion,40,FeatureClassBased,FlipACoin,,CountySubdivisionCentroid,,,1,41.90136649,-71.53104117,Relaxed;Soundex,TwoThousandTen,,5520,,66200,0,39300,2033,2,126.01,7,44,9,Missing
93365,Wilton,CT,,,670,USCGeocoder,0,1,4.1,,,11,CityCentroid,Success,LOCATION_TYPE_CITY,Meters,ArealInterpolation,714247.4949,ArealInterpolationGeometricCentroid,City,50,FeatureClassBased,FlipACoin,,CityCentroid,,,1,41.18814368,-73.42992362,Relaxed;Soundex,TwoThousandTen,86380,5602,,86370,0,14860,2007,2,452,1,9,9,Missing
93370,Craighton,PA,,,671,USCGeocoder,156.1981,1,4.1,,,11,CityCentroid,Success,LOCATION_TYPE_CITY,Meters,ArealInterpolation,4916346.908,ArealInterpolationGeometricCentroid,City,27.77777778,FeatureClassBased,FlipACoin,,CityCentroid,,,1,40.13500619,-75.95932368,Relaxed;Soundex,TwoThousandTen,13632,4000,,10704,0,29540,1049,1,126.02,71,42,6,ResidenceCityOrZIPWithOneCensusTract
93384,Pittsfield,PA,,,672,USCGeocoder,93.7885,1,4.1,,,11,CityCentroid,Success,LOCATION_TYPE_CITY,Meters,ArealInterpolation,10788996.28,ArealInterpolationGeometricCentroid,City,34,FeatureClassBased,FlipACoin,,CityCentroid,,,1,40.67985395,-76.20920834,Relaxed;Soundex,TwoThousandTen,62432,,,62432,1,39060,1016,1,18,107,42,9,Missing
93393,Enfield,CT,,,673,USCGeocoder,15.6204,1,4.1,,,12,CountyCentroid,Success,LOCATION_TYPE_CITY,Meters,ArealInterpolation,88617681.15,ArealInterpolationGeometricCentroid,CountySubRegion,40,FeatureClassBased,FlipACoin,,CountySubdivisionCentroid,,,1,41.9839643,-72.55475388,Relaxed;Soundex,TwoThousandTen,37770,3280,,25990,0,25540,2016,2,4808,3,9,9,Missing
93406,St. Helens,OR,,,674,USCGeocoder,0,1,4.1,,,11,CityCentroid,Success,LOCATION_TYPE_CITY,Meters,ArealInterpolation,14552133.65,ArealInterpolationGeometricCentroid,City,50,FeatureClassBased,FlipACoin,,CityCentroid,,,1,45.85778431,-122.8159711,Relaxed;Soundex,TwoThousandTen,64600,6442,,92703,0,38900,1028,1,9708,9,41,9,Missing
93413,Windsor,CT,,,675,USCGeocoder,0,1,4.1,,,11,CityCentroid,Success,LOCATION_TYPE_CITY,Meters,ArealInterpolation,24256148.97,ArealInterpolationGeometricCentroid,City,50,FeatureClassBased,FlipACoin,,CityCentroid,,,1,41.92671117,-72.65439456,Relaxed;Soundex,TwoThousandTen,87140,3280,,87070,0,25540,1024,1,4762,3,9,9,Missing
93415,St. Johns,MI,,,676,USCGeocoder,62.5623,1,4.1,,,11,CityCentroid,Success,LOCATION_TYPE_CITY,Meters,ArealInterpolation,10065568.74,ArealInterpolationGeometricCentroid,City,50,FeatureClassBased,FlipACoin,,CityCentroid,,,1,43.00092843,-84.55568164,Relaxed;Soundex,TwoThousandTen,70940,4040,,70940,0,29620,1002,1,108.02,37,26,9,Missing
93463,Valley Village,CA,,,677,USCGeocoder,62.5266,1,4.1,,,11,CityCentroid,Success,LOCATION_TYPE_CITY,Meters,ArealInterpolation,49673340.34,ArealInterpolationGeometricCentroid,City,10,FeatureClassBased,FlipACoin,,CityCentroid,,,1,36.48233368,-121.7197998,Relaxed;Soundex,TwoThousandTen,11324,7120,,90370,0,41500,2001,2,110,53,6,9,Missing
93495,North Reading,MA,,,680,USCGeocoder,0,1,4.1,,,12,CountyCentroid,Success,LOCATION_TYPE_CITY,Meters,ArealInterpolation,34956125.11,ArealInterpolationGeometricCentroid,CountySubRegion,40,FeatureClassBased,FlipACoin,,CountySubdivisionCentroid,,,1,42.58150308,-71.08753287,Relaxed;Soundex,TwoThousandTen,,740,15764,48955,0,14460,3011,3,3301,17,25,9,Missing
93503,Littleton,MA,,,681,USCGeocoder,0,1,4.1,,,11,CityCentroid,Success,LOCATION_TYPE_CITY,Meters,ArealInterpolation,9593435.839,ArealInterpolationGeometricCentroid,City,50,FeatureClassBased,FlipACoin,,CityCentroid,,,1,42.5352536,-71.47273989,Relaxed;Soundex,TwoThousandTen,36020,1122,15764,35950,0,14460,3052,3,3241.01,17,25,9,Missing
93504,St. Petersburg,FL,,,682,USCGeocoder,15.6135,1,4.1,,,11,CityCentroid,Success,LOCATION_TYPE_CITY,Meters,ArealInterpolation,357500421.3,ArealInterpolationGeometricCentroid,City,50,FeatureClassBased,FlipACoin,,CityCentroid,,,1,27.76172935,-82.64293485,Relaxed;Soundex,TwoThousandTen,63000,8280,,93042,0,45300,1029,1,286,103,12,9,Missing
93575,Simsbury,CT,,,685,USCGeocoder,0,1,4.1,,,11,CityCentroid,Success,LOCATION_TYPE_CITY,Meters,ArealInterpolation,11822192.03,ArealInterpolationGeometricCentroid,City,50,FeatureClassBased,FlipACoin,,CityCentroid,,,1,41.88077097,-72.81112999,Relaxed;Soundex,TwoThousandTen,69010,3280,,68940,0,25540,2016,2,4663,3,9,9,Missing
93578,Clinton Township,MI,,,686,USCGeocoder,0,1,4.1,,,11,CityCentroid,Success,LOCATION_TYPE_CITY,Meters,ArealInterpolation,4903707.854,ArealInterpolationGeometricCentroid,City,28.66666667,FeatureClassBased,FlipACoin,,CityCentroid,,,1,42.06993607,-83.96860332,Relaxed;Soundex,TwoThousandTen,16480,2162,,16500,1,10300,1019,1,624,91,26,9,Missing
93598,Westminister,MA,,,687,USCGeocoder,78.0161,1,4.1,,,11,CityCentroid,Success,LOCATION_TYPE_CITY,Meters,ArealInterpolation,10904675.2,ArealInterpolationGeometricCentroid,City,10,FeatureClassBased,FlipACoin,,CityCentroid,,,1,41.66561761,-70.16605225,Relaxed;Soundex,TwoThousandTen,75820,740,,16775,0,12700,1032,1,117,1,25,9,Missing
93599,North Grafton,MA,,,688,USCGeocoder,140.6183,1,4.1,,,11,CityCentroid,Success,LOCATION_TYPE_CITY,Meters,ArealInterpolation,24752160.58,ArealInterpolationGeometricCentroid,City,30,FeatureClassBased,FlipACoin,,CityCentroid,,,1,41.69017989,-70.10248904,Relaxed;Soundex,TwoThousandTen,49700,740,,29020,0,12700,4087,4,110.02,1,25,9,Missing
93657,Warren,NJ,,,692,USCGeocoder,15.6838,1,4.1,,,12,CountyCentroid,Success,LOCATION_TYPE_CITY,Meters,ArealInterpolation,50877355.43,ArealInterpolationGeometricCentroid,CountySubRegion,40,FeatureClassBased,FlipACoin,,CountySubdivisionCentroid,,,1,40.63226547,-74.51483043,Relaxed;Soundex,TwoThousandTen,,5602,20764,76940,0,35620,2008,2,522.04,35,34,9,Missing
93660,St. Joseph,MI,,,693,USCGeocoder,0,1,4.1,,,11,CityCentroid,Success,LOCATION_TYPE_CITY,Meters,ArealInterpolation,12409068.01,ArealInterpolationGeometricCentroid,City,50,FeatureClassBased,FlipACoin,,CityCentroid,,,1,42.09901333,-86.48792651,Relaxed;Soundex,TwoThousandTen,70960,870,,70960,0,35660,1063,1,8,21,26,9,Missing
93704,St. Cloud,MN,,,697,USCGeocoder,62.1858,1,4.1,,,11,CityCentroid,Success,LOCATION_TYPE_CITY,Meters,ArealInterpolation,106422068.1,ArealInterpolationGeometricCentroid,City,50,FeatureClassBased,FlipACoin,,CityCentroid,,,1,45.53392811,-94.17180136,Relaxed;Soundex,TwoThousandTen,56896,6980,,,0,41060,2016,2,4.02,145,27,9,Missing
93733,Clackamas,OR,,,698,USCGeocoder,0,1,4.1,,,11,CityCentroid,Success,LOCATION_TYPE_CITY,Meters,ArealInterpolation,2117182.102,ArealInterpolationGeometricCentroid,City,14.44444444,FeatureClassBased,FlipACoin,,CityCentroid,,,1,42.57641718,-121.8677525,Relaxed;Soundex,TwoThousandTen,13050,,,90527,1,28900,3113,3,9702,35,41,6,ResidenceCityOrZIPWithOneCensusTract
93745,Amherst,NY,,,699,USCGeocoder,15.584,1,4.1,,,12,CountyCentroid,Success,LOCATION_TYPE_CITY,Meters,ArealInterpolation,138807110.9,ArealInterpolationGeometricCentroid,CountySubRegion,40,FeatureClassBased,FlipACoin,,CountySubdivisionCentroid,,,1,43.01168418,-78.75693933,Relaxed;Soundex,TwoThousandTen,,160,,2000,0,15380,2028,2,91.13,29,36,9,Missing
93751,Canton,MA,,,700,USCGeocoder,15.6354,1,4.1,,,12,CountyCentroid,Success,LOCATION_TYPE_CITY,Meters,ArealInterpolation,50797131.02,ArealInterpolationGeometricCentroid,CountySubRegion,40,FeatureClassBased,FlipACoin,,CountySubdivisionCentroid,,,1,42.17519337,-71.12650777,Relaxed;Soundex,TwoThousandTen,,740,14484,11315,0,14460,1011,1,4152,21,25,9,Missing
93753,Green Village,CO,,,701,USCGeocoder,62.4812,1,4.1,,,11,CityCentroid,Success,LOCATION_TYPE_CITY,Meters,ArealInterpolation,33653484.75,ArealInterpolationGeometricCentroid,City,20,FeatureClassBased,FlipACoin,,CityCentroid,,,1,40.06532628,-105.9190923,Relaxed;Soundex,TwoThousandTen,,1720,,91577,,,1059,1,2.02,49,8,9,Missing
93768A,Woolrich,PA,,,702,USCGeocoder,62.4912,1,4.1,,,11,CityCentroid,Success,LOCATION_TYPE_CITY,Meters,ArealInterpolation,2098407.931,ArealInterpolationGeometricCentroid,City,10,FeatureClassBased,FlipACoin,,CityCentroid,,,1,39.73061244,-78.84798361,Relaxed;Soundex,TwoThousandTen,82128,3680,,82128,1,43740,1113,1,213,111,42,6,ResidenceCityOrZIPWithOneCensusTract
93828,Westminster,MA,,,704,USCGeocoder,31.2623,1,4.1,,,11,CityCentroid,Success,LOCATION_TYPE_CITY,Meters,ArealInterpolation,10904675.2,ArealInterpolationGeometricCentroid,City,10,FeatureClassBased,FlipACoin,,CityCentroid,,,1,41.66561761,-70.16605225,Relaxed;Soundex,TwoThousandTen,75820,740,,16775,0,12700,1032,1,117,1,25,9,Missing
93925B,Natick,MA,,,709,USCGeocoder,78.2252,1,4.1,,,12,CountyCentroid,Success,LOCATION_TYPE_CITY,Meters,ArealInterpolation,41336243.7,ArealInterpolationGeometricCentroid,CountySubRegion,40,FeatureClassBased,FlipACoin,,CountySubdivisionCentroid,,,1,42.28472958,-71.34970756,Relaxed;Soundex,TwoThousandTen,,740,15764,43895,0,14460,2025,2,3825,17,25,9,Missing
93928,Mt. Pleasant,PA,,,711,USCGeocoder,93.7264,1,4.1,,,11,CityCentroid,Success,LOCATION_TYPE_CITY,Meters,ArealInterpolation,11342079.09,ArealInterpolationGeometricCentroid,City,13.63636364,FeatureClassBased,FlipACoin,,CityCentroid,,,1,41.64758024,-80.14677768,Relaxed;Soundex,TwoThousandTen,48360,,,48360,1,32740,2024,2,1117,39,42,9,Missing
93932,Canton,MA,,,712,USCGeocoder,0,1,4.1,,,12,CountyCentroid,Success,LOCATION_TYPE_CITY,Meters,ArealInterpolation,50797131.02,ArealInterpolationGeometricCentroid,CountySubRegion,40,FeatureClassBased,FlipACoin,,CountySubdivisionCentroid,,,1,42.17519337,-71.12650777,Relaxed;Soundex,TwoThousandTen,,740,14484,11315,0,14460,1011,1,4152,21,25,9,Missing
93938,Branford,CT,,,714,USCGeocoder,15.6197,1,4.1,,,11,CityCentroid,Success,LOCATION_TYPE_CITY,Meters,ArealInterpolation,5403226.521,ArealInterpolationGeometricCentroid,City,50,FeatureClassBased,FlipACoin,,CityCentroid,,,1,41.27740865,-72.81509087,Relaxed;Soundex,TwoThousandTen,7345,5602,,7310,0,35300,2009,2,1841,9,9,9,Missing
93943,St. George,SC,,,715,USCGeocoder,78.1467,1,4.1,,,11,CityCentroid,Success,LOCATION_TYPE_CITY,Meters,ArealInterpolation,7000673.046,ArealInterpolationGeometricCentroid,City,50,FeatureClassBased,FlipACoin,,CityCentroid,,,1,33.18627134,-80.58057811,Relaxed;Soundex,TwoThousandTen,62530,1440,,92912,0,16700,4026,4,102,35,45,6,ResidenceCityOrZIPWithOneCensusTract
93955,St. Louis,MO,,,716,USCGeocoder,15.7178,1,4.1,,,11,CityCentroid,Success,LOCATION_TYPE_CITY,Meters,ArealInterpolation,171026232.2,ArealInterpolationGeometricCentroid,City,50,FeatureClassBased,FlipACoin,,CityCentroid,,,1,38.63581226,-90.24511868,Relaxed;Soundex,TwoThousandTen,65000,7040,,65000,0,41180,1008,1,1186,510,29,9,Missing
93957,St. Louis,MO,,,717,USCGeocoder,15.4929,1,4.1,,,11,CityCentroid,Success,LOCATION_TYPE_CITY,Meters,ArealInterpolation,171026232.2,ArealInterpolationGeometricCentroid,City,50,FeatureClassBased,FlipACoin,,CityCentroid,,,1,38.63581226,-90.24511868,Relaxed;Soundex,TwoThousandTen,65000,7040,,65000,0,41180,1008,1,1186,510,29,9,Missing
93968,St. Louis,MO,,,718,USCGeocoder,15.7153,1,4.1,,,11,CityCentroid,Success,LOCATION_TYPE_CITY,Meters,ArealInterpolation,171026232.2,ArealInterpolationGeometricCentroid,City,50,FeatureClassBased,FlipACoin,,CityCentroid,,,1,38.63581226,-90.24511868,Relaxed;Soundex,TwoThousandTen,65000,7040,,65000,0,41180,1008,1,1186,510,29,9,Missing
93982,Farmington,CT,,,719,USCGeocoder,15.6362,1,4.1,,,12,CountyCentroid,Success,LOCATION_TYPE_CITY,Meters,ArealInterpolation,50681841.7,ArealInterpolationGeometricCentroid,CountySubRegion,40,FeatureClassBased,FlipACoin,,CountySubdivisionCentroid,,,1,41.61528119,-72.14320933,Relaxed;Soundex,TwoThousandTen,,1122,,29910,0,35980,1024,1,7121,11,9,9,Missing
93991,Westlake,CA,,,720,USCGeocoder,62.5155,1,4.1,,,11,CityCentroid,Success,LOCATION_TYPE_CITY,Meters,ArealInterpolation,14257059.63,ArealInterpolationGeometricCentroid,City,50,FeatureClassBased,FlipACoin,,CityCentroid,,,1,34.13690112,-118.8220457,Relaxed;Soundex,TwoThousandTen,84438,4472,31084,90015,0,31100,1042,1,8003.26,37,6,9,Missing
94001,St. Paul,MN,,,721,USCGeocoder,15.5967,1,4.1,,,11,CityCentroid,Success,LOCATION_TYPE_CITY,Meters,ArealInterpolation,145498914.5,ArealInterpolationGeometricCentroid,City,50,FeatureClassBased,FlipACoin,,CityCentroid,,,1,44.94774025,-93.10399583,Relaxed;Soundex,TwoThousandTen,58000,5120,,58000,0,33460,1045,1,428,123,27,9,Missing
94010,St. Charles,MO,,,722,USCGeocoder,234.3649,1,4.1,,,11,CityCentroid,Success,LOCATION_TYPE_CITY,Meters,ArealInterpolation,62224249,ArealInterpolationGeometricCentroid,City,50,FeatureClassBased,FlipACoin,,CityCentroid,,,1,38.7957023,-90.5153643,Relaxed;Soundex,TwoThousandTen,,1740,,43026,0,41180,3013,3,3106.02,183,29,9,Missing
94012,Rocky Hill,CT,,,723,USCGeocoder,0,1,4.1,,,12,CountyCentroid,Success,LOCATION_TYPE_CITY,Meters,ArealInterpolation,35844004.65,ArealInterpolationGeometricCentroid,CountySubRegion,40,FeatureClassBased,FlipACoin,,CountySubdivisionCentroid,,,1,41.65719165,-72.66318988,Relaxed;Soundex,TwoThousandTen,,1122,,65370,0,25540,5011,5,5242,3,9,9,Missing
94042,Smithfield,RI,,,724,USCGeocoder,0,1,4.1,,,12,CountyCentroid,Success,LOCATION_TYPE_CITY,Meters,ArealInterpolation,71901623.03,ArealInterpolationGeometricCentroid,CountySubRegion,40,FeatureClassBased,FlipACoin,,CountySubdivisionCentroid,,,1,41.90136649,-71.53104117,Relaxed;Soundex,TwoThousandTen,,5520,,66200,0,39300,2033,2,126.01,7,44,9,Missing
94047,Enfield,CT,,,725,USCGeocoder,0,1,4.1,,,12,CountyCentroid,Success,LOCATION_TYPE_CITY,Meters,ArealInterpolation,88617681.15,ArealInterpolationGeometricCentroid,CountySubRegion,40,FeatureClassBased,FlipACoin,,CountySubdivisionCentroid,,,1,41.9839643,-72.55475388,Relaxed;Soundex,TwoThousandTen,37770,3280,,25990,0,25540,2016,2,4808,3,9,9,Missing
94048,Billerica,MA,,,726,USCGeocoder,0,1,4.1,,,12,CountyCentroid,Success,LOCATION_TYPE_CITY,Meters,ArealInterpolation,68145494.92,ArealInterpolationGeometricCentroid,CountySubRegion,40,FeatureClassBased,FlipACoin,,CountySubdivisionCentroid,,,1,42.55867287,-71.26730219,Relaxed;Soundex,TwoThousandTen,,740,15764,5805,0,14460,2023,2,3161.02,17,25,9,Missing
94075,North Newton,IA,,,727,USCGeocoder,62.5081,1,4.1,,,11,CityCentroid,Success,LOCATION_TYPE_CITY,Meters,ArealInterpolation,1434430.035,ArealInterpolationGeometricCentroid,City,10,FeatureClassBased,FlipACoin,,CityCentroid,,,1,41.51640189,-92.07762865,Relaxed;Soundex,TwoThousandTen,57225,,,91227,,,2062,2,9603,95,19,9,Missing
94123,Westminster,MA,,,729,USCGeocoder,0,1,4.1,,,11,CityCentroid,Success,LOCATION_TYPE_CITY,Meters,ArealInterpolation,10904675.2,ArealInterpolationGeometricCentroid,City,10,FeatureClassBased,FlipACoin,,CityCentroid,,,1,41.66561761,-70.16605225,Relaxed;Soundex,TwoThousandTen,75820,740,,16775,0,12700,1032,1,117,1,25,9,Missing
94131,Hazelton,PA,,,730,USCGeocoder,78.1493,1,4.1,,,11,CityCentroid,Success,LOCATION_TYPE_CITY,Meters,ArealInterpolation,15569238.44,ArealInterpolationGeometricCentroid,City,40,FeatureClassBased,FlipACoin,,CityCentroid,,,1,40.95042479,-75.97238708,Relaxed;Soundex,TwoThousandTen,33408,7560,,33408,0,42540,3002,3,2172,79,42,9,Missing
94153,Wallingford,CT,,,731,USCGeocoder,15.6191,1,4.1,,,11,CityCentroid,Success,LOCATION_TYPE_CITY,Meters,ArealInterpolation,19118676.86,ArealInterpolationGeometricCentroid,City,50,FeatureClassBased,FlipACoin,,CityCentroid,,,1,41.44993274,-72.8188551,Relaxed;Soundex,TwoThousandTen,78880,5602,,78740,0,35300,1008,1,1752,9,9,9,Missing
94185,St. Petersburg,FL,,,732,USCGeocoder,15.6224,1,4.1,,,11,CityCentroid,Success,LOCATION_TYPE_CITY,Meters,ArealInterpolation,357500421.3,ArealInterpolationGeometricCentroid,City,50,FeatureClassBased,FlipACoin,,CityCentroid,,,1,27.76172935,-82.64293485,Relaxed;Soundex,TwoThousandTen,63000,8280,,93042,0,45300,1029,1,286,103,12,9,Missing
94191,St. Louis Park,MN,,,733,USCGeocoder,0,1,4.1,,,11,CityCentroid,Success,LOCATION_TYPE_CITY,Meters,ArealInterpolation,28120353.72,ArealInterpolationGeometricCentroid,City,50,FeatureClassBased,FlipACoin,,CityCentroid,,,1,44.94875989,-93.36502317,Relaxed;Soundex,TwoThousandTen,57220,5120,,57220,0,33460,1003,1,1226,53,27,9,Missing
94242,Southbury,CT,,,734,USCGeocoder,15.6245,1,4.1,,,11,CityCentroid,Success,LOCATION_TYPE_CITY,Meters,ArealInterpolation,2569762.384,ArealInterpolationGeometricCentroid,City,36.66666667,FeatureClassBased,FlipACoin,,CityCentroid,,,1,41.13412754,-73.28782374,Relaxed;Soundex,TwoThousandTen,71040,5602,,26620,0,14860,1063,1,606,1,9,9,Missing
94263,St. Paul,MN,,,736,USCGeocoder,31.2277,1,4.1,,,11,CityCentroid,Success,LOCATION_TYPE_CITY,Meters,ArealInterpolation,145498914.5,ArealInterpolationGeometricCentroid,City,50,FeatureClassBased,FlipACoin,,CityCentroid,,,1,44.94774025,-93.10399583,Relaxed;Soundex,TwoThousandTen,58000,5120,,58000,0,33460,1045,1,428,123,27,9,Missing
94290,St. Louis,MO,,,737,USCGeocoder,15.5951,1,4.1,,,11,CityCentroid,Success,LOCATION_TYPE_CITY,Meters,ArealInterpolation,171026232.2,ArealInterpolationGeometricCentroid,City,50,FeatureClassBased,FlipACoin,,CityCentroid,,,1,38.63581226,-90.24511868,Relaxed;Soundex,TwoThousandTen,65000,7040,,65000,0,41180,1008,1,1186,510,29,9,Missing
94311,St. Paul,MN,,,739,USCGeocoder,15.6114,1,4.1,,,11,CityCentroid,Success,LOCATION_TYPE_CITY,Meters,ArealInterpolation,145498914.5,ArealInterpolationGeometricCentroid,City,50,FeatureClassBased,FlipACoin,,CityCentroid,,,1,44.94774025,-93.10399583,Relaxed;Soundex,TwoThousandTen,58000,5120,,58000,0,33460,1045,1,428,123,27,9,Missing
94327A,Waterbury Center,VT,,,740,USCGeocoder,78.1575,1,4.1,,,11,CityCentroid,Success,LOCATION_TYPE_CITY,Meters,ArealInterpolation,5171285.815,ArealInterpolationGeometricCentroid,City,34,FeatureClassBased,FlipACoin,,CityCentroid,,,1,44.34297986,-72.74282634,Relaxed;Soundex,TwoThousandTen,76900,,,76975,1,12740,1044,1,9543,23,50,9,Missing
94342,Sterling,MA,,,741,USCGeocoder,78.0363,1,4.1,,,12,CountyCentroid,Success,LOCATION_TYPE_CITY,Meters,ArealInterpolation,82104905.64,ArealInterpolationGeometricCentroid,CountySubRegion,40,FeatureClassBased,FlipACoin,,CountySubdivisionCentroid,,,1,42.44124943,-71.77300236,Relaxed;Soundex,TwoThousandTen,,740,,67385,0,49340,4010,4,7191,27,25,9,Missing